{"distinct": [[{"donor_id": 245086, "city": "boston", "name": "kari a finnegan", "zip": "2124", "state": "ma", "street": "45 milwood street"}, {"donor_id": 423475, "city": null, "name": "shuhrete hakaj", "zip": null, "state": null, "street": null}], [{"donor_id": 21, "city": null, "name": "101 n well ny", "zip": null, "state": null, "street": "11757"}, {"donor_id": 462251, "city": null, "name": "various under $99", "zip": null, "state": null, "street": null}], [{"donor_id": 68241, "city": null, "name": "christina boyd", "zip": null, "state": null, "street": null}, {"donor_id": 68754, "city": "syrcause", "name": "christine body", "zip": "13205", "state": "ny", "street": "106 pembrook drive"}], [{"donor_id": 114835, "city": "new york", "name": "douglas wirth", "zip": "10005", "state": "ny", "street": "120 wall street, fl 14"}, {"donor_id": 114837, "city": "new york", "name": "douglas wirth", "zip": "10039", "state": "ny", "street": "220 westreet 148th streetreet 1h"}], [{"donor_id": 221161, "city": "new york", "name": "john petry", "zip": "10023", "state": "ny", "street": "260 westreet 72nd streetreet"}, {"donor_id": 221168, "city": "ny", "name": "john petry", "zip": "10024", "state": "ny", "street": "275 central park westreet 13c"}], [{"donor_id": 1480, "city": "west chester", "name": "abramson ellen", "zip": null, "state": "pa", "street": "1322 farren lane"}, {"donor_id": 8571, "city": "west babylon", "name": "alfred rogers", "zip": "11704.0", "state": "ny", "street": "11 rose place alfred rogers"}], [{"donor_id": 21, "city": null, "name": "101 n well ny", "zip": null, "state": null, "street": "11757"}, {"donor_id": 460971, "city": null, "name": "under $100", "zip": null, "state": null, "street": null}], [{"donor_id": 116775, "city": "new hyde park", "name": "east 77th realty, llc", "zip": "11040.0", "state": "ny", "street": "1200 union turnpike"}, {"donor_id": 462251, "city": null, "name": "various under $99", "zip": null, "state": null, "street": null}], [{"donor_id": 96440, "city": "new york", "name": "david a mclean", "zip": "10017", "state": "ny", "street": "235 eastreet 42nd streetreet"}, {"donor_id": 384626, "city": "new york", "name": "richard f mccolgan", "zip": "10017", "state": "ny", "street": "235 eastreet 42nd streetreet"}], [{"donor_id": 191921, "city": null, "name": "janet wagner", "zip": null, "state": null, "street": null}, {"donor_id": 300817, "city": "orchard park", "name": "mark wagner", "zip": "14127", "state": "ny", "street": "230 independence drive"}], [{"donor_id": 23014, "city": null, "name": "anonymous anonymous", "zip": null, "state": null, "street": null}, {"donor_id": 23027, "city": "staten island", "name": "anonymous anonymous", "zip": "10307", "state": "ny", "street": "677 craig avenue"}], [{"donor_id": 393963, "city": null, "name": "robert reis", "zip": null, "state": "ca", "street": null}, {"donor_id": 390243, "city": "syracuse", "name": "robert herz", "zip": "13204.0", "state": "ny", "street": "1524 bellevue avenue"}], [{"donor_id": 186157, "city": "new york", "name": "james murphy", "zip": "10036", "state": "ny", "street": "1095 avenue of the americas"}, {"donor_id": 186181, "city": "burnt hills", "name": "james murphy", "zip": "12027", "state": "ny", "street": "post office box 382"}], [{"donor_id": 162524, "city": "glen cove", "name": "guillermo martinez", "zip": "11542.0", "state": "ny", "street": "53a landing road"}, {"donor_id": 162525, "city": "slingerlands", "name": "guillermo martinez", "zip": "12159", "state": "ny", "street": "7 dixon court"}], [{"donor_id": 280158, "city": "long island city", "name": "loretta newman", "zip": "11106", "state": "ny", "street": "32-52 crescent street"}, {"donor_id": 280161, "city": "hyde park", "name": "loretta newman", "zip": "12538", "state": "ny", "street": "691 n quaker lane"}], [{"donor_id": 318898, "city": "new york", "name": "michael burlant", "zip": "10016", "state": "ny", "street": "415 eastreet 37th streetreet, 23f"}, {"donor_id": 328905, "city": "new york", "name": "michael e tonkinson", "zip": "10017.0", "state": "ny", "street": "235 eastreet 42nd streetreet"}], [{"donor_id": 172992, "city": "new york", "name": "hsiao-yu lee", "zip": "10017.0", "state": "ny", "street": "235 eastreet 42nd streetreet"}, {"donor_id": 237956, "city": "new york", "name": "juan fernando forero uribe", "zip": "10017", "state": "ny", "street": "235 eastreet 42nd streetreet"}], [{"donor_id": 52934, "city": "hartsdale", "name": "carl bloom", "zip": "10530", "state": "ny", "street": "70 caterson terrace"}, {"donor_id": 98410, "city": "hartsdale", "name": "deborah bloom", "zip": "10530", "state": "ny", "street": "80 eastreet hartsdale avenue, #407"}], [{"donor_id": 400006, "city": "atlanta", "name": "rogers franklin i campbell", "zip": "30338", "state": "ga", "street": "400 perimeter walk pfizer regional mgmt"}, {"donor_id": 454544, "city": "atlanta", "name": "timothy anderson", "zip": "30338", "state": "ga", "street": "400 perimeter walk pfizer regional mgmt"}], [{"donor_id": 360887, "city": "suffern", "name": "pedro torres", "zip": "10901", "state": "ny", "street": "6 lenox court apt 712"}, {"donor_id": 360885, "city": "bay shore", "name": "pedro torres", "zip": "11706.0", "state": "ny", "street": "24 hyde park avenue"}], [{"donor_id": 442918, "city": "syracuse", "name": "tarky lombardi, jr", "zip": "13203", "state": "ny", "street": "99 burlingame road"}, {"donor_id": 442910, "city": "jamesville", "name": "tarky lombardi, jr", "zip": "13078", "state": "ny", "street": "6248 steinway drive"}], [{"donor_id": 231391, "city": "hopewell juncti", "name": "joseph grillo", "zip": "12533.0", "state": "ny", "street": "248 buttonwood way"}, {"donor_id": 231392, "city": "west harrison", "name": "joseph grillo", "zip": "10604", "state": "ny", "street": "7 park lane"}], [{"donor_id": 308438, "city": "niskayuna", "name": "mary ellen walsh", "zip": "12309", "state": "ny", "street": "1421 fox hollow road"}, {"donor_id": 308440, "city": "ontartio", "name": "mary ellen walsh", "zip": "14519", "state": "ny", "street": "7703 tamarack lane"}], [{"donor_id": 124950, "city": "amsterdam", "name": "elizabeth decker", "zip": "12010", "state": "ny", "street": "guy park avenue"}, {"donor_id": 124951, "city": "highland", "name": "elizabeth decker", "zip": "12528", "state": "ny", "street": "post office box 441"}], [{"donor_id": 450053, "city": "new york", "name": "thomas kolb", "zip": "10025", "state": "ny", "street": "680 westreet end avenue apartment 4"}, {"donor_id": 450052, "city": "oceanside", "name": "thomas kolb", "zip": "11572", "state": "ny", "street": "3971 carrel boulevard"}], [{"donor_id": 91408, "city": "harrison", "name": "david hall", "zip": "10528", "state": "ny", "street": "220 north street"}, {"donor_id": 91411, "city": "lowell", "name": "david hall", "zip": "01852", "state": "ma", "street": "262 hovery street"}], [{"donor_id": 187846, "city": "honolulu", "name": "james smith", "zip": "96815.0", "state": "hi", "street": "419 keoniana street  #ph 1"}, {"donor_id": 187852, "city": "troy", "name": "james smith", "zip": "12180", "state": "ny", "street": "519 pinewoods avenue"}], [{"donor_id": 300439, "city": "chicago", "name": "mark smith", "zip": "60606", "state": "il", "street": "420 w van buren street il1-0059"}, {"donor_id": 300428, "city": "bellmore", "name": "mark smith", "zip": "11710", "state": "ny", "street": "122  ocean avenue"}], [{"donor_id": 181406, "city": "darien", "name": "james brown", "zip": "06820", "state": "ct", "street": "31 old parish road"}, {"donor_id": 181408, "city": "irving", "name": "james brown", "zip": "75063", "state": "tx", "street": "3929 w john carpenter fwy tx1-1731"}], [{"donor_id": 91656, "city": "jacksonville", "name": "david hightower", "zip": "32258", "state": "fl", "street": "14000 citi cards way"}, {"donor_id": 91658, "city": "atlanta", "name": "david hightower", "zip": "30339", "state": "ga", "street": "2859 paces ferry road"}], [{"donor_id": 151546, "city": "rockaway", "name": "george greco", "zip": "11694", "state": "ny", "street": "14215 neponsit avenue"}, {"donor_id": 151547, "city": "old bridge", "name": "george greco", "zip": "8857.0", "state": "nj", "street": "3130 bordentown avenue"}], [{"donor_id": 450370, "city": "teaneck", "name": "thomas long", "zip": "07666", "state": "nj", "street": "340 johnson avenue"}, {"donor_id": 450373, "city": "breezy point", "name": "thomas long", "zip": "11697", "state": "ny", "street": "6 beach 219 street"}], [{"donor_id": 121298, "city": "new city", "name": "edwin jefferies", "zip": "10956", "state": "ny", "street": "1-c heritage drive"}, {"donor_id": 121299, "city": "pittsford", "name": "edwin jefferies", "zip": "14534", "state": "ny", "street": "11 sunset boulevard"}], [{"donor_id": 1, "city": null, "name": "$99 & less", "zip": null, "state": null, "street": null}, {"donor_id": 376407, "city": "farmington", "name": "region 9a uaw ny cap cncl", "zip": "06032", "state": "ct", "street": "111 south road"}], [{"donor_id": 476108, "city": "east greenwich", "name": "william moore", "zip": "02818", "state": "ri", "street": "60  westfield  drive"}, {"donor_id": 476111, "city": "bronx", "name": "william moore", "zip": "10473", "state": "ny", "street": "88 heron lane"}], [{"donor_id": 421046, "city": "new york", "name": "shayla m ebner", "zip": "10017", "state": "ny", "street": "pfizer inc"}, {"donor_id": 300482, "city": "new york", "name": "mark soued mr", "zip": "10017", "state": "ny", "street": "235 eastreet 42nd streetreet"}], [{"donor_id": 124063, "city": "melville", "name": "eliot lonardo", "zip": "11747", "state": "ny", "street": "31 glendale drive"}, {"donor_id": 124062, "city": "huntington station", "name": "eliot lonardo", "zip": "11746", "state": "ny", "street": "3 bernice court"}], [{"donor_id": 255468, "city": "long beach", "name": "kevin braddish", "zip": "11561", "state": "ny", "street": "652 w hudson street"}, {"donor_id": 255469, "city": "long beach", "name": "kevin braddish", "zip": "11561", "state": "ny", "street": "652 westreet hudson"}], [{"donor_id": 119267, "city": "columbia", "name": "edward harris", "zip": "65203", "state": "mo", "street": "606 medforoad drive"}, {"donor_id": 119272, "city": "greenwood villa", "name": "edward harris", "zip": "80111", "state": "co", "street": "6465 greenwood plaza boulevard suite 150"}], [{"donor_id": 374478, "city": "new york", "name": "raymond lang", "zip": "10048", "state": "ny", "street": "2 world trade center, 16th fl"}, {"donor_id": 374480, "city": "east setauket", "name": "raymond lang", "zip": "11733.0", "state": "ny", "street": "6 franko lane"}], [{"donor_id": 198327, "city": "riverhead", "name": "jeffrey davis", "zip": "11901", "state": "ny", "street": "1800 osborn avenue lot 29e"}, {"donor_id": 198331, "city": "middle island", "name": "jeffrey davis", "zip": "11953", "state": "ny", "street": "240 juniper court"}], [{"donor_id": 257203, "city": "washington", "name": "kevin o'connor", "zip": "20006", "state": "dc", "street": "1775 pennsylvania avenue, nw"}, {"donor_id": 257261, "city": "rocky point", "name": "kevin oconnor", "zip": "11778", "state": "ny", "street": "2 constant court"}], [{"donor_id": 316733, "city": "new york", "name": "member dues", "zip": "10279", "state": "ny", "street": "233 broadway, suite 850"}, {"donor_id": 316739, "city": "englewood cliffs", "name": "member dues", "zip": "07632", "state": "nj", "street": "611 palisade avenue"}], [{"donor_id": 316744, "city": "plainview", "name": "member dues", "zip": "11803", "state": "ny", "street": "777 old country road"}, {"donor_id": 316754, "city": "jamaica", "name": "member dues", "zip": "11430", "state": "ny", "street": "post office box 300406, jfk station"}], [{"donor_id": 51075, "city": "louisville", "name": "busch frederick", "zip": "40245.0", "state": "ky", "street": "4116 woodmont park lane"}, {"donor_id": 144672, "city": "campbellsburg", "name": "frederick busch", "zip": "40011", "state": "ky", "street": "765 lake road"}], [{"donor_id": 222173, "city": "floral park", "name": "john ryan", "zip": "11001", "state": "ny", "street": "66 violet avenue"}, {"donor_id": 222165, "city": "cohoes", "name": "john ryan", "zip": "12047", "state": "ny", "street": "39 hunters run boulevard"}], [{"donor_id": 367292, "city": "rochester", "name": "phillip clark", "zip": "14604", "state": "ny", "street": "186 n water street"}, {"donor_id": 367289, "city": "pittsford", "name": "phillip clark", "zip": "14534", "state": "ny", "street": "168 fishers road"}], [{"donor_id": 305842, "city": "corfu", "name": "mary jensen", "zip": "14036", "state": "ny", "street": "2440  angling road"}, {"donor_id": 305844, "city": "fayetteville", "name": "mary jensen", "zip": "13066", "state": "ny", "street": "8055 summerview drive"}], [{"donor_id": 446967, "city": "fishkill", "name": "thomas adams", "zip": "12524", "state": "ny", "street": "76 jackson street"}, {"donor_id": 446965, "city": "troy", "name": "thomas adams", "zip": "12180", "state": "ny", "street": "16 brentwood avenue"}], [{"donor_id": 215055, "city": "shirley", "name": "john doyle", "zip": "11967", "state": "ny", "street": "23 cypress lane"}, {"donor_id": 215050, "city": "rochester", "name": "john doyle", "zip": "14607", "state": "ny", "street": "210 brunswick street"}], [{"donor_id": 393968, "city": "yorktown hts", "name": "robert reiss", "zip": "10598", "state": "ny", "street": "1940 commerce street     apt 107"}, {"donor_id": 393969, "city": "bronx", "name": "robert reiss", "zip": "10466", "state": "ny", "street": "43-77 bronx blvd, room 303"}], [{"donor_id": 318248, "city": "victor", "name": "michael bell", "zip": "14564", "state": "ny", "street": "1225 red fox run"}, {"donor_id": 318252, "city": "stony brook", "name": "michael bell", "zip": "11790", "state": "ny", "street": "2 maple av"}], [{"donor_id": 220571, "city": "victor", "name": "john norton", "zip": "14564", "state": "ny", "street": "900 sagamore way"}, {"donor_id": 220569, "city": "akron", "name": "john norton", "zip": "14001", "state": "ny", "street": "23 marshall avenue"}], [{"donor_id": 184484, "city": "orchard park", "name": "james kane", "zip": "14127", "state": "ny", "street": "183 bridle path"}, {"donor_id": 184490, "city": "east meadow", "name": "james kane", "zip": "11554", "state": "ny", "street": "346 harvaroad couirt"}], [{"donor_id": 378395, "city": "staten island", "name": "richard bell", "zip": "10310", "state": "ny", "street": "38 bement avenue"}, {"donor_id": 378396, "city": "penfield", "name": "richard bell", "zip": "14526", "state": "ny", "street": "4 folkstone la"}], [{"donor_id": 328348, "city": "new city", "name": "michael weiss", "zip": "10956", "state": "ny", "street": "40 lady godiva way"}, {"donor_id": 328341, "city": "brooklyn", "name": "michael weiss", "zip": "11230", "state": "ny", "street": "15 waldorf court"}], [{"donor_id": 119078, "city": "leawood", "name": "edward garofalo", "zip": "66224.0", "state": "ks", "street": "15428 iron horse circle"}, {"donor_id": 119077, "city": "wilmington", "name": "edward garofalo", "zip": "19801", "state": "de", "street": "1000 north westreet street"}], [{"donor_id": 328446, "city": "central islip", "name": "michael williams", "zip": "11722", "state": "ny", "street": "43 oakdale avenue"}, {"donor_id": 328437, "city": "abington", "name": "michael williams", "zip": "19001", "state": "pa", "street": "1168 fitzwatertown road"}], [{"donor_id": 327745, "city": "tega cay", "name": "michael taylor", "zip": "29708", "state": "sc", "street": "634 andover lane"}, {"donor_id": 327740, "city": "morris plains", "name": "michael taylor", "zip": "07950", "state": "nj", "street": "201 tabor road"}], [{"donor_id": 135368, "city": null, "name": "event 9-23-10", "zip": null, "state": "ny", "street": null}, {"donor_id": 346642, "city": "farmington", "name": "ny reg 9a uaw cap council", "zip": "06032", "state": "ct", "street": "111 south road"}], [{"donor_id": 202630, "city": "atlanta", "name": "jennifer m semon", "zip": "30338", "state": "ga", "street": "400 perimeter walk pfizer regional mgmt"}, {"donor_id": 261514, "city": "atlanta", "name": "kristina marie haffenden", "zip": "30338", "state": "ga", "street": "400 perimeter walk pfizer regional mgmt"}], [{"donor_id": 96812, "city": "albany", "name": "david s kellogg", "zip": "12211", "state": "ny", "street": "10 longwood drive"}, {"donor_id": 96799, "city": "new york", "name": "david s keller", "zip": "10017.0", "state": "ny", "street": "235 eastreet 42nd streetreet"}], [{"donor_id": 402397, "city": "tyler", "name": "ronald williams", "zip": "75707", "state": "tx", "street": "11225 county road 2206"}, {"donor_id": 402402, "city": "freeport", "name": "ronald williams", "zip": "11520.0", "state": "ny", "street": "459 guy lombardo avenue"}], [{"donor_id": 45750, "city": "new york city", "name": "brian carr", "zip": "10017", "state": "ny", "street": "255 eastreet 49th streetreet"}, {"donor_id": 46459, "city": "new york", "name": "brian hermann", "zip": "10128", "state": "ny", "street": "50 eastreet 89"}], [{"donor_id": 45022, "city": "greenwood villa", "name": "brent campbell", "zip": "80111", "state": "co", "street": "6465 greenwood plaza boulevard suite 150"}, {"donor_id": 65678, "city": "greenwood villa", "name": "cherrah l casserly", "zip": "80111", "state": "co", "street": "6465 greenwood plaza boulevard suite 150"}], [{"donor_id": 286597, "city": "naperville", "name": "m michael reilly", "zip": "60564", "state": "il", "street": "3536 scottsdale circle"}, {"donor_id": 326146, "city": "rockaway park", "name": "michael reilly", "zip": "11694", "state": "ny", "street": "130 beach 121 street 4g"}], [{"donor_id": 237428, "city": "dix hills", "name": "joyce russo", "zip": "11746.0", "state": "ny", "street": "15 darius court"}, {"donor_id": 237430, "city": "holtsville", "name": "joyce russo", "zip": "11742", "state": "ny", "street": "post office box 1"}], [{"donor_id": 221983, "city": "floral park", "name": "john rooney", "zip": "11001", "state": "ny", "street": "265-08 eastreet willistreeton avenue"}, {"donor_id": 221990, "city": "southold", "name": "john rooney", "zip": "11971", "state": "ny", "street": "post office box 1622"}], [{"donor_id": 184412, "city": "tampa", "name": "james johnson", "zip": "33647", "state": "fl", "street": "8727 tantallon circle"}, {"donor_id": 184386, "city": "chicago", "name": "james johnson", "zip": "60628.0", "state": "il", "street": "1136 e 101 street"}], [{"donor_id": 473851, "city": "memphis", "name": "william galloway", "zip": "38117.0", "state": "tn", "street": "27 s fernway drive"}, {"donor_id": 475001, "city": "new york", "name": "william kelly", "zip": "10025", "state": "ny", "street": "425 riverside drive"}], [{"donor_id": 202551, "city": "atlanta", "name": "jennifer ann cunningham", "zip": "30338", "state": "ga", "street": "400 perimeter walk pfizer regional mgmt"}, {"donor_id": 418900, "city": "atlanta", "name": "shana thomas-thornton", "zip": "30338", "state": "ga", "street": "400 perimeter walk pfizer regional mgmt"}], [{"donor_id": 67997, "city": "new york", "name": "christian hoefke", "zip": "10017.0", "state": "ny", "street": "235 eastreet 42nd streetreet"}, {"donor_id": 167636, "city": "new york", "name": "heidi k kras", "zip": "10017", "state": "ny", "street": "235 eastreet 42nd streetreet"}], [{"donor_id": 331071, "city": "new york", "name": "michelle eileen warner", "zip": "10017", "state": "ny", "street": "235 eastreet 42nd streetreet"}, {"donor_id": 414284, "city": "new york", "name": "sarma a vadlamani", "zip": "10017", "state": "ny", "street": "235 eastreet 42nd streetreet"}], [{"donor_id": 139960, "city": "new canaan", "name": "francis may", "zip": "06840", "state": "ct", "street": "3114 avalon drive w"}, {"donor_id": 139930, "city": "hamburg", "name": "francis maiorana", "zip": "14075", "state": "ny", "street": "4406 manor lane"}], [{"donor_id": 81443, "city": "new york", "name": "dale a anderson", "zip": "10017", "state": "ny", "street": "235 eastreet 42nd streetreet"}, {"donor_id": 136751, "city": "new york", "name": "felicia l josephs", "zip": "10017", "state": "ny", "street": "235 eastreet 42nd streetreet"}], [{"donor_id": 27864, "city": "groton", "name": "arindam bose", "zip": "06340", "state": "ct", "street": "eastern point road groton plant and resear"}, {"donor_id": 103135, "city": "groton", "name": "dennis morse", "zip": "06340", "state": "ct", "street": "eastern point road groton plant and resear"}], [{"donor_id": 186988, "city": "armonk", "name": "james quinn", "zip": "10504", "state": "ny", "street": "1 maple way"}, {"donor_id": 186996, "city": "oceanside", "name": "james quinn", "zip": "11572", "state": "ny", "street": "2976 waverly avenue"}], [{"donor_id": 89350, "city": "brooklyn", "name": "david brown", "zip": "11206", "state": "ny", "street": "166 ten eyck walk"}, {"donor_id": 89365, "city": "bedford hills", "name": "david brown", "zip": "10507", "state": "ny", "street": "86 bedforoad center road"}], [{"donor_id": 235084, "city": "bellerose villa", "name": "joseph vitale", "zip": "11001", "state": "ny", "street": "2 michigan road"}, {"donor_id": 235091, "city": "williamsville", "name": "joseph vitale", "zip": "14221", "state": "ny", "street": "8472 chadway court"}], [{"donor_id": 185598, "city": "new rochelle", "name": "james mccann", "zip": "10801-1101", "state": "ny", "street": "15 interlaken avenue"}, {"donor_id": 185600, "city": "roslyn hgts", "name": "james mccann", "zip": "11577", "state": "ny", "street": "92 carlyle place"}], [{"donor_id": 35007, "city": "new york", "name": "bari mattes", "zip": "10011", "state": "ny", "street": "231 tenth avenue 7b"}, {"donor_id": 300482, "city": "new york", "name": "mark soued mr", "zip": "10017", "state": "ny", "street": "235 eastreet 42nd streetreet"}], [{"donor_id": 70440, "city": "reston", "name": "christophe dovel", "zip": "22090", "state": "va", "street": "pfizer inc 2 fountain square"}, {"donor_id": 160003, "city": "reston", "name": "greene judy", "zip": "22090", "state": "va", "street": "pfizer inc 2 fountain square"}], [{"donor_id": 389326, "city": "bellmore", "name": "robert friedman", "zip": "11710", "state": "ny", "street": "2487 kerry lane"}, {"donor_id": 389325, "city": "glen cove", "name": "robert friedman", "zip": "11542", "state": "ny", "street": "1 school street, suite 201"}], [{"donor_id": 64267, "city": "new york", "name": "charles smith", "zip": "10023", "state": "ny", "street": "340 westreet 72nd streetreet 5b"}, {"donor_id": 64265, "city": "forest hills", "name": "charles smith", "zip": "11375.0", "state": "ny", "street": "20 beechknoll road"}], [{"donor_id": 324291, "city": "valley cottage", "name": "michael mcdermott", "zip": "10989", "state": "ny", "street": "280 mirth drive"}, {"donor_id": 324299, "city": "brewster", "name": "michael mcdermott", "zip": "10509", "state": "ny", "street": "post office box 242"}], [{"donor_id": 153500, "city": "new york", "name": "george r skillin", "zip": "10017", "state": "ny", "street": "235 eastreet 42nd streetreet"}, {"donor_id": 443628, "city": "new york", "name": "terence fullerton", "zip": "10017.0", "state": "ny", "street": "235 eastreet 42nd streetreet"}], [{"donor_id": 33402, "city": "new york", "name": "barbara johnson", "zip": "10039", "state": "ny", "street": "2569 seventh avenue, 13e"}, {"donor_id": 33401, "city": "bronx", "name": "barbara johnson", "zip": "10466", "state": "ny", "street": "1175 eastreet 225th streetreet"}], [{"donor_id": 54957, "city": "new york", "name": "carmen vega-martinez", "zip": "10017.0", "state": "ny", "street": "235 eastreet 42nd streetreet"}, {"donor_id": 168657, "city": "new york", "name": "helman john", "zip": "10017", "state": "ny", "street": "235 eastreet 42nd streetreet"}], [{"donor_id": 69875, "city": "new york", "name": "christine r enciso", "zip": "10017", "state": "ny", "street": "235 eastreet 42nd streetreet"}, {"donor_id": 462187, "city": "new york", "name": "vanessa l mccoy", "zip": "10017.0", "state": "ny", "street": "235 eastreet 42nd streetreet"}], [{"donor_id": 324165, "city": "clifton park", "name": "michael mayo", "zip": "12065", "state": "ny", "street": "6 belmonte lane"}, {"donor_id": 318174, "city": "ocoee", "name": "michael battenfield", "zip": "34761.0", "state": "fl", "street": "2401 cliffdale street"}], [{"donor_id": 214160, "city": "holmdel", "name": "john crowley", "zip": "07733", "state": "nj", "street": "1 princess court"}, {"donor_id": 214164, "city": "forest hills", "name": "john crowley", "zip": "11375", "state": "ny", "street": "100-44 75th avenue"}], [{"donor_id": 348270, "city": "saugerties", "name": "otto scheu", "zip": "12477", "state": "ny", "street": "11 roming lane"}, {"donor_id": 77680, "city": "scott", "name": "cormier carolyn", "zip": "70583", "state": "la", "street": "105 cameo drive"}], [{"donor_id": 449067, "city": "keller", "name": "thomas gianelle", "zip": "76248.0", "state": "tx", "street": "993 dove meadow"}, {"donor_id": 449066, "city": "irving", "name": "thomas gianelle", "zip": "75039", "state": "tx", "street": "6460 las colinas boulevard"}], [{"donor_id": 40762, "city": "new york", "name": "bhaswati parasuraman", "zip": "10017.0", "state": "ny", "street": "235 eastreet 42nd streetreet"}, {"donor_id": 48033, "city": "new york", "name": "brian c stanton", "zip": "10017", "state": "ny", "street": "235 eastreet 42nd streetreet"}], [{"donor_id": 159328, "city": "kalamazoo", "name": "grabowski daniel", "zip": "49001", "state": "mi", "street": "7000 portage road"}, {"donor_id": 346847, "city": "kalamazoo", "name": "oakland nancy", "zip": "49001", "state": "mi", "street": "7000 portage road"}], [{"donor_id": 318791, "city": "northport", "name": "michael brown", "zip": "11768.0", "state": "ny", "street": "3 spinnaker court"}, {"donor_id": 318795, "city": "new rochelle", "name": "michael brown", "zip": "10804", "state": "ny", "street": "35 gaby lane"}], [{"donor_id": 31234, "city": "vermont", "name": "autumn gray sullivan", "zip": "05001", "state": "vt", "street": "pfizer inc remote location"}, {"donor_id": 189586, "city": "wisconsin", "name": "james s blachowicz", "zip": "53001", "state": "wi", "street": "pfizer inc remote location"}], [{"donor_id": 23071, "city": "new york", "name": "anonymous", "zip": "10014.0", "state": "ny", "street": "80 macdougal street"}, {"donor_id": 67102, "city": "new york", "name": "chris deri", "zip": "10075.0", "state": "ny", "street": "440 eastreet 79th streetreet 5b"}], [{"donor_id": 74478, "city": "new york", "name": "claudia caine", "zip": "10075.0", "state": "ny", "street": "425 e 79th street"}, {"donor_id": 361602, "city": "hartford", "name": "perry taryn", "zip": "6114.0", "state": "ct", "street": "35 gilman street"}], [{"donor_id": 168842, "city": "schaumburg", "name": "henry allen", "zip": "60173", "state": "il", "street": "425 north martingale road suite 900"}, {"donor_id": 228918, "city": "staten island", "name": "joseph allen", "zip": "10309.0", "state": "ny", "street": "73 wirt avenue"}], [{"donor_id": 124218, "city": "west sand lake", "name": "elisabeth taylor", "zip": "12196", "state": "ny", "street": "74 valleydrive"}, {"donor_id": 124228, "city": "mount sinai", "name": "elisabetha taylor", "zip": "11766", "state": "ny", "street": "post office box 63"}], [{"donor_id": 383874, "city": "new york", "name": "richard thompson", "zip": "10154", "state": "ny", "street": "345 park avenue"}, {"donor_id": 383878, "city": "west islip", "name": "richard thompson", "zip": "11795", "state": "ny", "street": "455 bay 4th street"}], [{"donor_id": 291465, "city": "skaneateles", "name": "margaret oconnell", "zip": "13152", "state": "ny", "street": "140 e genesee street"}, {"donor_id": 291466, "city": "e rochester", "name": "margaret oconnell", "zip": "14445.0", "state": "ny", "street": "884 gleason circle"}], [{"donor_id": 329210, "city": "new york", "name": "michael patrick ievers", "zip": "10017.0", "state": "ny", "street": "235 eastreet 42nd streetreet"}, {"donor_id": 410338, "city": "new york", "name": "samantha mcnamara", "zip": "10017.0", "state": "ny", "street": "235 eastreet 42nd streetreet"}], [{"donor_id": 482841, "city": "stowe", "name": "ziherl elizabeth", "zip": "05672", "state": "vt", "street": "112 south main street pmb 135"}, {"donor_id": 470144, "city": "parkland", "name": "webb gail", "zip": "33076", "state": "fl", "street": "11485 northwestreet 75th manor"}], [{"donor_id": 117860, "city": "reston", "name": "edmondson michael", "zip": "22090", "state": "va", "street": "pfizer inc 2 fountain square"}, {"donor_id": 170862, "city": "reston", "name": "hill herman", "zip": "22090", "state": "va", "street": "pfizer inc 2 fountain square"}], [{"donor_id": 76561, "city": "new york", "name": "connell christopher", "zip": "10017", "state": "ny", "street": "235 eastreet 42nd streetreet"}, {"donor_id": 224831, "city": "new york", "name": "john e kresevic", "zip": "10017", "state": "ny", "street": "235 eastreet 42nd streetreet"}], [{"donor_id": 328797, "city": "orchard park", "name": "michael and janette neumeister", "zip": "14127", "state": "ny", "street": "155 squire drive"}, {"donor_id": 328796, "city": "carle place", "name": "michael and dina magliocco", "zip": "11514", "state": "ny", "street": "280 mineola boulevard"}], [{"donor_id": 473535, "city": "east islip", "name": "william esposito", "zip": "11730.0", "state": "ny", "street": "212 wensley lane"}, {"donor_id": 474517, "city": "newark", "name": "william herberger", "zip": "19711", "state": "de", "street": "200 white clay center drive de2-2001"}], [{"donor_id": 46539, "city": "columbus", "name": "brian jackman", "zip": "43240", "state": "oh", "street": "1111 polaris parkway oh1-1245"}, {"donor_id": 261425, "city": "columbus", "name": "kristina blaker", "zip": "43240", "state": "oh", "street": "1111 polaris parkway oh1-1213"}], [{"donor_id": 215473, "city": "lindenhurst", "name": "john farrell", "zip": "11757", "state": "ny", "street": "83 herbert avenue"}, {"donor_id": 215476, "city": "athens", "name": "john farrell jr", "zip": "12015", "state": "ny", "street": "337 vosenkill road"}], [{"donor_id": 327588, "city": "buffalo", "name": "michael sullivan", "zip": "14203", "state": "ny", "street": "210 elicott street - apt 505"}, {"donor_id": 327594, "city": "new york", "name": "michael sullivan", "zip": "10022", "state": "ny", "street": "401 eastreet 60th streetreet"}], [{"donor_id": 322643, "city": "copiague", "name": "michael johnson", "zip": "11726", "state": "ny", "street": "330 eastreet drive"}, {"donor_id": 322634, "city": "new rochelle", "name": "michael johnson", "zip": "10801", "state": "ny", "street": "150 lockwood avenue"}], [{"donor_id": 218568, "city": "buffalo", "name": "john licata", "zip": "14228", "state": "ny", "street": "1 john james audubon parkway 210"}, {"donor_id": 218616, "city": "buffalo", "name": "john lipsitz", "zip": "14222", "state": "ny", "street": "176 bryant avenue"}], [{"donor_id": 12154, "city": "greenwood villa", "name": "amber l martin", "zip": "80111", "state": "co", "street": "6465 greenwood plaza boulevard suite 150"}, {"donor_id": 384629, "city": "greenwood villa", "name": "richard f mccolgan", "zip": "80111", "state": "co", "street": "6465 greenwood plaza boulevard suite 150"}], [{"donor_id": 344420, "city": "troy", "name": "niel kelleher", "zip": "12182", "state": "ny", "street": null}, {"donor_id": 296958, "city": "troy", "name": "marjan gjetaj", "zip": "48084", "state": "mi", "street": "100 westreet maple road"}], [{"donor_id": 12423, "city": "new york", "name": "amit jajodia", "zip": "10017", "state": "ny", "street": "235 eastreet 42nd streetreet"}, {"donor_id": 459254, "city": "new york", "name": "tracie laham", "zip": "10017", "state": "ny", "street": "235 eastreet 42nd streetreet"}], [{"donor_id": 36646, "city": "new york", "name": "bekele abebe", "zip": "10017", "state": "ny", "street": "235 e 42nd street pfizer inc"}, {"donor_id": 267976, "city": "new york", "name": "lawrence ken-kwofie", "zip": "10017", "state": "ny", "street": "235 e 42nd street pfizer inc"}], [{"donor_id": 160660, "city": "brooklyn", "name": "gregory belinfanti", "zip": "11201", "state": "ny", "street": "182 clinton street"}, {"donor_id": 161114, "city": "san carlos", "name": "gregory hill", "zip": "94070", "state": "ca", "street": "14 coleman court"}], [{"donor_id": 263744, "city": "long beach", "name": "larry benowitz", "zip": "11561", "state": "ny", "street": null}, {"donor_id": 444461, "city": "long beach", "name": "terrence mcdonald", "zip": "11561", "state": "ny", "street": "344 w olive street"}], [{"donor_id": 382424, "city": "parsippany", "name": "richard paolini", "zip": "07054", "state": "nj", "street": "morris corporate center iv 369 interpace"}, {"donor_id": 384294, "city": "carrollton", "name": "richard williams", "zip": "23314", "state": "va", "street": "13379 inlet cove lane"}], [{"donor_id": 107634, "city": "irvine", "name": "dombrowsky bryan", "zip": "92714", "state": "ca", "street": "pfizer western reg sales offic 18500 von"}, {"donor_id": 280032, "city": "irvine", "name": "loret ross", "zip": "92714", "state": "ca", "street": "pfizer western reg sales offic 18500 von"}], [{"donor_id": 399327, "city": "new york", "name": "roger berlind", "zip": "10028.0", "state": "ny", "street": "120 eastreet end avenue"}, {"donor_id": 435506, "city": "new york", "name": "stuart baritz", "zip": "10028.0", "state": "ny", "street": "60 eastreet end avenue"}], [{"donor_id": 430427, "city": "louisville", "name": "stephen saurer", "zip": "40204.0", "state": "ky", "street": "1260 everett avenue"}, {"donor_id": 431057, "city": "wauwatosa", "name": "stephen r stone", "zip": "53226.0", "state": "wi", "street": "2511 n 95th street"}], [{"donor_id": 301298, "city": "research triang", "name": "mark s bloomer", "zip": "27709", "state": "nc", "street": "post office box 13989 1040 swabia court"}, {"donor_id": 441906, "city": "throckmorton", "name": "talley brown", "zip": "76483", "state": "tx", "street": "post office box 726"}], [{"donor_id": 90931, "city": "collegeville", "name": "david gans", "zip": "19426", "state": "pa", "street": "500 arcola road"}, {"donor_id": 94619, "city": "redwood", "name": "david running", "zip": "13679", "state": "ny", "street": "44185 stine road"}], [{"donor_id": 11882, "city": "chicago", "name": "amanda lindow", "zip": "60603", "state": "il", "street": "10 s dearborn street il1-0863"}, {"donor_id": 405297, "city": "chicago", "name": "roy cardona", "zip": "60603", "state": "il", "street": "10 s dearborn street il1-0709"}], [{"donor_id": 18439, "city": "new york", "name": "angela d noble", "zip": "10017", "state": "ny", "street": "235 eastreet 42nd streetreet"}, {"donor_id": 316341, "city": "new york", "name": "melissa a finlay", "zip": "10017.0", "state": "ny", "street": "235 eastreet 42nd streetreet"}], [{"donor_id": 173670, "city": "albany", "name": "i mueller", "zip": "12210", "state": "ny", "street": "141 lancaster street"}, {"donor_id": 220199, "city": "pleasantville", "name": "john mueller", "zip": "10570", "state": "ny", "street": "52 guion street"}], [{"donor_id": 482841, "city": "stowe", "name": "ziherl elizabeth", "zip": "05672", "state": "vt", "street": "112 south main street pmb 135"}, {"donor_id": 457673, "city": "new york", "name": "tom dennison", "zip": "10024", "state": "ny", "street": "apt br, 302 w 90th street"}], [{"donor_id": 38893, "city": "jamaica", "name": "bernie diamond", "zip": "11432.0", "state": "ny", "street": "82-72 161 street"}, {"donor_id": 195352, "city": "jamaica", "name": "jean duchatellier", "zip": "11432", "state": "ny", "street": "84-48 168th street, 5c"}], [{"donor_id": 382380, "city": "work at home", "name": "richard paddock", "zip": null, "state": "md", "street": "work at home - maryland md1-1111"}, {"donor_id": 383742, "city": "voorheesville", "name": "richard straut", "zip": "12186", "state": "ny", "street": "27 claremont avenue"}], [{"donor_id": 108546, "city": "donald", "name": "don saxton", "zip": "97020.0", "state": "or", "street": "post office box 668"}, {"donor_id": 62223, "city": "scroggins", "name": "charles cone", "zip": "75480.0", "state": "tx", "street": "post office box 34"}], [{"donor_id": 225236, "city": "new york", "name": "john r schafer", "zip": "10017", "state": "ny", "street": "235 eastreet 42nd streetreet"}, {"donor_id": 308717, "city": "new york", "name": "mary l merriweather", "zip": "10017.0", "state": "ny", "street": "235 eastreet 42nd streetreet"}], [{"donor_id": 351327, "city": "atlanta", "name": "patricia day", "zip": "30338", "state": "ga", "street": "400 perimeter walk pfizer regional mgmt"}, {"donor_id": 352001, "city": "oceanside", "name": "patricia justin", "zip": "11572.0", "state": "ny", "street": "3396 riverside drive"}], [{"donor_id": 67075, "city": "merrick", "name": "chris daddario", "zip": "11566.0", "state": "ny", "street": "1390 chapin avenue"}, {"donor_id": 68713, "city": "downers grove", "name": "christine bagby", "zip": "60515", "state": "il", "street": "3050 highland parkway il1-1833"}], [{"donor_id": 379327, "city": "palm springs", "name": "richard dachman", "zip": "92262", "state": "ca", "street": "1221 solana trl"}, {"donor_id": 378081, "city": "new york", "name": "richard allman", "zip": "10033", "state": "ny", "street": "187 pinehurstreet 4a"}], [{"donor_id": 50301, "city": "westlake", "name": "brunson michael", "zip": "76262", "state": "tx", "street": "pfizer inc 7 village circle"}, {"donor_id": 238834, "city": "amherst", "name": "judith michael", "zip": "14226", "state": "ny", "street": "47 parkledge"}], [{"donor_id": 69, "city": "middle village", "name": "a catalano", "zip": "11379.0", "state": "ny", "street": "100-52 81th street"}, {"donor_id": 103597, "city": "middle village", "name": "dennis m iaoarone", "zip": "11379.0", "state": "ny", "street": "63-24 71street streetreet"}], [{"donor_id": 375050, "city": "rye", "name": "raymond l mariani", "zip": "10580", "state": "ny", "street": "2 parkway drive"}, {"donor_id": 374550, "city": "fox point", "name": "raymond manista", "zip": "53217.0", "state": "wi", "street": "7236 n crossway road"}], [{"donor_id": 13794, "city": "greenwood villa", "name": "ana p dooley", "zip": "80111", "state": "co", "street": "6465 greenwood plaza boulevard suite 150"}, {"donor_id": 70920, "city": "centennial", "name": "christophe lane", "zip": "80111", "state": "co", "street": "6465 greenwood plaza boulevard suite 150"}], [{"donor_id": 463560, "city": null, "name": "victor gallo", "zip": null, "state": null, "street": null}, {"donor_id": 109326, "city": "buffalo", "name": "donald gallo", "zip": "14202", "state": "ny", "street": "589 delaware avenue"}], [{"donor_id": 80086, "city": "new york", "name": "cynthia green", "zip": "10017", "state": "ny", "street": "235 e 42nd street pfizer inc"}, {"donor_id": 344768, "city": "new york", "name": "nina hill", "zip": "10017", "state": "ny", "street": "235 e 42nd street pfizer inc"}], [{"donor_id": 13016, "city": "new york", "name": "amy kinder", "zip": "10017", "state": "ny", "street": "235 eastreet 42nd streetreet"}, {"donor_id": 241185, "city": "new york", "name": "julie k simonson", "zip": "10017.0", "state": "ny", "street": "235 eastreet 42nd streetreet"}], [{"donor_id": 206509, "city": "new york", "name": "jim e horsey", "zip": "10017", "state": "ny", "street": "235 eastreet 42nd streetreet"}, {"donor_id": 344440, "city": "new york", "name": "niesha n foster", "zip": "10017", "state": "ny", "street": "235 e 42nd street pfizer inc"}], [{"donor_id": 356273, "city": "bronx", "name": "paul chapman", "zip": "10472", "state": "ny", "street": "1055 bronx river avenue, apt 1"}, {"donor_id": 179829, "city": "bronx", "name": "jacqueline medina sciarron", "zip": "10461", "state": "ny", "street": "1615 haight avenue"}], [{"donor_id": 189527, "city": "farmingdale", "name": "james p merlino", "zip": "11735", "state": "ny", "street": "89 lambert avenue"}, {"donor_id": 189517, "city": "glastonbury", "name": "james p reynolds", "zip": "06033", "state": "ct", "street": "51 riverview road"}], [{"donor_id": 131275, "city": "scarsdale", "name": "eric wolf", "zip": "10583.0", "state": "ny", "street": "15 stratton road"}, {"donor_id": 176573, "city": "delphi,", "name": "isley-aldr sandra", "zip": "46923.0", "state": "in", "street": "210 north walnut street"}], [{"donor_id": 96481, "city": "ancram", "name": "david and jennifer boice", "zip": "12502", "state": "ny", "street": "post office box 114"}, {"donor_id": 293379, "city": "philmont", "name": "maria ostrander", "zip": "12565", "state": "ny", "street": "post office box 585"}], [{"donor_id": 147042, "city": "new york", "name": "gallagher kristin", "zip": "10017", "state": "ny", "street": "235 eastreet 42nd streetreet"}, {"donor_id": 202639, "city": "new york", "name": "jennifer r huff", "zip": "10017", "state": "ny", "street": "235 eastreet 42nd streetreet"}], [{"donor_id": 70524, "city": "pittsburgh", "name": "christophe fekos", "zip": "15216", "state": "pa", "street": "post office box 8051"}, {"donor_id": 371683, "city": "brooklyn", "name": "ralph kiriat", "zip": "11229", "state": "ny", "street": "post office box 290613"}], [{"donor_id": 40723, "city": "atlanta", "name": "bezila james", "zip": "30346", "state": "ga", "street": "pfizer regional mgmt office 400 perimete"}, {"donor_id": 115003, "city": "atlanta", "name": "dowis michael", "zip": "30346", "state": "ga", "street": "pfizer regional mgmt office 400 perimete"}]], "match": [[{"donor_id": 352273, "city": "chappaqua", "name": "patricia lynch ludman", "zip": "10514", "state": "ny", "street": "66 hilltop drive"}, {"donor_id": 352271, "city": "chappaqua", "name": "patricia lynch ludman", "zip": "10514", "state": "ny", "street": "66 hilltop drive"}], [{"donor_id": 214922, "city": "lynbrook", "name": "john doherty", "zip": "11563", "state": "ny", "street": "54 rolling street"}, {"donor_id": 214921, "city": "lynbrook", "name": "john doherty", "zip": "11563", "state": "ny", "street": "54 rolling street"}], [{"donor_id": 431695, "city": "bayport", "name": "steve pesciotti", "zip": "11705", "state": "ny", "street": "1154-c montauk highway"}, {"donor_id": 431696, "city": "bayport", "name": "steve pesciotti", "zip": "11705", "state": "ny", "street": "1154-c montauk highway"}], [{"donor_id": 266493, "city": "new york", "name": "lauren alfonso douglas", "zip": "10017", "state": "ny", "street": "235 eastreet 42nd streetreet"}, {"donor_id": 266494, "city": "new york", "name": "lauren alfonso douglas", "zip": "10017.0", "state": "ny", "street": "235 eastreet 42nd streetreet"}], [{"donor_id": 465523, "city": "mastic", "name": "vincent pascale, jr", "zip": "11950", "state": "ny", "street": "1470 montauk highway"}, {"donor_id": 465524, "city": "mastic", "name": "vincent pascale, jr", "zip": "11950", "state": "ny", "street": "1470 montauk highway"}], [{"donor_id": 434808, "city": "buffalo", "name": "steven whipple", "zip": "14222", "state": "ny", "street": "548 potomac avenue apt 2"}, {"donor_id": 434804, "city": "buffalo", "name": "steven whipple", "zip": "14222", "state": "ny", "street": "548 potomac avenue"}], [{"donor_id": 474857, "city": "atlanta", "name": "william johnson", "zip": "30339", "state": "ga", "street": "2859 paces ferry road"}, {"donor_id": 474859, "city": "atlanta", "name": "william johnson", "zip": "30339", "state": "ga", "street": "2859 paces ferry road southeastreet"}], [{"donor_id": 363662, "city": "huntington", "name": "peter kramer", "zip": "11743", "state": "ny", "street": "169 sweet hollow road"}, {"donor_id": 363656, "city": "huntington", "name": "peter kramer", "zip": "11743", "state": "ny", "street": "160 sweet hollow road"}], [{"donor_id": 388275, "city": "east meadow", "name": "robert daly", "zip": "11554", "state": "ny", "street": "2464 jefferson street"}, {"donor_id": 388273, "city": "east meadow", "name": "robert daly", "zip": "11554", "state": "ny", "street": "2464 jefferson street"}], [{"donor_id": 476962, "city": "port jefferson", "name": "william rodgers", "zip": "11776", "state": "ny", "street": "11 cornell street"}, {"donor_id": 476963, "city": "port jefferson", "name": "william rodgers", "zip": "11776.0", "state": "ny", "street": "11 cornell street"}], [{"donor_id": 91005, "city": "utica", "name": "david giglio", "zip": "13501", "state": "ny", "street": "231 elizabeth street"}, {"donor_id": 91006, "city": "utica", "name": "david giglio", "zip": "13501.0", "state": "ny", "street": "231 elizabeth street"}], [{"donor_id": 394631, "city": "holtsville", "name": "robert schneider", "zip": "11742", "state": "ny", "street": "195-6th avenue"}, {"donor_id": 394629, "city": "holtsville", "name": "robert schneider", "zip": "11742", "state": "ny", "street": "195 6th avenue"}], [{"donor_id": 124979, "city": "youngstown", "name": "elizabeth diachun", "zip": "14174", "state": "ny", "street": "2073 lake road"}, {"donor_id": 124980, "city": "youngstown", "name": "elizabeth diachun", "zip": "14174", "state": "ny", "street": "2083 lake road"}], [{"donor_id": 195367, "city": "syracuse", "name": "jean erickson", "zip": "13202", "state": "ny", "street": "922 university bldg"}, {"donor_id": 195368, "city": "syracuse", "name": "jean erickson", "zip": "13202", "state": "ny", "street": "922 university building"}], [{"donor_id": 479987, "city": "new york", "name": "woods jeffrey", "zip": "10128", "state": "ny", "street": "134 eastreet 93 streetreet"}, {"donor_id": 200279, "city": "new york", "name": "jeffrey woods", "zip": "10128", "state": "ny", "street": "134 eastreet 93road street apt 9c"}], [{"donor_id": 360344, "city": "new york", "name": "paulette bailey", "zip": "10038", "state": "ny", "street": "150 broadway #800"}, {"donor_id": 360345, "city": "new york", "name": "paulette bailey", "zip": "10038", "state": "ny", "street": "150 broadway st, 600"}], [{"donor_id": 125171, "city": "east meadow", "name": "elizabeth fries", "zip": "11554", "state": "ny", "street": "2199 7th street"}, {"donor_id": 125172, "city": "east meadow", "name": "elizabeth fries", "zip": "11554", "state": "ny", "street": "2199 seventh street"}], [{"donor_id": 664, "city": "new york", "name": "aaron malinsky", "zip": "10128", "state": "ny", "street": "360 e 88th street apt 33c"}, {"donor_id": 670, "city": "new york", "name": "aaron malinsky", "zip": "10128", "state": "ny", "street": "360 eastreet 88th streetreet #33c"}], [{"donor_id": 186285, "city": "manorille", "name": "james nicholl", "zip": "11949", "state": "ny", "street": "3 putter court"}, {"donor_id": 186287, "city": "manorville", "name": "james nicholl", "zip": "11949", "state": "ny", "street": "4 putter court"}], [{"donor_id": 312292, "city": "new york", "name": "matthew r krebs", "zip": "10017", "state": "ny", "street": "pfizer inc"}, {"donor_id": 312289, "city": "new york", "name": "matthew r krebs", "zip": "10017", "state": "ny", "street": "235 eastreet 42nd streetreet"}], [{"donor_id": 278956, "city": "new york", "name": "lloyd douglas", "zip": "10027", "state": "ny", "street": "165 w 127th street no#2j"}, {"donor_id": 278964, "city": "new york", "name": "lloyd douglas", "zip": "10027", "state": "ny", "street": "165 w 127th street no 2-j"}], [{"donor_id": 430022, "city": "rockville ctr", "name": "stephen murphy", "zip": "11570", "state": "ny", "street": "200 raymond street"}, {"donor_id": 430030, "city": null, "name": "stephen murphy", "zip": null, "state": null, "street": null}], [{"donor_id": 21731, "city": null, "name": "anne jameson", "zip": null, "state": null, "street": null}, {"donor_id": 21729, "city": "new york", "name": "anne jameson", "zip": "10021", "state": "ny", "street": "823 park avenue #10 fl"}], [{"donor_id": 172996, "city": "groton", "name": "hsiao-yu lee", "zip": "06340", "state": "ct", "street": "groton plant and research center eastern"}, {"donor_id": 172997, "city": "groton", "name": "hsiao-yu lee", "zip": "06340", "state": "ct", "street": "pfizer inc groton plant & labs eastern p"}], [{"donor_id": 137537, "city": "farmington", "name": "fitch timothy", "zip": "06032", "state": "ct", "street": "35 field stone run"}, {"donor_id": 137538, "city": "farmington", "name": "fitch timothy", "zip": "6032.0", "state": "ct", "street": "35 field stone run"}], [{"donor_id": 369889, "city": "buffalo", "name": "r mark storch", "zip": "14203", "state": "ny", "street": "763 main street"}, {"donor_id": 370049, "city": "buffalo", "name": "r mark storch", "zip": "14221", "state": "ny", "street": "73 dan troy way"}], [{"donor_id": 171460, "city": "simpsonville", "name": "holly wood", "zip": "40067", "state": "ky", "street": "post office box 480"}, {"donor_id": 479928, "city": "simpsonville", "name": "wood holly", "zip": "40067", "state": "ky", "street": "post office box 480"}], [{"donor_id": 460773, "city": "buffalo", "name": "uaw reg 9", "zip": "14225", "state": "ny", "street": "4285 genesee street"}, {"donor_id": 460769, "city": "amherst", "name": "uaw reg 9", "zip": "14221", "state": "ny", "street": "35 george karl boulevaroad suite 100"}], [{"donor_id": 260767, "city": "new york", "name": "kris m jackson", "zip": "10017.0", "state": "ny", "street": "235 eastreet 42nd streetreet"}, {"donor_id": 260768, "city": "collegeville", "name": "kris m jackson", "zip": "19426", "state": "pa", "street": "500 arcola road"}], [{"donor_id": 355516, "city": "atlanta", "name": "patrick sean damron", "zip": "30338", "state": "ga", "street": "400 perimeter walk pfizer regional mgmt"}, {"donor_id": 355513, "city": "new york", "name": "patrick sean damron", "zip": "10017", "state": "ny", "street": "235 e 42nd street"}], [{"donor_id": 189354, "city": "minnesota", "name": "james j demay", "zip": "55001", "state": "mn", "street": "pfizer inc remote location"}, {"donor_id": 189351, "city": "new york", "name": "james j demay", "zip": "10017", "state": "ny", "street": "235 e 42nd street pfizer inc"}], [{"donor_id": 241160, "city": "iowa", "name": "julie a tammel-swander", "zip": "50001", "state": "ia", "street": "pfizer inc remote location"}, {"donor_id": 241158, "city": "new york", "name": "julie a tammel-swander", "zip": "10017", "state": "ny", "street": "235 eastreet 42nd streetreet"}], [{"donor_id": 428289, "city": "new york", "name": "stephanie e eickenhorst", "zip": "10017", "state": "ny", "street": "235 eastreet 42nd streetreet"}, {"donor_id": 428293, "city": "research triang", "name": "stephanie e eickenhorst", "zip": "27709", "state": "nc", "street": "post office box 13989 1040 swabia court"}], [{"donor_id": 417577, "city": "oregon", "name": "seaneen p rudkin-manning", "zip": "97003", "state": "or", "street": "pfizer inc remote location"}, {"donor_id": 417574, "city": "new york", "name": "seaneen p rudkin-manning", "zip": "10017", "state": "ny", "street": "235 eastreet 42nd streetreet"}], [{"donor_id": 57199, "city": "troy", "name": "caroline wilcox", "zip": "12180", "state": "ny", "street": "8 chelton avenue"}, {"donor_id": 57833, "city": "irvine", "name": "carolyn wilcox", "zip": "92612", "state": "ca", "street": "18500 von karman avenue pfizer western reg"}], [{"donor_id": 426475, "city": "knoxville", "name": "stan de coursey", "zip": "37931", "state": "tn", "street": "3335 cliffbranch lane"}, {"donor_id": 426476, "city": "atlanta", "name": "stan de coursey", "zip": "30338", "state": "ga", "street": "400 perimeter walk pfizer regional mgmt"}], [{"donor_id": 131961, "city": "atlanta", "name": "erika mueller-schremp", "zip": "30338", "state": "ga", "street": "400 perimeter walk pfizer regional mgmt"}, {"donor_id": 131958, "city": "middleton", "name": "erika mueller-schremp", "zip": "53562", "state": "wi", "street": "2232 pleasant view road"}], [{"donor_id": 435119, "city": "illinois", "name": "steven t faulkner", "zip": "60603", "state": "il", "street": "pfizer inc remote location"}, {"donor_id": 435117, "city": "new york", "name": "steven t faulkner", "zip": "10017", "state": "ny", "street": "235 eastreet 42nd streetreet"}], [{"donor_id": 115607, "city": "allen", "name": "dueck robert", "zip": "75002", "state": "tx", "street": "2102 country brook lane"}, {"donor_id": 115608, "city": "new york", "name": "dueck robert", "zip": "10017", "state": "ny", "street": "235 eastreet 42nd streetreet"}], [{"donor_id": 217847, "city": "levittown", "name": "john kelly", "zip": "11756.0", "state": "ny", "street": "32 silversmith lane"}, {"donor_id": 217840, "city": "new york", "name": "john kelly", "zip": "10017", "state": "ny", "street": "235 e 42nd street pfizer inc"}], [{"donor_id": 187493, "city": "oyster bay", "name": "james santelli, jr", "zip": "11771", "state": "ny", "street": "33 w main street"}, {"donor_id": 187494, "city": "oyster bay", "name": "james santelli, jr", "zip": "11771", "state": "ny", "street": "33 westreet main street"}], [{"donor_id": 271231, "city": "springfield", "name": "leonard reynolds", "zip": "62707", "state": "il", "street": "15 amberley road"}, {"donor_id": 271234, "city": "springfield,", "name": "leonard reynolds", "zip": "62712.0", "state": "il", "street": "15 amberley road"}], [{"donor_id": 25127, "city": "buffalo", "name": "anthony masiello", "zip": "14202-4005", "state": "ny", "street": "298 main street suite 3"}, {"donor_id": 25125, "city": "buffalo", "name": "anthony masiello", "zip": "14202", "state": "ny", "street": "298 main street streete 3"}], [{"donor_id": 64892, "city": "new york", "name": "charles s tressler", "zip": "10017", "state": "ny", "street": "235 e 42nd street pfizer inc"}, {"donor_id": 64893, "city": "new york", "name": "charles s tressler", "zip": "10017", "state": "ny", "street": "235 eastreet 42nd streetreet"}], [{"donor_id": 225304, "city": "new york", "name": "john t zgombic", "zip": "10017", "state": "ny", "street": "235 e 42nd street pfizer inc"}, {"donor_id": 225305, "city": "new york", "name": "john t zgombic", "zip": "10017", "state": "ny", "street": "235 eastreet 42nd streetreet"}], [{"donor_id": 41152, "city": "brooklyn", "name": "bill lipton", "zip": "11238.0", "state": "ny", "street": "186 prospecourt place 41"}, {"donor_id": 41150, "city": "brooklyn", "name": "bill lipton", "zip": "11238", "state": "ny", "street": "186 prospecourt place 4i"}], [{"donor_id": 291028, "city": "hopewell junction", "name": "margaret horton", "zip": "12533", "state": "ny", "street": "2 anthony court"}, {"donor_id": 291031, "city": "hopwell junctio", "name": "margaret horton", "zip": "12533", "state": "ny", "street": "2 anthony court"}], [{"donor_id": 456067, "city": "staten island", "name": "timothy tan", "zip": "10305", "state": "ny", "street": "461 clifton avenue"}, {"donor_id": 456068, "city": "staten island", "name": "timothy tan", "zip": "10305.0", "state": "ny", "street": "461 clifton avenue"}], [{"donor_id": 345980, "city": "scarsdale", "name": "norma segal", "zip": "10583", "state": "ny", "street": "332 central park avenue"}, {"donor_id": 345981, "city": "scarsdale", "name": "norma segal", "zip": "10583.0", "state": "ny", "street": "332 central park avenue"}], [{"donor_id": 470882, "city": "merrick", "name": "wendy tepper", "zip": "11566", "state": "ny", "street": "2873 beach drive"}, {"donor_id": 470883, "city": "merrick", "name": "wendy tepper", "zip": "11566.0", "state": "ny", "street": "2873 beach drive"}], [{"donor_id": 213880, "city": "wantagh", "name": "john conroy", "zip": "11793", "state": "ny", "street": "3690 orcharoad road"}, {"donor_id": 213881, "city": "wantagh", "name": "john conroy", "zip": "11793", "state": "ny", "street": "3690 orcharoad road"}], [{"donor_id": 203608, "city": "williamsville", "name": "jerome schad", "zip": "14221", "state": "ny", "street": "199 meadowview drive"}, {"donor_id": 203609, "city": "williamsville", "name": "jerome schad", "zip": "14221", "state": "ny", "street": "199 meadowview drive"}], [{"donor_id": 418031, "city": "fairport", "name": "sergio esteban", "zip": "14450", "state": "ny", "street": "29 coghlan lane"}, {"donor_id": 418032, "city": "fairport", "name": "sergio esteban", "zip": "14450", "state": "ny", "street": "29 coghlan lane"}], [{"donor_id": 440001, "city": "ossining", "name": "susanne donnelly", "zip": "10562", "state": "ny", "street": "17 susquehanna road"}, {"donor_id": 440002, "city": "ossining", "name": "susanne donnelly", "zip": "10562", "state": "ny", "street": "17 susquehanna road"}], [{"donor_id": 74737, "city": "cold spring", "name": "claudio marzollo", "zip": "10516", "state": "ny", "street": "256 lane gate road"}, {"donor_id": 74736, "city": "cold spring", "name": "claudio marzollo", "zip": "10516", "state": "ny", "street": "256 lane gate road"}], [{"donor_id": 401138, "city": "bayport", "name": "ronald devine, jr", "zip": "11705", "state": "ny", "street": "408 bayport avenue"}, {"donor_id": 401137, "city": "bayport", "name": "ronald devine, jr", "zip": "11705", "state": "ny", "street": "408 bayport avenue"}], [{"donor_id": 443579, "city": "new york", "name": "tenyu nikolov boyadjiev", "zip": "10017", "state": "ny", "street": "235 eastreet 42nd streetreet"}, {"donor_id": 443580, "city": "new york", "name": "tenyu nikolov boyadjiev", "zip": "10017.0", "state": "ny", "street": "235 eastreet 42nd streetreet"}], [{"donor_id": 124851, "city": "patchogue", "name": "elizabeth cone", "zip": "11772", "state": "ny", "street": "160 fairharbor drive"}, {"donor_id": 124852, "city": "patchogue", "name": "elizabeth cone", "zip": "11772.0", "state": "ny", "street": "160 fairharbor drive"}]]}