{"distinct": [[{"donor_id": 485008, "city": null, "name": "50/50", "zip": null, "state": null, "street": null}, {"donor_id": 485011, "city": null, "name": "50/50 raffel", "zip": null, "state": null, "street": null}], [{"donor_id": 538787, "city": "washington", "name": "ibew educational comm", "zip": "20005", "state": "dc", "street": "1125 15th nw"}, {"donor_id": 538830, "city": "washington", "name": "ibew educational committee", "zip": "20001", "state": "dc", "street": "900 seventh st, nw"}], [{"donor_id": 552294, "city": "new york", "name": "local 1306 afscme", "zip": "10007", "state": "ny", "street": "125 barclay street"}, {"donor_id": 552827, "city": "new york", "name": "local 384, afscme", "zip": "10007", "state": "ny", "street": "125 barclay street"}], [{"donor_id": 567383, "city": "none", "name": "none", "zip": null, "state": null, "street": "none"}, {"donor_id": 496667, "city": "albany", "name": "bond schoeneck & king", "zip": "12210", "state": "ny", "street": "111 washington avenue"}], [{"donor_id": 492842, "city": "hampton bays", "name": "bav inc", "zip": null, "state": "ny", "street": null}, {"donor_id": 523919, "city": "riverhead", "name": "foster, vandenburgh & riyaz, llp", "zip": "11901", "state": "ny", "street": "220 roanoke avenue"}], [{"donor_id": 483558, "city": "0", "name": "0", "zip": "0", "state": "0", "street": "0"}, {"donor_id": 583640, "city": "pine bush1", "name": "richard smith enterprises corp", "zip": "12566", "state": "ny", "street": "p o box 209"}], [{"donor_id": 502950, "city": "albany", "name": "cha", "zip": "12205", "state": "ny", "street": "po box 5269, iii winners circle"}, {"donor_id": 606240, "city": "valley stream", "name": "valley stream republican finance comm", "zip": "11580", "state": "ny", "street": "po box 192"}], [{"donor_id": 483558, "city": "0", "name": "0", "zip": "0", "state": "0", "street": "0"}, {"donor_id": 545011, "city": "new york", "name": "jpmorgan chase & co", "zip": "20004", "state": "0", "street": "270 park avenue"}], [{"donor_id": 499948, "city": "albany", "name": "care", "zip": "12207", "state": "ny", "street": "33 elk street"}, {"donor_id": 565757, "city": "albany", "name": "new york state builders associnc new york  build pac", "zip": "12207", "state": "ny", "street": "41 streetate street"}], [{"donor_id": 502344, "city": "woodbury", "name": "cdm", "zip": "11797", "state": "ny", "street": "100 crossways park west"}, {"donor_id": 529421, "city": "woodbury", "name": "fusco, brandenstein & rada, pc", "zip": "11797", "state": "ny", "street": "180 froehlich farm boulevard"}], [{"donor_id": 511457, "city": "latham", "name": "cupac", "zip": "12110.0", "state": "ny", "street": "19 british american boulevard"}, {"donor_id": 511422, "city": "latham", "name": "cuna mutual group", "zip": "12110", "state": "ny", "street": "19 british american boulevard"}], [{"donor_id": 565630, "city": "albany", "name": "new york state afl-cio", "zip": "12210", "state": "ny", "street": "100 south swan street"}, {"donor_id": 570538, "city": "albany", "name": " new york state conf intl union of oper eng", "zip": "12210", "state": "ny", "street": "100 s swan street"}], [{"donor_id": 497687, "city": "long island cit", "name": "bricklayers & allied craftworkers pac", "zip": "11101", "state": "ny", "street": "4 court square"}, {"donor_id": 497754, "city": "pittsford", "name": "bricklayrs  allied craftworkers, loc #3 new york  pac fun", "zip": "14534", "state": "ny", "street": "3750 moroe avenue"}], [{"donor_id": 508268, "city": "buffalo", "name": "communications workers of america local 1133", "zip": "14220", "state": "ny", "street": "329 southside parkway"}, {"donor_id": 558499, "city": "buffalo", "name": "media", "zip": "14202", "state": "ny", "street": null}], [{"donor_id": 519604, "city": "albany", "name": "empire state pepsi-cola industry partners pac", "zip": "12210", "state": "ny", "street": "ste 501, 111 washington avenue"}, {"donor_id": 569501, "city": "albany", "name": "nyacs", "zip": "12210", "state": "ny", "street": "130 washington avenue"}], [{"donor_id": 554784, "city": "lack", "name": "m& t bank", "zip": "14218", "state": "ny", "street": "dorrance"}, {"donor_id": 554855, "city": "endicott", "name": "m&t bank", "zip": "13760", "state": "ny", "street": "36-42 washington avenue"}], [{"donor_id": 603696, "city": "clifton", "name": "ufcw local 1262", "zip": "07013", "state": "nj", "street": "1389 broad street"}, {"donor_id": 603707, "city": "bloomfield", "name": "ufcw local 1500", "zip": "7003.0", "state": "nj", "street": "249 belleville avenue 35a"}], [{"donor_id": 570425, "city": "albany", "name": " new york state beer wholesalers pac", "zip": "12210", "state": "ny", "street": "90 s swan street"}, {"donor_id": 571114, "city": "albany", "name": " new york state optometric assoc pac", "zip": "12210", "state": "ny", "street": "90 s swan street"}], [{"donor_id": 565636, "city": "albany", "name": "new york state afl-cio account", "zip": "12210", "state": "ny", "street": "100 south swan street"}, {"donor_id": 565794, "city": "albany", "name": "new york state conference of the iuoe pac account", "zip": "11210", "state": "ny", "street": "100 south swan street"}], [{"donor_id": 487427, "city": "new york", "name": "afscme local 1549", "zip": "10007", "state": "ny", "street": "125 barclay street"}, {"donor_id": 552762, "city": "new york", "name": "local 372  new york city  board of ed employees pac", "zip": "10007", "state": "ny", "street": "125 barclay street"}], [{"donor_id": 562988, "city": "new york", "name": "nypublic adjusters assoc, inc", "zip": "10007", "state": "ny", "street": "299 broadway"}, {"donor_id": 603764, "city": "ny", "name": "ufoa", "zip": "10007", "state": "ny", "street": "225 broadway"}], [{"donor_id": 513808, "city": "delhi", "name": "delaware county democratic committee", "zip": "13753", "state": "ny", "street": "10 orchard street"}, {"donor_id": 561352, "city": "rochester", "name": "monroe county democratic committee", "zip": "14607", "state": "ny", "street": "1150 university avenue"}], [{"donor_id": 577097, "city": "new york", "name": "pfizer", "zip": "10017", "state": "ny", "street": "235 e 42 street"}, {"donor_id": 534553, "city": "new york", "name": "ha new york city  political action committee", "zip": "10022", "state": "ny", "street": "320 park avenue 22nd floor"}], [{"donor_id": 500095, "city": "alany", "name": "cable pac", "zip": "12207", "state": "ny", "street": "80 streetate street 10th flr"}, {"donor_id": 568384, "city": "albany", "name": "nrcc new york  non-partisan political education committee", "zip": "12207", "state": "ny", "street": "111 state street"}], [{"donor_id": 570171, "city": "albany", "name": " new york state assoc of electrical workers", "zip": "12210", "state": "ny", "street": "67 chestnut street"}, {"donor_id": 571084, "city": "albany", "name": " new york state nurses association", "zip": "12207", "state": "ny", "street": "c/o 100 state street, suite 400"}], [{"donor_id": 554694, "city": "albany", "name": "m & t bank", "zip": "12201", "state": "ny", "street": "80 state street"}, {"donor_id": 554886, "city": "orchard park", "name": "m&t bank", "zip": "14127", "state": "ny", "street": "north bufffalo street"}], [{"donor_id": 559028, "city": "washington", "name": "merck new york pac", "zip": "20004", "state": "dc", "street": "601 pennsylvania ave, nw"}, {"donor_id": 611277, "city": "washington", "name": "wm new york  pac", "zip": "20004", "state": "dc", "street": "701 pennsylvania avenue #590"}], [{"donor_id": 555055, "city": "staten island", "name": "mipac", "zip": "10314", "state": "ny", "street": "767 klondike avenue"}, {"donor_id": 571188, "city": "staten island", "name": " new york state pipe trades pac", "zip": "10314", "state": "ny", "street": "464 hawthorne avenue"}], [{"donor_id": 546495, "city": "batavia", "name": "keybank", "zip": "14020", "state": "ny", "street": "69 main street"}, {"donor_id": 592021, "city": "west sayville", "name": "sonline realty corp", "zip": "11796", "state": "ny", "street": "69 main street"}], [{"donor_id": 515340, "city": "ny", "name": "district council 37 pac", "zip": "10007", "state": "ny", "street": "125 barclay street"}, {"donor_id": 552348, "city": "new york", "name": "local 1407 -  new york city  acct's, actuaries & statisticians", "zip": "10007", "state": "ny", "street": "125 barclay street"}], [{"donor_id": 515352, "city": "new york", "name": "district council 37, afscme", "zip": "10007", "state": "ny", "street": "125 barclay street"}, {"donor_id": 552753, "city": "new york", "name": "local 372 new york city board of education employe", "zip": "10007", "state": "ny", "street": "125 barclay street"}], [{"donor_id": 535458, "city": "albany", "name": "health care providers pac", "zip": "12207", "state": "ny", "street": "90 state st, suite 200"}, {"donor_id": 597545, "city": "albany", "name": "teapac", "zip": "12207", "state": "ny", "street": "(trans engineering alliance) 99 pine street"}], [{"donor_id": 537825, "city": "staten island", "name": "hudson river pilots assn", "zip": "10305", "state": "ny", "street": "201 edgewater street"}, {"donor_id": 545377, "city": "staten island", "name": "jy trans pac", "zip": "10305.0", "state": "ny", "street": "201 edgewater street"}], [{"donor_id": 548096, "city": "albany", "name": "laborers local 322 (nys)", "zip": "12211", "state": "ny", "street": "18 corporate woods boulevard"}, {"donor_id": 570935, "city": "albany", "name": " new york state laborers pac - state fund", "zip": "12211", "state": "ny", "street": "18 corporate woods boulevard"}], [{"donor_id": 515327, "city": "new york", "name": "district council 37 pac", "zip": "10007.0", "state": "ny", "street": "125 barclay street"}, {"donor_id": 552353, "city": "new york", "name": "local 1407 pac", "zip": "10007", "state": "ny", "street": "125 barclay street"}], [{"donor_id": 570574, "city": "albany", "name": " new york state conference international union of operating en", "zip": "12210.0", "state": "ny", "street": "100 south swan street"}, {"donor_id": 571252, "city": "albany", "name": " new york state professional fire fighters", "zip": "12210", "state": "ny", "street": "111 washington avenue  #207"}], [{"donor_id": 585773, "city": "westbury", "name": "roslyn consultants llc", "zip": "11590", "state": "ny", "street": "7001 brush hollow road"}, {"donor_id": 536064, "city": "westbury", "name": "hewlett associates", "zip": "11590", "state": "ny", "street": "7001 brush hollow road"}], [{"donor_id": 565661, "city": "albany", "name": "new york state afl-cio cope acct", "zip": "12210", "state": "ny", "street": "100 south swan street"}, {"donor_id": 566104, "city": "albany", "name": "new york state professional fire figthers", "zip": "12210", "state": "ny", "street": "119 washington avenue"}], [{"donor_id": 542237, "city": "albany", "name": "jackson lewis pc pac", "zip": "12207", "state": "ny", "street": "677 broadway"}, {"donor_id": 610778, "city": "albany", "name": "wilson elser moskowitz et al", "zip": "12207", "state": "ny", "street": "677 broadway"}], [{"donor_id": 597393, "city": "albany", "name": "teamster local 294 (drive)", "zip": "12206", "state": "ny", "street": "890 third street"}, {"donor_id": 540510, "city": "albany", "name": "intl union of elevator constructors loc 35", "zip": "12206", "state": "ny", "street": "890 third street"}], [{"donor_id": 496703, "city": "albany", "name": "bond shoeneck &king pllc", "zip": "12210", "state": "ny", "street": "111 washington avenue"}, {"donor_id": 521932, "city": "albany", "name": "featherstonhaugh, wiley & clyne, llp", "zip": "12210", "state": "ny", "street": "111 washington avenue"}], [{"donor_id": 497544, "city": "garden city", "name": "brian j davis pc", "zip": "11530.0", "state": "ny", "street": "400 garden city plaza"}, {"donor_id": 556110, "city": "garden city", "name": "manoussos & assoc pc", "zip": "11530", "state": "ny", "street": "400 garden city plaza"}], [{"donor_id": 574408, "city": "hempstead", "name": "pac hempstead pba", "zip": "11550", "state": "ny", "street": "po box 41"}, {"donor_id": 592378, "city": "peconic", "name": "southold town pba", "zip": "11958", "state": "ny", "street": "po  box 41"}], [{"donor_id": 567232, "city": "rochester", "name": "nixon peabody llp new york state pac", "zip": "14604", "state": "ny", "street": "1300 clinton square"}, {"donor_id": 584897, "city": "rochester", "name": "rochester higher education and research pac fed", "zip": "14604", "state": "ny", "street": "1300 clinton square"}], [{"donor_id": 570373, "city": "albany", "name": " new york state beer wholesalers assoc", "zip": "12210", "state": "ny", "street": "90 s swan street"}, {"donor_id": 571268, "city": "albany", "name": " new york state professional fire fighters", "zip": "12210", "state": "ny", "street": "174 washington avenue"}], [{"donor_id": 571042, "city": "latham", "name": " new york state nurse's association pac", "zip": "12210", "state": "ny", "street": "11 cornell road"}, {"donor_id": 571526, "city": "latham", "name": " new york state speech language hearing assoc", "zip": "12110", "state": "ny", "street": "1 nrthway lane"}], [{"donor_id": 502793, "city": "east meadow", "name": "certilman balin & hyman,llp", "zip": "11554", "state": "ny", "street": "90 merrick avenue"}, {"donor_id": 560936, "city": "east meadow", "name": "mitchell devack llc", "zip": "11554", "state": "ny", "street": "90 merrick avenue"}], [{"donor_id": 524727, "city": "brooklyn", "name": "friedman, khafif & sanchez, llp", "zip": "11241", "state": "ny", "street": "16 court street"}, {"donor_id": 528937, "city": "brooklyn", "name": "friends of weiner", "zip": "11229", "state": "ny", "street": "2276 homecrest avenue"}], [{"donor_id": 519615, "city": "albany", "name": "empire state petroleum assn pac", "zip": "12210.0", "state": "ny", "street": "111 washington avenue"}, {"donor_id": 563830, "city": "albany", "name": "national grid vol new york state  pac", "zip": "12210", "state": "ny", "street": "111 washington avenue"}], [{"donor_id": 565402, "city": "new york", "name": "new york life securities inc", "zip": "10017", "state": "ny", "street": "335 madison ave,"}, {"donor_id": 565817, "city": "new york", "name": "new york state court clerks association", "zip": "10013.0", "state": "ny", "street": "170 duane street"}], [{"donor_id": 573459, "city": "canandaigua", "name": "ontario democratic committee", "zip": "14424", "state": "ny", "street": "main street"}, {"donor_id": 610296, "city": "oneonta", "name": "wilber national bank", "zip": "13820", "state": "ny", "street": "main street"}], [{"donor_id": 590415, "city": "garden city", "name": "shelvin plaza associates llc", "zip": "11530", "state": "ny", "street": "600 old country road"}, {"donor_id": 590888, "city": "garden city", "name": "silberstein, awad & miklos, pc", "zip": "11530", "state": "ny", "street": "600 old country road"}], [{"donor_id": 484799, "city": "bronx", "name": "392 olover place, llc", "zip": "10462", "state": "ny", "street": "1601 bronxdale avenue"}, {"donor_id": 495632, "city": "bronx", "name": "bilig realty corp", "zip": "10467", "state": "ny", "street": "1601 bronxdale avenue"}], [{"donor_id": 496846, "city": "garden city", "name": "bongiorno & bongiorno llp", "zip": "11530", "state": "ny", "street": "600 old country road"}, {"donor_id": 550770, "city": "garden city", "name": "lester & associates, pc", "zip": "11530", "state": "ny", "street": "600 old country road"}], [{"donor_id": 544497, "city": "geneseo", "name": "jones & skivington", "zip": "14454", "state": "ny", "street": "31 main street"}, {"donor_id": 492145, "city": "attica", "name": "attica wine & spirits", "zip": "14011", "state": "ny", "street": "31 main street"}], [{"donor_id": 553211, "city": "new york", "name": "local 94-94a-94b iuoe pac local 94 pac state f", "zip": "10036", "state": "ny", "street": "# 337, 331 w 44th street"}, {"donor_id": 552469, "city": "new york", "name": "local 23-25 state  local campaign committee", "zip": "10001", "state": "ny", "street": "275 7th avenue"}], [{"donor_id": 593766, "city": "wappingers falls", "name": "stenger, roberts, davis & diamond", "zip": "12590", "state": "ny", "street": "1136 route 9"}, {"donor_id": 601755, "city": "wappingers fall", "name": "town of fishkill republican committee", "zip": "12590", "state": "ny", "street": "1136 route 9"}], [{"donor_id": 572131, "city": "albany", "name": "nysna political action commite", "zip": "12210", "state": "ny", "street": "155 washington avenue"}, {"donor_id": 571068, "city": "albany", "name": " new york state nurses assoc pac", "zip": "12210", "state": "ny", "street": "155 washington avenue"}], [{"donor_id": 591602, "city": "smithtown", "name": "smithtown ctr for rehab & nursing", "zip": "11787", "state": "ny", "street": "391 n country road"}, {"donor_id": 591604, "city": "smithtown", "name": "smithtown democratic committee", "zip": "11787", "state": "ny", "street": "main street"}], [{"donor_id": 529473, "city": "wantagh", "name": "g & m mechanical inc", "zip": "11793", "state": "ny", "street": "1866 seaford avenue"}, {"donor_id": 589062, "city": "wantagh", "name": "seaford avenue corp", "zip": "11793", "state": "ny", "street": "1866 seaford avenue"}], [{"donor_id": 590016, "city": "rochester", "name": "shanker russo & clark llp", "zip": "12207", "state": "ny", "street": "121 state street"}, {"donor_id": 571717, "city": "albany", "name": " new york state troopers pac", "zip": "12207", "state": "ny", "street": "121 state street"}], [{"donor_id": 594924, "city": "bohemia", "name": "suffolk county association of municipal employee", "zip": "11716.0", "state": "ny", "street": "30 orville drive"}, {"donor_id": 594850, "city": "bohemia", "name": "suff co detective investigators pba, inc", "zip": "11716.0", "state": "ny", "street": "868 church st, suite 6"}], [{"donor_id": 607711, "city": "latham", "name": "vote cope", "zip": "12110", "state": "ny", "street": null}, {"donor_id": 565468, "city": "latham", "name": "new york physical therapy association pac", "zip": "12110", "state": "ny", "street": "971 albany shaker road"}], [{"donor_id": 516021, "city": "new york", "name": "dopf pc", "zip": "10001", "state": "ny", "street": "440 ninth avenue 16th floor"}, {"donor_id": 580907, "city": null, "name": "quinn, mcgarry, caffry, and patricia pc", "zip": "14202", "state": "ny", "street": null}], [{"donor_id": 525339, "city": "lyons", "name": "friends of bob oaks", "zip": "14489", "state": "ny", "street": "pobox 75"}, {"donor_id": 526370, "city": "great neck", "name": "friends of howard weitzman", "zip": "11022", "state": "ny", "street": "po box 220117"}], [{"donor_id": 567309, "city": "woodmere", "name": "no woodmere republican club", "zip": "11598", "state": "ny", "street": "po box 616"}, {"donor_id": 579362, "city": "garden city", "name": "power", "zip": "11530", "state": "ny", "street": "p o box 193"}], [{"donor_id": 597260, "city": "new york", "name": "td bank", "zip": "10075", "state": "ny", "street": "1470 2nd avenue"}, {"donor_id": 597266, "city": "port jervis", "name": "td bank", "zip": "12771", "state": "ny", "street": "205 e main street"}], [{"donor_id": 562156, "city": "albany", "name": "mpac", "zip": "12210", "state": "ny", "street": "111 washington avenue, 3rd floor"}, {"donor_id": 499979, "city": "albany", "name": "care committee for action for a responsible el", "zip": "12207", "state": "ny", "street": "streete 300, 33 elk street"}], [{"donor_id": 493263, "city": "westbury", "name": "bank of america", "zip": "11590.0", "state": "ny", "street": "248 post avenue"}, {"donor_id": 493286, "city": "clifton park", "name": "bank of america", "zip": "12065", "state": "ny", "street": "clifton country road"}], [{"donor_id": 604307, "city": "new york", "name": "uniformed firefighters association-firepac", "zip": "10010", "state": "ny", "street": "204 east 23rd street"}, {"donor_id": 586585, "city": "new york", "name": "rwdsu", "zip": "10001", "state": "ny", "street": "370 seventh avenue suite 501"}], [{"donor_id": 587066, "city": "new york", "name": "sabapac", "zip": "10017", "state": "ny", "street": "655 3 avenue"}, {"donor_id": 530412, "city": "new york", "name": "general contractors assn of new york  pac", "zip": "10165", "state": "ny", "street": "60 e 42nd street"}], [{"donor_id": 485885, "city": "long island cit", "name": "ars cab corp", "zip": "11101.0", "state": "ny", "street": "42-50 24th street"}, {"donor_id": 514878, "city": "long island cit", "name": "dial 7 car & limousine service inc", "zip": "11101", "state": "ny", "street": "43-23 35th street"}], [{"donor_id": 535593, "city": "uniondale", "name": "healthplex", "zip": "11553", "state": "ny", "street": "333 earle ovington boulevard"}, {"donor_id": 535500, "city": "e greenbush", "name": "health care providers pax", "zip": "12061", "state": "ny", "street": "99 troy road"}], [{"donor_id": 537568, "city": "rochester", "name": "hsbc", "zip": "14624", "state": "ny", "street": "3228 chili avenue"}, {"donor_id": 608358, "city": "rochester", "name": "walter c taylor agency, inc", "zip": "14614", "state": "ny", "street": "30 north union st, suite 202"}], [{"donor_id": 549985, "city": "albany", "name": "law/pac", "zip": "12224", "state": "ny", "street": "po box 7141"}, {"donor_id": 531735, "city": "stony brook", "name": "glynn mercep & purcell llp", "zip": "11790", "state": "ny", "street": "po box 713"}], [{"donor_id": 498793, "city": "troy", "name": "bryce funeral home, inc", "zip": "12180", "state": "ny", "street": "276 pawling avenue"}, {"donor_id": 550459, "city": "white plains", "name": "lee's funeral home, llc", "zip": "10606.0", "state": "ny", "street": "160 fisher avenue"}], [{"donor_id": 507564, "city": "albany", "name": "committee to elect margaret walsh to supreme court", "zip": "12205", "state": "ny", "street": "7 washington square"}, {"donor_id": 507652, "city": "angola", "name": "committee to elect paul cooper", "zip": "14006", "state": "ny", "street": "po box 26"}], [{"donor_id": 580108, "city": "binghamton", "name": "prolawn", "zip": "13903", "state": "ny", "street": "39 morgan road"}, {"donor_id": 585572, "city": "binghamton", "name": "rosanne sall advertising agency, inc", "zip": "13905", "state": "ny", "street": "88 main street"}], [{"donor_id": 597564, "city": "albany", "name": "teapac", "zip": "12207", "state": "ny", "street": "99 pine street, 2nd floor"}, {"donor_id": 501774, "city": "albany", "name": "carter, conboy, case, blackmore, maloney", "zip": "12211", "state": "ny", "street": "20 corporate woods boulevard"}], [{"donor_id": 504228, "city": "new york", "name": "citibank", "zip": "10024", "state": "ny", "street": "2350 broadway"}, {"donor_id": 570695, "city": "new york", "name": " new york state court offic assoc", "zip": "10007", "state": "ny", "street": "321 broadway 600"}], [{"donor_id": 518729, "city": "albany", "name": "eli lilly and co pac", "zip": "12210.0", "state": "ny", "street": "111 washington avenue"}, {"donor_id": 570294, "city": "albany", "name": " new york state association of pba's pac", "zip": "12210", "state": "ny", "street": "111 washington avenue - room 406"}], [{"donor_id": 525204, "city": "middletown", "name": "friends of berkman", "zip": "10940", "state": "ny", "street": "39 highland avenue"}, {"donor_id": 527984, "city": "catskill", "name": "friends of peter markou", "zip": "12414", "state": "ny", "street": "97 summit avenue"}], [{"donor_id": 594857, "city": "suffern", "name": "suffern pba", "zip": "10901", "state": "ny", "street": "61 washington avenue"}, {"donor_id": 564061, "city": "albany", "name": "natl assoc of social workers new york state ", "zip": "12210", "state": "ny", "street": "118 washington avenue"}], [{"donor_id": 487206, "city": "glendale", "name": "afc enterprises", "zip": "11385", "state": "ny", "street": "88-43 76th avenue"}, {"donor_id": 600617, "city": "glendale", "name": "three w enterprises, inc", "zip": "11385", "state": "ny", "street": "70-29 69th place"}], [{"donor_id": 600543, "city": "albany", "name": "thorn gershon tymann and bonanni,llp", "zip": "12212", "state": "ny", "street": "5 wembley court pobox 15054"}, {"donor_id": 502351, "city": "albany", "name": "cdphp", "zip": "12206", "state": "ny", "street": "500 patroon creek boulevard"}], [{"donor_id": 511285, "city": "albany", "name": "csea/afscme local 1000", "zip": "12210", "state": "ny", "street": "143 washington avenue"}, {"donor_id": 572140, "city": "albany", "name": "nysna-pac", "zip": "12210", "state": "ny", "street": "155 washington avenue"}], [{"donor_id": 552894, "city": "new york", "name": "local 584", "zip": "10013", "state": "ny", "street": "73 hudson street"}, {"donor_id": 553322, "city": "buffalo", "name": "local union no 71 - general fund", "zip": "14215", "state": "ny", "street": "24 liberty avenue"}], [{"donor_id": 543215, "city": "new york", "name": "jeffries for congress", "zip": "10006", "state": "ny", "street": "39 broadway, suite 1540"}, {"donor_id": 589215, "city": "new york", "name": "securities industry assn new york  district pac", "zip": "10271", "state": "ny", "street": "120 broadway"}], [{"donor_id": 566183, "city": "albany", "name": "new york state telpac", "zip": "12207", "state": "ny", "street": "100 state street, suite 650"}, {"donor_id": 537493, "city": "albanyt", "name": "hpa pac", "zip": "12207", "state": "ny", "street": "90 streetate street"}], [{"donor_id": 565084, "city": "new york", "name": "new york check pac, inc", "zip": "10016", "state": "ny", "street": "10 east 40th street, suite 1308"}, {"donor_id": 565102, "city": "pt jefferson st", "name": "new york chiropractic political action committee", "zip": "11776", "state": "ny", "street": "425 old town road"}], [{"donor_id": 521049, "city": "new york", "name": "executive board local 1-2", "zip": "10018", "state": "ny", "street": "5 west 37th street"}, {"donor_id": 537561, "city": "brooklyn", "name": "hsbc", "zip": "11201", "state": "ny", "street": "200 montague street"}], [{"donor_id": 524993, "city": "yonkers", "name": "friends of andrea stewart cousins", "zip": "10702", "state": "ny", "street": "po box 1107"}, {"donor_id": 527697, "city": "yorktown heights", "name": "friends of mike kaplowitz", "zip": "10598", "state": "ny", "street": "po box 1342"}], [{"donor_id": 548444, "city": "mineola", "name": "lally and lally", "zip": "11501", "state": "ny", "street": "220 old country road"}, {"donor_id": 590121, "city": "mineola", "name": "shayne dachs corker sauer & dachs, llp", "zip": "11501", "state": "ny", "street": "114 old country road suite 410"}], [{"donor_id": 577147, "city": "new york", "name": "pfizer pac new york state ", "zip": "10017", "state": "ny", "street": "235 eastreet 42nd street"}, {"donor_id": 499197, "city": "albany", "name": "build pac new york ", "zip": "12210.0", "state": "ny", "street": "152 washington avenue lower level"}], [{"donor_id": 565664, "city": "albany", "name": "new york state afl-cio cope acount", "zip": "12210", "state": "ny", "street": "100 south swan street"}, {"donor_id": 558142, "city": "albany", "name": "mci new york  pac", "zip": "12210", "state": "ny", "street": "99 washington avenue, 17th floor"}], [{"donor_id": 554899, "city": "monsey", "name": "m&t bank", "zip": "10952", "state": "ny", "street": "route 306"}, {"donor_id": 554675, "city": "rochester", "name": "m & t bank", "zip": "14608", "state": "ny", "street": "1385 lyell avenue"}], [{"donor_id": 578917, "city": "albany", "name": "police conference of new york , inc pac", "zip": "12207", "state": "ny", "street": "112 state street, suite 1120"}, {"donor_id": 574078, "city": "albany", "name": "outdoor advertising new york  pac", "zip": "12207", "state": "ny", "street": "48 howard street"}], [{"donor_id": 563633, "city": "albany", "name": "nasw new york state  pace", "zip": "12210.0", "state": "ny", "street": "188 washington avenue"}, {"donor_id": 505980, "city": "albany", "name": "coca-cola bottling co of new york  - pac", "zip": "12210.0", "state": "ny", "street": "111 washington avenue suite 606"}], [{"donor_id": 586083, "city": "albany", "name": "rpac of new york state", "zip": "12210", "state": "n.", "street": "130 wasington avenue"}, {"donor_id": 570553, "city": "albany", "name": " new york state conf iuoe pac", "zip": "12210", "state": "ny", "street": "100 s swan street"}], [{"donor_id": 517575, "city": "albany", "name": "eastern contractors association, inc", "zip": "12205", "state": "ny", "street": "6 airline drive"}, {"donor_id": 593433, "city": "albany", "name": "state street associates, pac", "zip": "12207", "state": "ny", "street": "121 state street"}], [{"donor_id": 491918, "city": "albany", "name": "at&t pac new york", "zip": "12210", "state": "ny", "street": "111 washington ave, suite 706"}, {"donor_id": 564984, "city": "albany", "name": "new york bankers pac state fund", "zip": "12210", "state": "ny", "street": "99 south swan street"}], [{"donor_id": 489432, "city": "washington", "name": "american insurance assn new york state  pac", "zip": "20036.0", "state": "dc", "street": "1130 connecticut ave, nw, sui"}, {"donor_id": 514281, "city": "washington", "name": "democrats for education reform new york state ", "zip": "20005", "state": "dc", "street": "1217 massachusetts avenue nw"}], [{"donor_id": 514693, "city": "new york", "name": "detectives investigators da's office  new york city ", "zip": "10013", "state": "ny", "street": "po box 130405"}, {"donor_id": 570766, "city": "new york", "name": " new york state democratic committee", "zip": "10010", "state": "ny", "street": "60 madison avenue,  suite 1201"}], [{"donor_id": 564061, "city": "albany", "name": "natl assoc of social workers new york state ", "zip": "12210", "state": "ny", "street": "118 washington avenue"}, {"donor_id": 570081, "city": "albany", "name": " new york state assn of ins & finadv, inc", "zip": "12210", "state": "ny", "street": "38 sheridan avenue"}], [{"donor_id": 569645, "city": "new york", "name": " new york city  district council of carpenters", "zip": "10014", "state": "ny", "street": "fl 9, 395 hudson street"}, {"donor_id": 552611, "city": "new york", "name": "local 32bj new york /nj american dream fund", "zip": "10011", "state": "ny", "street": "25 2 18th street, 18th floor"}], [{"donor_id": 535661, "city": "long island cit", "name": "heat & frost workers local 12", "zip": "11106", "state": "ny", "street": "35-53 24th street"}, {"donor_id": 593550, "city": "long island cit", "name": "steamfitters - local 638 pac", "zip": "11101", "state": "ny", "street": "32-32 48 avenue"}], [{"donor_id": 503515, "city": "cheektowaga", "name": "cheektowaga central teachers association", "zip": "14225", "state": "ny", "street": "3600 union road"}, {"donor_id": 502615, "city": "cheektowaga", "name": "central new york  uaw pac council-region 9", "zip": "14225", "state": "ny", "street": "4285 genesee street"}], [{"donor_id": 499978, "city": "albany", "name": "care committee for action for a responsible el", "zip": "12207.0", "state": "ny", "street": "33 elk street suite 30"}, {"donor_id": 505134, "city": "albany", "name": "civil service employees political action committee", "zip": "12210", "state": "ny", "street": "143 washington avenue"}], [{"donor_id": 534712, "city": "garden city", "name": "harding & harding", "zip": "11530", "state": "ny", "street": "1055 franklin avenue"}, {"donor_id": 563559, "city": "garden city", "name": "nassau financial federal credit union", "zip": "11530", "state": "ny", "street": "1325 franklin avenue suite 101"}], [{"donor_id": 555148, "city": "albany", "name": "mac/pac", "zip": "12205", "state": "ny", "street": "c/o organization of nys management"}, {"donor_id": 597581, "city": "albany", "name": "tech valley communications", "zip": "12207", "state": "ny", "street": "41 streetate street"}], [{"donor_id": 531450, "city": "brooklyn", "name": "giumenta corp", "zip": "11215", "state": "ny", "street": "77 14th street"}, {"donor_id": 551929, "city": "brooklyn", "name": "livery owners coalition of new york , inc", "zip": "11229", "state": "ny", "street": "2079 east 16th street"}], [{"donor_id": 603057, "city": "ronkonkoma", "name": "turley redmond & rosasco llp", "zip": "11779", "state": "ny", "street": "3075 veterams memorial highway"}, {"donor_id": 545141, "city": "ronkonkoma", "name": "judd & moss, pc", "zip": "11779", "state": "ny", "street": "3505 veterans memorial highway"}], [{"donor_id": 586193, "city": "new york", "name": "rsa-pac", "zip": "10038", "state": "ny", "street": "123 william street"}, {"donor_id": 569688, "city": "new york", "name": " new york city  justice pac", "zip": "10038", "state": "ny", "street": "132 nassau street #2nd"}], [{"donor_id": 597261, "city": "whitestone", "name": "td bank", "zip": "11357", "state": "ny", "street": "148-08 cross island parkway"}, {"donor_id": 533721, "city": "whitestone", "name": "gtr new york  auto dealers pac", "zip": "11357", "state": "ny", "street": "18-10 whitestone expressway"}], [{"donor_id": 557009, "city": "new york", "name": "martin j mclaughlin communications", "zip": "10036", "state": "ny", "street": "36 west 44th street"}, {"donor_id": 574037, "city": "new york", "name": "otto, mark", "zip": "10031", "state": "ny", "street": "474 west 150 street 3d"}], [{"donor_id": 549930, "city": "new york", "name": "law pac", "zip": "10038", "state": "ny", "street": "132 nassau street"}, {"donor_id": 603428, "city": "new york", "name": "uc columbus radio dispatch, inc", "zip": "10029", "state": "ny", "street": "2158 - 2nd avenue grnd floor"}], [{"donor_id": 569525, "city": "albany", "name": "nyahsa pac", "zip": "12207", "state": "ny", "street": "150 state st, suite 301"}, {"donor_id": 571318, "city": "albany", "name": " new york state psychiatric pac", "zip": "12207", "state": "ny", "street": "142 streetate street"}], [{"donor_id": 507540, "city": "snyder", "name": "committee to elect laura monte", "zip": "14226", "state": "ny", "street": "94 walton drive"}, {"donor_id": 507597, "city": "saratoga spring", "name": "committee to elect mcdonald to the assembly", "zip": "12866", "state": "ny", "street": "po box 5084"}], [{"donor_id": 495472, "city": "bethpage", "name": "bfcu", "zip": "11714", "state": "ny", "street": "899 south oyster bay road"}, {"donor_id": 554119, "city": "brookhaven", "name": "louis k mclean associates", "zip": "11719", "state": "ny", "street": "437 s country road"}], [{"donor_id": 487819, "city": "bronx", "name": "al'an elevator maintenance", "zip": "10462", "state": "ny", "street": "2368 westchester avenue"}, {"donor_id": 489852, "city": "bronx", "name": "amsc llc", "zip": "10451", "state": "ny", "street": "951 brooke avenue"}], [{"donor_id": 496302, "city": "new city", "name": "bmoc", "zip": "10956", "state": "ny", "street": "368 new hempstead road"}, {"donor_id": 548745, "city": "getzville", "name": "largo real estate advisors inc", "zip": "14068", "state": "ny", "street": "2420 north forest road"}], [{"donor_id": 526258, "city": "mamaroneck", "name": "friends of george latimer", "zip": "10543.0", "state": "ny", "street": "po box 277"}, {"donor_id": 527761, "city": "westbury", "name": "friends of nasrin ahmed", "zip": "11590", "state": "ny", "street": "po box 744"}], [{"donor_id": 606792, "city": "new york", "name": "verizon good govt club", "zip": "10007", "state": "ny", "street": "west street"}, {"donor_id": 491488, "city": "new york", "name": "assn of surrogates & supreme court reporters  new york city ", "zip": "10007", "state": "ny", "street": "60 centre street #429"}], [{"donor_id": 509036, "city": "latham", "name": "construction industry solution", "zip": "12110", "state": "ny", "street": "6 airport park boulevard"}, {"donor_id": 534137, "city": "latham", "name": "hacker & murphy", "zip": "12110", "state": "ny", "street": "7 airport park boulevard"}], [{"donor_id": 507314, "city": "xxxx", "name": "committee to elect frank doddato", "zip": "00000", "state": "ny", "street": "xxxxx"}, {"donor_id": 507520, "city": "brooklyn", "name": "committee to elect katherine a levine", "zip": "11228", "state": "ny", "street": "1248 85th street"}], [{"donor_id": 536710, "city": "buffalo", "name": "hodgson russ llp", "zip": "14202", "state": "yt", "street": "140 pearl street, suite 100"}, {"donor_id": 577337, "city": "buffalo", "name": "philip j tantillo certified public accountant pc", "zip": "14202", "state": "ny", "street": "43 court street, suite 910"}], [{"donor_id": 490954, "city": "albany", "name": "arimis inc", "zip": "12207", "state": "ny", "street": "121 state street"}, {"donor_id": 580476, "city": "albany", "name": "public employees federation, pac account", "zip": "12212", "state": "ny", "street": "p o box 12414"}], [{"donor_id": 538609, "city": "rochester", "name": "iuoe local 832 pol ed fund", "zip": "14692", "state": "ny", "street": "3174 bri- hen tl rd,po box 93310"}, {"donor_id": 541437, "city": "glenmont", "name": "iuoe local 158 vpaf", "zip": "12077", "state": "ny", "street": "44 hannay lane"}], [{"donor_id": 511178, "city": "brooklyn", "name": "csa local 1", "zip": "11241", "state": "ny", "street": "16 court street, 4th floor"}, {"donor_id": 486359, "city": "brooklyn", "name": "academy of trial lawyers pac", "zip": "11241", "state": "ny", "street": "16 court street suite 1800"}], [{"donor_id": 530139, "city": "huntington", "name": "gathman & bennett llp", "zip": "11743", "state": "ny", "street": "191 new york avenue"}, {"donor_id": 536793, "city": "huntington", "name": "hoffman-grayson architetcs, llp", "zip": "11743", "state": "ny", "street": "378 new york avenue"}], [{"donor_id": 487221, "city": "ithaca", "name": "afcu", "zip": "14850", "state": "ny", "street": "125 north fulton street"}, {"donor_id": 540476, "city": "s.richmond hil", "name": "interstate audio distributors, inc", "zip": "11419", "state": "ny", "street": "11410 liberty avenue"}], [{"donor_id": 507094, "city": "roshester", "name": "committee of elect gantt for assoc", "zip": "14604", "state": "ny", "street": "107 liberty pole way"}, {"donor_id": 575301, "city": "rochester", "name": "passero associates", "zip": "14616", "state": "ny", "street": "100 liberty pole way"}], [{"donor_id": 568798, "city": "albany", "name": "ny build pac", "zip": "12210", "state": "ny", "street": "1 commerce plaza-suite 704"}, {"donor_id": 572104, "city": "albany", "name": "nysna", "zip": "12210", "state": "ny", "street": "155 washington avenue"}], [{"donor_id": 564967, "city": "ny", "name": "new york bankers pac", "zip": "10016", "state": "ny", "street": "99 park avenue 4th floor"}, {"donor_id": 558534, "city": "new york", "name": "medical liability mutual insurance co pac", "zip": "10016", "state": "ny", "street": "2 park avenue"}], [{"donor_id": 536460, "city": "flushing", "name": "hip hing construction co, inc", "zip": "11364", "state": "ny", "street": "227-10 64th avenue"}, {"donor_id": 596739, "city": "binghamton", "name": "tj madison construction co, inc", "zip": "13901", "state": "ny", "street": "57 franklin avenue"}], [{"donor_id": 573421, "city": "syracuse", "name": "onondaga cty dem committee", "zip": "13202", "state": "ny", "street": "248 e water street"}, {"donor_id": 603597, "city": "syracuse", "name": "uas llc", "zip": "13204", "state": "ny", "street": "450 tracy street"}], [{"donor_id": 597551, "city": "albany", "name": "teapac", "zip": "12207", "state": "ny", "street": "99 pine st, 2nd floor"}, {"donor_id": 503656, "city": "albany", "name": "cheryl coleman law offices", "zip": "12207", "state": "ny", "street": "100 streetate street suite 920"}], [{"donor_id": 511215, "city": "albany", "name": "cse politial action fund", "zip": "12401", "state": "ny", "street": "143 washington avenuu"}, {"donor_id": 571157, "city": "albany", "name": " new york state pest control association  pac", "zip": "12210", "state": "ny", "street": "130 washington avenue"}], [{"donor_id": 608030, "city": "pearl river", "name": "w harris & son, inc", "zip": "10965", "state": "ny", "street": "37 w washington avenue"}, {"donor_id": 570088, "city": "albany", "name": " new york state assn of pba's pac, inc", "zip": "12210", "state": "ny", "street": "111 washington avenue"}], [{"donor_id": 528938, "city": "new york", "name": "friends of weiner", "zip": "10170", "state": "ny", "street": "420 lexington ave, suite 312"}, {"donor_id": 527944, "city": "amsterdam", "name": "friends of paul tonko", "zip": "12010", "state": "ny", "street": "137 princeton street"}], [{"donor_id": 484390, "city": "new york", "name": "222 bloomingdale road associates, llc", "zip": "10016", "state": "ny", "street": "c/o celestial capital group, llc 10 e 4"}, {"donor_id": 495306, "city": "new york", "name": "bethel mgmt", "zip": "10038", "state": "ny", "street": "7 chatham sq, suite 608"}], [{"donor_id": 601554, "city": "new york", "name": "torys", "zip": "10017", "state": "ny", "street": "237 park avenue"}, {"donor_id": 490076, "city": "new york", "name": "andrew tavel", "zip": "10166", "state": "ny", "street": "200 park avenue"}], [{"donor_id": 524945, "city": "cutchogue", "name": "friends of al krupski", "zip": "11935", "state": "ny", "street": "po box 78"}, {"donor_id": 527510, "city": "buffalo", "name": "friends of mary f holtz, cheektowaga supervisor", "zip": "14227", "state": "ny", "street": "43 jane drive"}], [{"donor_id": 483868, "city": "new york", "name": "1199 seiu- new york state  political action fund", "zip": "10108", "state": "ny", "street": "po box 2612"}, {"donor_id": 534597, "city": "rensselaer", "name": "ha new york state pac", "zip": "12144.0", "state": "ny", "street": "7 empire drive"}], [{"donor_id": 575457, "city": "albany", "name": "patricia lynch associates", "zip": "12210", "state": "ny", "street": "111 washington ave, suite 401"}, {"donor_id": 565571, "city": "albany", "name": "new york school bus operators for effective gov't", "zip": "12210", "state": "ny", "street": "176 washington avenue"}], [{"donor_id": 534094, "city": "melville", "name": "h2m labs, inc", "zip": "11747", "state": "ny", "street": "575 broad hollow road"}, {"donor_id": 582263, "city": "melville", "name": "rechler equity management llc", "zip": "11747", "state": "ny", "street": "225 broadhollow rd suite 184w"}], [{"donor_id": 567748, "city": "new hyde park", "name": "north shore lij health system", "zip": "11040", "state": "ny", "street": "po box 3856"}, {"donor_id": 607970, "city": "new hyde park", "name": "vs realty", "zip": "11040", "state": "ny", "street": "55 royal way"}], [{"donor_id": 595318, "city": "holbrook", "name": "suffolk county republican women pac", "zip": "11741", "state": "ny", "street": "po box 81"}, {"donor_id": 604680, "city": "coram", "name": "united bus corp", "zip": "11727", "state": "ny", "street": "po box 411"}], [{"donor_id": 486024, "city": "riverhead,", "name": "abate rrf inc", "zip": "11901", "state": "ny", "street": "216 lincoln avenue"}, {"donor_id": 584050, "city": "riverhead", "name": "riverhead police benevolent assoc", "zip": "11901", "state": "ny", "street": "210 howell avenue"}], [{"donor_id": 536463, "city": "new york", "name": "hipic", "zip": "10041", "state": "ny", "street": "55 water street"}, {"donor_id": 601441, "city": "new hyde park", "name": "tony's limousine inc", "zip": "11040", "state": "ny", "street": "809 n 5th street"}], [{"donor_id": 501116, "city": "albany", "name": "capital women political action committee", "zip": "12201", "state": "ny", "street": "po box 1115"}, {"donor_id": 510331, "city": "akron", "name": "county line stone co", "zip": "14001", "state": "ny", "street": "po box 150"}], [{"donor_id": 542235, "city": "albany", "name": "jackson lewis pc political action committee", "zip": "12207", "state": "ny", "street": "677 broadway"}, {"donor_id": 519285, "city": "albany", "name": "empire dental pac", "zip": "12211.0", "state": "ny", "street": "20 corporate woods boulevard suite 602"}], [{"donor_id": 551375, "city": "rockville ctr.", "name": "lidia epel", "zip": "11570.0", "state": "ny", "street": "165 n village avenue"}, {"donor_id": 570574, "city": "albany", "name": " new york state conference international union of operating en", "zip": "12210.0", "state": "ny", "street": "100 south swan street"}], [{"donor_id": 524806, "city": "jamaica", "name": "friends for gregory meeks", "zip": "11432", "state": "ny", "street": "153-01 jamaica avenue suite 535"}, {"donor_id": 524887, "city": "shrub oak", "name": "friends for tom diana", "zip": "10588", "state": "ny", "street": "po box 136"}], [{"donor_id": 519286, "city": "albany", "name": "empire dental pac", "zip": "12211", "state": "ny", "street": "20 corporate woods boulevard ste602"}, {"donor_id": 570557, "city": "albany", "name": " new york state conference int'l union of engineers", "zip": "12210", "state": "ny", "street": "100 south swan street"}], [{"donor_id": 594392, "city": "wappingers fall", "name": "storage management, inc", "zip": "12590", "state": "ny", "street": "1634 route 9"}, {"donor_id": 487128, "city": "brooklyn", "name": "aeg management", "zip": "11217", "state": "ny", "street": "620 atlantic avenue"}], [{"donor_id": 484152, "city": "newburgh", "name": "17k property group llc", "zip": "12550", "state": "ny", "street": "po box 10273"}, {"donor_id": 504353, "city": "new york", "name": "citicorp", "zip": "10268", "state": "ny", "street": "po box 997"}], [{"donor_id": 526793, "city": "lindenhurst", "name": "friends of john kennedy, jr", "zip": "11757", "state": "ny", "street": "po box 70"}, {"donor_id": 527759, "city": "westbury", "name": "friends of nasrin ahmad", "zip": "11590", "state": "ny", "street": "p o box 744"}]], "match": [[{"donor_id": 571786, "city": "albany", "name": " new york state veterinary pol ed comm", "zip": null, "state": "ny", "street": null}, {"donor_id": 571791, "city": "albany", "name": " new york state veterinary pol educ comm", "zip": "12210", "state": "ny", "street": "c/o hill & gosdeck, 1 commerce plaza"}], [{"donor_id": 485904, "city": "washington", "name": "atu new york cope fund", "zip": "20016", "state": "dc", "street": "5025 wisconsin avenue nw"}, {"donor_id": 492206, "city": "washington", "name": "atu new york cope fund", "zip": "20016", "state": "dc", "street": "5025 wisconsin avenue"}], [{"donor_id": 558614, "city": "lake success", "name": "medical society of the state of new york", "zip": "11042", "state": "ny", "street": "420 lakeville road"}, {"donor_id": 558687, "city": "lake success", "name": "medical society of the state of new york , pac", "zip": "11042", "state": "ny", "street": "420 lakeville road"}], [{"donor_id": 551121, "city": "hauppauge", "name": "li federation of labor cope", "zip": "11788", "state": "ny", "street": "390 rabro drive"}, {"donor_id": 551130, "city": "hauppauge", "name": "li federation of labor cope acct", "zip": "11788", "state": "ny", "street": "390 rabro drive"}], [{"donor_id": 503583, "city": "elmira", "name": "chemung canal trust co", "zip": "14902", "state": "ny", "street": "one chemung canal plaza"}, {"donor_id": 503587, "city": "elmira", "name": "chemung canal trust company", "zip": "14902", "state": "ny", "street": "one chemung canal plaza"}], [{"donor_id": 483967, "city": "new york", "name": "1345 cleaning service", "zip": "10171", "state": "ny", "street": "299 park avenue"}, {"donor_id": 483970, "city": "new york", "name": "1345 cleaning service co, lp", "zip": "10171", "state": "ny", "street": "299 park avenue"}], [{"donor_id": 565681, "city": "albany", "name": "new york state assoc of insurance & financial adv", "zip": "12210", "state": "ny", "street": "38 sheridan avenue"}, {"donor_id": 570134, "city": "albany", "name": " new york state assoc of insurance & financial advisors, inc", "zip": "12210", "state": "ny", "street": "38 sheridan avenue"}], [{"donor_id": 533948, "city": "elma", "name": "gypsum systems inc", "zip": "14059-0449", "state": "ny", "street": "p o box 49"}, {"donor_id": 533950, "city": "elma", "name": "gypsum systems inc", "zip": "14059", "state": "ny", "street": "po box 49"}], [{"donor_id": 516451, "city": "washington", "name": "drive committee", "zip": "20001", "state": "dc", "street": "25 louisiana avenue nw"}, {"donor_id": 516472, "city": "washington", "name": "drive committee political fund", "zip": "20001", "state": "dc", "street": "25 louisiana avenue nw"}], [{"donor_id": 595090, "city": "bohemia", "name": "suffolk county detectives", "zip": "11716", "state": "ny", "street": "868 church street"}, {"donor_id": 595066, "city": "bohemia", "name": "suffolk county detective investigators pac", "zip": "11716", "state": "ny", "street": "868 church street - suite 6"}], [{"donor_id": 552791, "city": "new york", "name": "local 372, new york city", "zip": "10007", "state": "ny", "street": "125 barkley street 6th fl"}, {"donor_id": 552768, "city": "new york", "name": "local 372  new york city  board of education employees afscme", "zip": "10007.0", "state": "ny", "street": "125 barclay street"}], [{"donor_id": 510110, "city": "new york", "name": "council of school supervisors & administrators loc", "zip": "10006", "state": "ny", "street": "fl 12, 40 rector street"}, {"donor_id": 510147, "city": "new york", "name": "council of school supervisors and administrators l", "zip": "10006", "state": "ny", "street": "fl 12, 40 rector street"}], [{"donor_id": 587890, "city": "saratoga springs", "name": "saratoga gaming resources llc", "zip": "12866.0", "state": "ny", "street": "po box 356"}, {"donor_id": 587891, "city": "saratoga", "name": "saratoga gaming resources llc", "zip": "12866", "state": "ny", "street": "saratoga racetrack"}], [{"donor_id": 500518, "city": "woodbury", "name": "cameron engineering & assos llp", "zip": "11797.0", "state": "ny", "street": "100 sunnyside blvd, suite 100"}, {"donor_id": 500461, "city": "woodbury", "name": "cameron engineering & assoc llp", "zip": "11797", "state": "ny", "street": "100 sunnyside boulevard"}], [{"donor_id": 484687, "city": "new york", "name": "32bj united adf", "zip": "10011", "state": "ny", "street": "25 west 18th street"}, {"donor_id": 484657, "city": "new york", "name": "32bj", "zip": "10013", "state": "ny", "street": "101 avenue of americas"}], [{"donor_id": 545372, "city": "staten island", "name": "jy trans pac", "zip": "10305", "state": "ny", "street": "201 edgeater street"}, {"donor_id": 542125, "city": "new york", "name": "jy trans pac", "zip": "10305", "state": "ny", "street": "201 edgewater street"}], [{"donor_id": 593330, "city": "albany", "name": "state & broadway pac", "zip": "12207", "state": "ny", "street": "33 elk street"}, {"donor_id": 593327, "city": "albany", "name": "state & broadway - state pac", "zip": "12207", "state": "ny", "street": "33 elk street - lower"}], [{"donor_id": 509333, "city": "hauppauge", "name": "cope 25/localunion 25 ibew", "zip": "11788", "state": "ny", "street": "370 motor parkway"}, {"donor_id": 509355, "city": "hauppauge", "name": "cope/local union 25 ibew", "zip": "11788", "state": "ny", "street": "370 motor parkway"}], [{"donor_id": 565316, "city": "new york", "name": "new york hotel trades council", "zip": "10036", "state": "ny", "street": "707 eighth avenue"}, {"donor_id": 569050, "city": "new york", "name": "ny hotel trades co", "zip": "10036", "state": "ny", "street": "707 eighth avenue"}], [{"donor_id": 568676, "city": "new york", "name": "ny anesthesiologists pac", "zip": "10003", "state": "ny", "street": "85 5th avenue 8th floor"}, {"donor_id": 569537, "city": "new york", "name": "nyanesthesiologists pac", "zip": "10003", "state": "ny", "street": "85 fifth avenue 8th fl"}], [{"donor_id": 589306, "city": "albany", "name": "sefcu", "zip": "12210", "state": "ny", "street": "po box 12189"}, {"donor_id": 589310, "city": "albany", "name": "sefcu", "zip": "12212", "state": "ny", "street": "po box 12189"}], [{"donor_id": 563346, "city": "uniondale", "name": "nassau county correction officers pac", "zip": "11553", "state": "ny", "street": "190 eab plaza"}, {"donor_id": 563344, "city": "east meadow", "name": "nassau county correction officers pac", "zip": "11554", "state": "ny", "street": "100 carman avenue"}], [{"donor_id": 562666, "city": "kingston", "name": "musialklewicz construcation oc inc", "zip": "12401", "state": "ny", "street": "81 elisa landi drive"}, {"donor_id": 562664, "city": "kingston", "name": "musialkiewicz construction co", "zip": "12401", "state": "ny", "street": "81 elisa landi drive"}], [{"donor_id": 596049, "city": "brookhaven", "name": "superior officrs assoc police dept cty of sfk pac", "zip": "11719", "state": "ny", "street": "2518 montauk highway"}, {"donor_id": 595825, "city": "brookhaven", "name": "superior officers assn", "zip": "11719", "state": "ny", "street": "2518 montauk highway"}], [{"donor_id": 547325, "city": "dallas", "name": "kpmg llp", "zip": "75201", "state": "tx", "street": "717 north harwood street suite 3100"}, {"donor_id": 547306, "city": "dallas", "name": "kpmg llp", "zip": "75201", "state": "tx", "street": "2323 ross ave, suite 1400"}], [{"donor_id": 505670, "city": "syracuse", "name": "clough, harbour & associates llp", "zip": "13202", "state": "ny", "street": "441 south salina street"}, {"donor_id": 505667, "city": "albany", "name": "clough, harbour & associates llp", "zip": "12205", "state": "ny", "street": "111 winners circle post office box 5269"}], [{"donor_id": 535451, "city": "albany", "name": "health care providers pac", "zip": "12211", "state": "ny", "street": "20 corporate woods blvd, 2nd floor"}, {"donor_id": 535474, "city": "e greenbush", "name": "health care providers pac", "zip": "12061", "state": "ny", "street": "99 troy rd, suite 200"}], [{"donor_id": 483738, "city": "new york", "name": "1199 seiu", "zip": "10036", "state": "ny", "street": "310 w 43rd street"}, {"donor_id": 483880, "city": "new york", "name": "1199 seiu- new york state political action fund", "zip": "10108", "state": "ny", "street": "po box 2612"}], [{"donor_id": 496066, "city": "hauppauge", "name": "bldg & constuction trades council nassau suffolk", "zip": "11788.0", "state": "ny", "street": "150 motor parkway"}, {"donor_id": 496074, "city": "hauppauge", "name": "bldg & consttrades council pac", "zip": "11788", "state": "ny", "street": "300 motor parkway"}], [{"donor_id": 483834, "city": "new york", "name": "1199 seiu pac", "zip": "10036", "state": "ny", "street": "310 west 43 street"}, {"donor_id": 483828, "city": "new york", "name": "1199 seiu new york state  political action fund", "zip": "10108", "state": "ny", "street": "pob 2612"}], [{"donor_id": 483841, "city": "new york", "name": "1199 seiu pac", "zip": "10108", "state": "ny", "street": "pobox 2612"}, {"donor_id": 483816, "city": "new york", "name": "1199 seiu new york state  political action fund", "zip": "10036", "state": "ny", "street": "310 west 43rd street"}], [{"donor_id": 535420, "city": "east greenbush", "name": "healtcare providers pac", "zip": "12061", "state": "ny", "street": "99 troy rd, suite 200"}, {"donor_id": 535458, "city": "albany", "name": "health care providers pac", "zip": "12207", "state": "ny", "street": "90 state st, suite 200"}], [{"donor_id": 483736, "city": "new york", "name": "1199 seiu", "zip": "10036", "state": "ny", "street": "310 w 43rd street"}, {"donor_id": 483845, "city": "uniondale", "name": "1199 seiu political action committee", "zip": "11553", "state": "ny", "street": "60 charles lindburgh, suite 602"}], [{"donor_id": 501359, "city": "albany", "name": "care committee for action", "zip": "12207", "state": "ny", "street": "33 elk street"}, {"donor_id": 506978, "city": "albany", "name": "committee for actioon for a responsible electorate", "zip": "12207", "state": "ny", "street": "33 elk street"}], [{"donor_id": 552289, "city": "rochester", "name": "local 13", "zip": "14621", "state": "ny", "street": "1645 st paul street"}, {"donor_id": 552292, "city": "rochester", "name": "local 13", "zip": "14617", "state": "ny", "street": "1850 mt read boulevard"}], [{"donor_id": 603763, "city": "new york", "name": "ufoa", "zip": "10007", "state": "ny", "street": "225 broadway"}, {"donor_id": 604132, "city": "new york", "name": "uniformed fire officers assoc", "zip": "10000", "state": "ny", "street": "225 broadway"}], [{"donor_id": 607824, "city": "latham", "name": "vote/cope (nysut)", "zip": "12110.0", "state": "ny", "street": "800 troy-schenectady road"}, {"donor_id": 607919, "city": "latham", "name": "vote/cope of the new york state  teachers", "zip": "12210", "state": "ny", "street": "800 troy-schenectady road"}], [{"donor_id": 580057, "city": "cheektowaga", "name": "progressive democrats of cheektowaga", "zip": "14225", "state": "ny", "street": "50 red oak drive"}, {"donor_id": 580070, "city": "cheektowaga", "name": "progressive dems of cheektowaga", "zip": "14227", "state": "n", "street": "50 red oak drive"}], [{"donor_id": 539003, "city": "washington", "name": "ibew new york pac", "zip": "20001", "state": "dc", "street": "900 seventh st, nw"}, {"donor_id": 539002, "city": "washington", "name": "ibew new york pac", "zip": "20001", "state": "ny", "street": "900 seventh street nw"}], [{"donor_id": 483864, "city": "new york", "name": "1199 seiu- new york state  pa fund", "zip": "10108", "state": "ny", "street": "po box 2612"}, {"donor_id": 483878, "city": "new york", "name": "1199 seiu- new york state political action", "zip": "10036", "state": "ny", "street": "330 west 42nd street 7 fl"}], [{"donor_id": 600743, "city": "wharton", "name": "tilcon new york inc", "zip": "07885", "state": "nj", "street": "625 mt hope road"}, {"donor_id": 600745, "city": "west nyack", "name": "tilcon new york, inc", "zip": "10994", "state": "ny", "street": "162 old mill road"}], [{"donor_id": 607818, "city": "latham", "name": "vote/cope    new york state ut", "zip": "12110", "state": "ny", "street": "800 troy-schenectady road"}, {"donor_id": 607870, "city": "latham", "name": "vote/cope new york  state teachers", "zip": "12110", "state": "ny", "street": "800 troy-schenectady road"}], [{"donor_id": 595925, "city": "brookhaven", "name": "superior officers assoc, pd, suffolk", "zip": "11719", "state": "ny", "street": "2518 montauk highway"}, {"donor_id": 596016, "city": "brookhaven", "name": "superior officers association pac account", "zip": "11719", "state": "ny", "street": "2518 montauk highway"}], [{"donor_id": 552730, "city": "new york", "name": "local 371", "zip": "10003", "state": "ny", "street": "817 broadway"}, {"donor_id": 589450, "city": "new york", "name": "seiu local 371", "zip": "10003.0", "state": "ny", "street": "817 broadway"}], [{"donor_id": 508493, "city": "new york", "name": "con edison employees (pac)", "zip": "10003", "state": "ny", "street": "4 irving place"}, {"donor_id": 508828, "city": "new york", "name": "consolidated edison, inc employees pac", "zip": "10003", "state": "ny", "street": "4 irving place"}], [{"donor_id": 607670, "city": "latham", "name": "vote / cope", "zip": "12110", "state": "ny", "street": "800 troy-schenectady road"}, {"donor_id": 607792, "city": "albany", "name": "vote/cope", "zip": "12207", "state": "ny", "street": "800 troy-schenectady road"}], [{"donor_id": 483779, "city": "buffalo", "name": "1199 seiu - political action fund", "zip": "14214", "state": "ny", "street": "2421 main st, suite 100"}, {"donor_id": 483768, "city": "new york", "name": "1199 seiu - new york state  political action fund", "zip": "10036", "state": "ny", "street": "310 w 43rd street"}], [{"donor_id": 483847, "city": "new york", "name": "1199 seiu political action fund", "zip": "10036.0", "state": "ny", "street": "310 west 43rd street"}, {"donor_id": 483808, "city": "new york", "name": "1199 seiu new york state  pol action fund", "zip": "10108", "state": "ny", "street": "po box 2612"}], [{"donor_id": 487321, "city": "new york", "name": "afm local 802 musicians", "zip": "10036", "state": "ny", "street": "322 west 48th street"}, {"donor_id": 597716, "city": "new york", "name": "tempo 802 pac", "zip": "10036", "state": "ny", "street": "322 west 48th street"}], [{"donor_id": 511845, "city": "new york", "name": "cwa local 1180", "zip": "10013", "state": "ny", "street": "6 harrison street, 4/fl"}, {"donor_id": 568616, "city": "new york", "name": "ny administrative employees, cwa local 1180", "zip": "10013", "state": "ny", "street": "6 harrison street"}], [{"donor_id": 510012, "city": "albany", "name": "council 82 pac", "zip": "12206", "state": "ny", "street": "63 colvin avenue"}, {"donor_id": 548232, "city": "albany", "name": "lae enforcement officers union council 82", "zip": "12206", "state": "ny", "street": "63 colvin avenue"}], [{"donor_id": 484671, "city": "new york", "name": "32bj united adf", "zip": "10011", "state": "ny", "street": "25 w 18th street fl 5"}, {"donor_id": 552624, "city": "new york", "name": "local 32bj new york /nj american dream fund", "zip": "10011", "state": "ny", "street": "25w 18th street"}], [{"donor_id": 499028, "city": "buffalo", "name": "buffalo firefighters local 282 political action", "zip": "14202", "state": "ny", "street": "255 delaware avenue"}, {"donor_id": 499107, "city": "buffalo", "name": "buffalo professional fire fighters association loc", "zip": "14202", "state": "ny", "street": "255 delaware avenue"}], [{"donor_id": 505100, "city": "albany", "name": "cival service employees political action fund", "zip": "12210", "state": "ny", "street": "143 washington avenue"}, {"donor_id": 511227, "city": "albany", "name": "cse political action fund", "zip": "12210", "state": "ny", "street": "143 washington avenue"}], [{"donor_id": 568728, "city": "rensselaer", "name": "ny association of indemnpdent lumber dealers pac", "zip": "12144", "state": "ny", "street": "585 north greenbush road"}, {"donor_id": 564927, "city": "rensselaer", "name": "new york assn of independent lumber dlrs pac", "zip": "12144", "state": "ny", "street": "585 n greenbush road"}], [{"donor_id": 565255, "city": "albany", "name": "new york gaming assn", "zip": "12207", "state": "ny", "street": "99 pine street"}, {"donor_id": 569018, "city": "albany", "name": "ny gaming association pac", "zip": "12207", "state": "ny", "street": "99 pine street"}], [{"donor_id": 541386, "city": "farmingdale", "name": "iuoe local 138, 138a, 138b & 138c paf", "zip": "11735", "state": "ny", "street": "po box 206"}, {"donor_id": 552329, "city": "farmingdale", "name": "local 138 political action fund - new york  state iuoe", "zip": "11735", "state": "ny", "street": "po box 206"}], [{"donor_id": 558590, "city": "westbury", "name": "medical society of new york state  pac", "zip": "11590", "state": "ny", "street": "865 merrick avenue"}, {"donor_id": 558585, "city": "lake success", "name": "medical society of new york state  pac", "zip": "11042", "state": "ny", "street": "420 lakeville road"}], [{"donor_id": 483886, "city": "new york", "name": "1199/ seiu new york state political action fund", "zip": "10036", "state": "ny", "street": "310 west 43rd street"}, {"donor_id": 483877, "city": "new york", "name": "1199 seiu- new york state paf", "zip": "10108", "state": "ny", "street": "po box 2612"}], [{"donor_id": 520632, "city": "new york", "name": "ernst & young committee for good govt", "zip": "10036", "state": "ny", "street": "5 times square"}, {"donor_id": 520641, "city": "melville", "name": "ernst&young committee for good govt", "zip": "11747", "state": "ny", "street": "395 n service rd, suite 400"}], [{"donor_id": 577457, "city": "new york", "name": "phillips lytle llp", "zip": "10022", "state": "ny", "street": "437 madison avenue"}, {"donor_id": 577464, "city": "albany", "name": "phillips lytle llp", "zip": "12207", "state": "ny", "street": "omni plaza"}], [{"donor_id": 519626, "city": "albany", "name": "empire state petroleum assoc", "zip": "12205", "state": "ny", "street": "80 wolf road suite 308"}, {"donor_id": 519633, "city": "albany", "name": "empire state petroleum assoc", "zip": "12210", "state": "ny", "street": "111 washington avenue"}], [{"donor_id": 537971, "city": "poughkeepsie", "name": "hudson valley federal credit union", "zip": "12603", "state": "ny", "street": "159 barnegat road"}, {"donor_id": 538031, "city": "poughkeepsie", "name": "hudson velley federal credit union", "zip": "12602", "state": "ny", "street": "po box 1071"}], [{"donor_id": 584287, "city": "westbury", "name": "roadwork ahead inc", "zip": "11590", "state": "ny", "street": "96 madison avenue"}, {"donor_id": 584281, "city": "bethpage", "name": "roadwork ahead inc", "zip": "11714", "state": "ny", "street": "1211 suiteward avenue suite 103"}], [{"donor_id": 528938, "city": "new york", "name": "friends of weiner", "zip": "10170", "state": "ny", "street": "420 lexington ave, suite 312"}, {"donor_id": 528936, "city": "brooklyn", "name": "friends of weiner", "zip": "11235", "state": "ny", "street": "1901 emmons avenue"}], [{"donor_id": 518492, "city": "new york", "name": "eleanor roosevelt legacy committee", "zip": "10016", "state": "ny", "street": "461 park avenue south floor 9"}, {"donor_id": 518524, "city": "new york", "name": "eleanor roosevelt legacy committee", "zip": "10001", "state": "ny", "street": "po box 20293, greeley square station"}], [{"donor_id": 604172, "city": "new york", "name": "uniformed fire officers assoc-local 854", "zip": "10007", "state": "ny", "street": "225 broadway"}, {"donor_id": 604206, "city": "new york", "name": "uniformed fire officers fire dept of new york  local 854", "zip": "10007", "state": "ny", "street": "225 broadway"}], [{"donor_id": 566002, "city": "albany", "name": "new york state laborers- pac state fund", "zip": "12211", "state": "ny", "street": "18 corporate woods boulevard"}, {"donor_id": 570959, "city": "albany", "name": " new york state laborers political action committee-state fund", "zip": "12211", "state": "ny", "street": "18 corporate woods boulevard"}], [{"donor_id": 595459, "city": "bay shore", "name": "suffolk transit service inc", "zip": "11706", "state": "ny", "street": "10 moffitt boulevard"}, {"donor_id": 595464, "city": "bay shore", "name": "suffolk transportation service, inc", "zip": "11706", "state": "ny", "street": "10 moffitt boulevard"}], [{"donor_id": 553142, "city": "brooklyn", "name": "local 891 iuoe  state epec", "zip": "11205", "state": "ny", "street": "bklyn navy yard, 63 flushing avenue unit 358"}, {"donor_id": 553158, "city": "brooklyn", "name": "local 891 iuoe state epec", "zip": "11205-1085", "state": "ny", "street": "63 flushing avenue unit 358 bldg 292 suite 401"}], [{"donor_id": 483804, "city": "new york", "name": "1199 seiu new york state  paf", "zip": "10108", "state": "ny", "street": "pob 2612"}, {"donor_id": 483826, "city": "ny", "name": "1199 seiu new york state  political action fund", "zip": "10108", "state": "ny", "street": "po box 2612"}], [{"donor_id": 569814, "city": "albany", "name": " new york city amp", "zip": "12207", "state": "ny", "street": "80 state street,11th floor"}, {"donor_id": 569816, "city": "albany", "name": " new york city amp", "zip": "12207.0", "state": "ny", "street": "streete 11, 80 streetate street"}], [{"donor_id": 603393, "city": "long island city", "name": "ua steamfitters lu #638 voluntary stat pac", "zip": "11101", "state": "ny", "street": "fl 4, 2708 40th avenue"}, {"donor_id": 603583, "city": "long island city", "name": "ua steamfitters lu 638 pac", "zip": "11101", "state": "ny", "street": "27-08 40th avenue"}], [{"donor_id": 569812, "city": "albany", "name": " new york city amp", "zip": "12207", "state": "ny", "street": "80 state street, 11th fl"}, {"donor_id": 569817, "city": "albany", "name": " new york city amp", "zip": "12207", "state": "ny", "street": "streete 400, 100 streetate street"}], [{"donor_id": 558578, "city": "westbury", "name": "medical society of new york  pac", "zip": "11590", "state": "ny", "street": "865 merrick avenue"}, {"donor_id": 558685, "city": "westbury", "name": "medical society of the state of new york  pac-state fund", "zip": "11590", "state": "ny", "street": "865 merrick avenue"}], [{"donor_id": 567724, "city": "glen cove", "name": "north shore golf car rep svces inc", "zip": "11542", "state": "ny", "street": "220 glen cove avenue"}, {"donor_id": 567730, "city": "glen cove", "name": "north shore golf car repair service inc", "zip": "11542", "state": "ny", "street": "220 glen cove avenue"}], [{"donor_id": 513301, "city": "new york", "name": "dc 37 pac", "zip": "10007", "state": "ny", "street": "125 barclay street"}, {"donor_id": 515402, "city": "new york", "name": "distrrict council 37", "zip": "10007", "state": "ny", "street": "126 barclay street"}], [{"donor_id": 494843, "city": "new york", "name": "benevolent assoc of correction officers pac", "zip": "10013", "state": "ny", "street": "335 broadway"}, {"donor_id": 509746, "city": "new york", "name": "correction officers benevolent assoc", "zip": "10013", "state": "ny", "street": "335 broadway #515"}], [{"donor_id": 540224, "city": "brooklyn", "name": "intern'l union of operating engineers local 891", "zip": "11221", "state": "ny", "street": "125 stuyvesant avenue"}, {"donor_id": 541566, "city": "brooklyn", "name": "iuoe state epec, local 891", "zip": "11205", "state": "ny", "street": "63 flushing avenue, unit 358, bldg 292"}], [{"donor_id": 484692, "city": "new york", "name": "32bj united adf", "zip": "10011", "state": "ny", "street": "28 west 18th street"}, {"donor_id": 552587, "city": "new york", "name": "local 32bj new york /nj", "zip": "10013", "state": "ny", "street": "101 avenue of the americas"}], [{"donor_id": 552579, "city": "new york", "name": "local 32bj american dream fund", "zip": "10013", "state": "ny", "street": "101 avenue of the americas"}, {"donor_id": 553367, "city": "ny", "name": "local32bj new york /nj amer dream fnd", "zip": "10013", "state": "ny", "street": "101 av of americas"}], [{"donor_id": 554777, "city": "tuxedo", "name": "m spiegel & sons oil corp", "zip": "10987", "state": "ny", "street": "po box 833"}, {"donor_id": 555000, "city": "tuxedo", "name": "m spiegel & sons oil corp", "zip": "10987", "state": "ny", "street": "10 east village road"}], [{"donor_id": 603411, "city": "long island city", "name": "ua steamfitters local union", "zip": "11101", "state": "ny", "street": "27-08 40th avenue"}, {"donor_id": 603582, "city": "long island city", "name": "ua steamfitters lu 638", "zip": "11101", "state": "ny", "street": "27-08 40th avenue"}], [{"donor_id": 569173, "city": "glenmont", "name": "ny pia pac", "zip": "12077", "state": "ny", "street": "po box 997"}, {"donor_id": 569167, "city": "glenmont", "name": "ny pia pac", "zip": "12077", "state": "ny", "street": "25 chanberlian street"}], [{"donor_id": 528058, "city": "east amherst", "name": "friends of ray walter", "zip": "14051", "state": "ny", "street": "209 san frenando lane"}, {"donor_id": 528060, "city": "east amherst", "name": "friends of ray walter", "zip": "14051", "state": "ny", "street": "po box 81"}], [{"donor_id": 499521, "city": "garden city", "name": "burns, russo, tamigi & reardon, llp", "zip": "11530", "state": "ny", "street": "390 old country road"}, {"donor_id": 499524, "city": "garden city", "name": "burns, russo,tamigi and reardon llp", "zip": "11530", "state": "ny", "street": "390 old country road"}], [{"donor_id": 523707, "city": "uniondale", "name": "forchelli, curto, deegan, schwartz, mineo & terran", "zip": "11553", "state": "ny", "street": "333 earle ovington boulevard"}, {"donor_id": 523712, "city": "uniondale", "name": "forchelli, curto, deegan, schwartz, mineo, cohn &", "zip": "11553", "state": "ny", "street": "333 earle ovington boulevard"}], [{"donor_id": 607845, "city": "latham", "name": "vote/cope comm on political education of new york state ut", "zip": "12110", "state": "ny", "street": "800 troy-schenectady road"}, {"donor_id": 607857, "city": "latham", "name": "vote/cope committee on political education new york state ", "zip": "12110", "state": "ny", "street": "800 troy-schenectady road"}], [{"donor_id": 493945, "city": "binghamton", "name": "battisti network, pllc", "zip": "13905", "state": "ny", "street": "265 main street"}, {"donor_id": 493943, "city": "binghamton", "name": "battisti neetworks,pllc", "zip": "13905", "state": "ny", "street": "265 main street"}], [{"donor_id": 509909, "city": "syracuse", "name": "costello, cooney & fearon, llp", "zip": "13202", "state": "ny", "street": "205 south salina street"}, {"donor_id": 509910, "city": "syracuse", "name": "costello, cooney & fearon, llp", "zip": "13202", "state": "ny", "street": "salina pl, 205 s salina street"}], [{"donor_id": 527600, "city": "bronx", "name": "friends of michael blake", "zip": "10451", "state": "ny", "street": "837 washington avenue, #3k"}, {"donor_id": 527601, "city": "new york", "name": "friends of michael blake", "zip": "10451", "state": "ny", "street": "837 washington avenue, suite 3k"}]]}