{"distinct": [[{"donor_id": 83406, "city": "mineola", "name": "jack martins 08", "zip": "11501", "state": "ny", "street": "139 walker rd"}, {"donor_id": 162125, "city": null, "name": "no. 9 contributor", "zip": null, "state": null, "street": null}], [{"donor_id": 20051, "city": "new york", "name": "brad hoylman", "zip": "10011", "state": "ny", "street": "30 5th avenue, apt. 15h"}, {"donor_id": 20057, "city": "new york", "name": "brad hoylman", "zip": "10011", "state": "ny", "street": "80 8th ave #1802"}], [{"donor_id": 17, "city": null, "name": "8/5/2007 unitemized", "zip": null, "state": null, "street": null}, {"donor_id": 83406, "city": "mineola", "name": "jack martins 08", "zip": "11501", "state": "ny", "street": "139 walker rd"}], [{"donor_id": 17, "city": null, "name": "8/5/2007 unitemized", "zip": null, "state": null, "street": null}, {"donor_id": 87608, "city": "kingston", "name": "james quigley 3rd", "zip": "12401", "state": "ny", "street": "7 tall oaks drive"}], [{"donor_id": 92663, "city": "new york", "name": "jefferson l hughes", "zip": "10017", "state": "ny", "street": "235 e 42nd st"}, {"donor_id": 141456, "city": "new york", "name": "mark r chambers", "zip": "10017", "state": "ny", "street": "235 e 42nd st"}], [{"donor_id": 74721, "city": "e. marion", "name": "gordon rackett", "zip": "11939", "state": "ny", "street": "p.o. box 151"}, {"donor_id": 167522, "city": "hathorne", "name": "paul dolan", "zip": "01937", "state": "ma", "street": "p.o. box 4"}], [{"donor_id": 191347, "city": "new york", "name": "ruth bernstein", "zip": "10016", "state": "ny", "street": "271 madison"}, {"donor_id": 191352, "city": "ny", "name": "ruth bernstein", "zip": "10022", "state": "ny", "street": "488 madison ave ste 100"}], [{"donor_id": 104482, "city": null, "name": "john rutherford", "zip": null, "state": null, "street": null}, {"donor_id": 104488, "city": "wilmington", "name": "john ryan", "zip": "19810", "state": "de", "street": "2524 darmouth woods rd"}], [{"donor_id": 95094, "city": "new york", "name": "jennifer r mcmillen", "zip": "10017", "state": "ny", "street": "235 east 42nd street"}, {"donor_id": 122713, "city": "new york", "name": "kresl john", "zip": "10017", "state": "ny", "street": "235 east 42nd street"}], [{"donor_id": 109448, "city": "hartford", "name": "joseph mathieu", "zip": "6155.0", "state": "ct", "street": "1 hartford plz"}, {"donor_id": 205437, "city": "hartford", "name": "sun maher", "zip": "6115.0", "state": "ct", "street": "1 hartford plz"}], [{"donor_id": 127609, "city": "new york", "name": "leonard zanowicz", "zip": "10017.0", "state": "ny", "street": "235 east 42nd street"}, {"donor_id": 127610, "city": "atlanta", "name": "leonard zanowicz", "zip": "30338", "state": "ga", "street": "400 perimeter walk pfizer regional mgmt"}], [{"donor_id": 137071, "city": "terre haute", "name": "margaret l frazer", "zip": "47802", "state": "in", "street": "100 pfizer dr"}, {"donor_id": 137073, "city": "new york", "name": "margaret l frazer", "zip": "10017.0", "state": "ny", "street": "235 east 42nd street"}], [{"donor_id": 154546, "city": "san francisco", "name": "michael d berardini", "zip": "94105", "state": "ca", "street": "560 mission st ca1-0200"}, {"donor_id": 154547, "city": "san francisco", "name": "michael d berardini", "zip": "94107", "state": "ca", "street": "600 harrison st ca1-4235"}], [{"donor_id": 75772, "city": "new york", "name": "gregory meredith", "zip": "10017", "state": "ny", "street": "270 park ave ny1-k720"}, {"donor_id": 75773, "city": "new york", "name": "gregory meredith", "zip": "10004", "state": "ny", "street": "4 new york plz ny1-k722"}], [{"donor_id": 161247, "city": "new york", "name": "nicholas timko", "zip": "10007", "state": "ny", "street": "20 vesey street 3rd fl"}, {"donor_id": 161248, "city": "brooklyn", "name": "nicholas timko", "zip": "11209", "state": "ny", "street": "89  79th street"}], [{"donor_id": 119295, "city": "lake wylie", "name": "kenneth mead", "zip": "29710.0", "state": "sc", "street": "573 bonum road"}, {"donor_id": 119296, "city": "fort mill", "name": "kenneth mead", "zip": "29715", "state": "sc", "street": "605 munn road"}], [{"donor_id": 207528, "city": "atlanta", "name": "suzanne e tate", "zip": "30338", "state": "ga", "street": "400 perimeter walk pfizer regional mgmt"}, {"donor_id": 207529, "city": "collegeville", "name": "suzanne e tate", "zip": "19426", "state": "pa", "street": "500 arcola rd"}], [{"donor_id": 126867, "city": "buffalo", "name": "leigh anderson", "zip": "14202", "state": "ny", "street": "43 court st. #930"}, {"donor_id": 126875, "city": "buffalo", "name": "leigh anderson", "zip": "14202", "state": "ny", "street": "69 delaware ave, suite 1001"}], [{"donor_id": 221527, "city": "elk grove villa", "name": "wayne j hutt", "zip": "60007", "state": "il", "street": "1350 estes ave"}, {"donor_id": 221528, "city": "new york", "name": "wayne j hutt", "zip": "10017", "state": "ny", "street": "235 east 42nd street"}], [{"donor_id": 28882, "city": "new york", "name": "charles brainard", "zip": "10011", "state": "ny", "street": "101 w. 12th street apt 8"}, {"donor_id": 30176, "city": "new york", "name": "charles warren", "zip": "10128", "state": "ny", "street": "200 e 90th st"}], [{"donor_id": 153094, "city": "new york", "name": "michael presser", "zip": "10011", "state": "ny", "street": "175 west 13th street 2a"}, {"donor_id": 154461, "city": "new york", "name": "michael zumbluskas", "zip": "10028", "state": "ny", "street": "441 e 83rd street #a"}], [{"donor_id": 191432, "city": "new york", "name": "ruth harden", "zip": "10027.0", "state": "ny", "street": "212 w 132nd st"}, {"donor_id": 191433, "city": "new york", "name": "ruth harden", "zip": "10032.0", "state": "ny", "street": "75 saint nicholas pl"}], [{"donor_id": 56352, "city": "hasbrouck heigh", "name": "edward hochstadter, jr", "zip": "07604", "state": "nj", "street": "260 harrison avenue"}, {"donor_id": 56354, "city": "new york", "name": "edward hochstadter, jr", "zip": "10179", "state": "ny", "street": "383 madison ave ny1-m016"}], [{"donor_id": 223787, "city": "larchmont", "name": "william hubbard iii", "zip": "10538", "state": "ny", "street": "1890 palmer avenue #405"}, {"donor_id": 223788, "city": "new york", "name": "william hubbard iii", "zip": "10022", "state": "ny", "street": "437 madison avenue - 40 floor"}], [{"donor_id": 168500, "city": "new hyde park", "name": "paul rodriguez", "zip": "11040.0", "state": "ny", "street": "59 rose ln"}, {"donor_id": 168501, "city": "flushing", "name": "paul rodriguez", "zip": "11367", "state": "ny", "street": "75-10 150th st. apt. 3a"}], [{"donor_id": 226235, "city": "new york", "name": "winston fisher", "zip": "10171", "state": "ny", "street": "299 park avenue"}, {"donor_id": 226236, "city": "new york", "name": "winston fisher", "zip": "10022", "state": "ny", "street": "351 east 51 street"}], [{"donor_id": 118724, "city": "alexandria", "name": "kenneth adami", "zip": "22314", "state": "va", "street": "1178 n pitt st"}, {"donor_id": 118725, "city": "atlanta", "name": "kenneth adami", "zip": "30327", "state": "ga", "street": "3715 northside pkwy bldg 100"}], [{"donor_id": 84168, "city": "new york", "name": "jacqueline f cobb", "zip": "10017", "state": "ny", "street": "235 east 42nd street"}, {"donor_id": 84169, "city": "greenwood villa", "name": "jacqueline f cobb", "zip": "80111", "state": "co", "street": "6465 greenwood plaza blvd ste 150"}], [{"donor_id": 146513, "city": "new york", "name": "matthew r krebs", "zip": "10017", "state": "ny", "street": "235 east 42nd street"}, {"donor_id": 146514, "city": "greenwood villa", "name": "matthew r krebs", "zip": "80111", "state": "co", "street": "6465 greenwood plaza blvd ste 150"}], [{"donor_id": 183707, "city": "new york", "name": "robert huffines", "zip": "10075", "state": "ny", "street": "117 east 79th street"}, {"donor_id": 183709, "city": "new york", "name": "robert huffines", "zip": "10179", "state": "ny", "street": "383 madison ave ny1-m171"}], [{"donor_id": 170963, "city": "si", "name": "peter martin", "zip": "10304", "state": "ny", "street": "17 copperflagg lane"}, {"donor_id": 170964, "city": "staten island", "name": "peter martin", "zip": "10314", "state": "ny", "street": "274 watchogue road"}], [{"donor_id": 110904, "city": "flushing", "name": "josephine tsatsakos", "zip": "11358", "state": "ny", "street": "33-78 163rd street"}, {"donor_id": 110905, "city": "livingston manor", "name": "josephine tsatsakos", "zip": "12758", "state": "ny", "street": "po box 748"}], [{"donor_id": 78809, "city": "flushing", "name": "helen ho", "zip": "11355", "state": "ny", "street": "150-15 58th rd"}, {"donor_id": 78812, "city": "astoria", "name": "helen ho", "zip": "11102", "state": "ny", "street": "26-11 24th avenue"}], [{"donor_id": 4857, "city": "new york", "name": "allison feldman", "zip": "10023", "state": "ny", "street": "160 west end avenue 2h"}, {"donor_id": 4933, "city": "new york", "name": "allison schachter", "zip": "10010", "state": "ny", "street": "200 east 24th street, apt. #1001"}], [{"donor_id": 43989, "city": "collinsville", "name": "david morgan", "zip": "6019.0", "state": "ct", "street": "19 maple ave"}, {"donor_id": 43990, "city": "new york", "name": "david morgan", "zip": "10021", "state": "ny", "street": "215 east 73rd street"}], [{"donor_id": 182487, "city": "atlanta", "name": "robert corley", "zip": "30338", "state": "ga", "street": "400 perimeter walk pfizer regional mgmt"}, {"donor_id": 182488, "city": "westlake", "name": "robert corley", "zip": "76262", "state": "tx", "street": "7 village cir pfizer inc"}], [{"donor_id": 57745, "city": "southold", "name": "eileen powers", "zip": "11971", "state": "ny", "street": "230 columbia road"}, {"donor_id": 57746, "city": "riverhead", "name": "eileen powers", "zip": "11901", "state": "ny", "street": "456 griffing avenue"}], [{"donor_id": 87798, "city": "mastic beach", "name": "james ryan", "zip": "11951", "state": "ny", "street": "15 rivershide avenue"}, {"donor_id": 87811, "city": "kinderhook", "name": "james ryan", "zip": "12106", "state": "ny", "street": "po box 461"}], [{"donor_id": 102214, "city": "malone", "name": "john johnson", "zip": "12953.0", "state": "ny", "street": "158 tamarrack drive"}, {"donor_id": 102218, "city": "shoreham", "name": "john johnson", "zip": "11786", "state": "ny", "street": "5 ridgefield drive"}], [{"donor_id": 49132, "city": "new york", "name": "derrick l surratt", "zip": "10017", "state": "ny", "street": "235 east 42nd street"}, {"donor_id": 49134, "city": "atlanta", "name": "derrick l surratt", "zip": "30338", "state": "ga", "street": "400 perimeter walk pfizer regional mgmt"}], [{"donor_id": 138851, "city": "new york", "name": "marilyn e pettit", "zip": "10017", "state": "ny", "street": "235 east 42nd street"}, {"donor_id": 138853, "city": "atlanta", "name": "marilyn e pettit", "zip": "30338", "state": "ga", "street": "400 perimeter walk pfizer regional mgmt"}], [{"donor_id": 213732, "city": "new york", "name": "thomas j schmidt", "zip": "10017", "state": "ny", "street": "235 east 42nd street"}, {"donor_id": 213733, "city": "atlanta", "name": "thomas j schmidt", "zip": "30338", "state": "ga", "street": "400 perimeter walk pfizer regional mgmt"}], [{"donor_id": 51606, "city": "ofallon", "name": "donald faulkner", "zip": "63368", "state": "mo", "street": "1000 technology drive"}, {"donor_id": 51607, "city": "saint charles", "name": "donald faulkner", "zip": "63304.0", "state": "mo", "street": "5709 wrenwyck place"}], [{"donor_id": 168977, "city": "atlanta", "name": "paul a shelton", "zip": "30338", "state": "ga", "street": "400 perimeter walk pfizer regional mgmt"}, {"donor_id": 168978, "city": "georgia", "name": "paul a shelton", "zip": "30004", "state": "ga", "street": "pfizer inc remote location"}], [{"donor_id": 216608, "city": "collierville", "name": "tracy pearson", "zip": "38017.0", "state": "tn", "street": "1763  ghost creek dr"}, {"donor_id": 216610, "city": "piperton", "name": "tracy pearson", "zip": "38017.0", "state": "tn", "street": "255 ridgewood drive"}], [{"donor_id": 178395, "city": "centennial", "name": "richard farr", "zip": "80111", "state": "co", "street": "6465 greenwood plaza blvd ste 150"}, {"donor_id": 180411, "city": "new york", "name": "richard thompson", "zip": "10154", "state": "ny", "street": "345 park avenue"}], [{"donor_id": 21579, "city": "the woodlands", "name": "brian hayes", "zip": "77382.0", "state": "tx", "street": "23 s knightsgate cir"}, {"donor_id": 21580, "city": "houston", "name": "brian hayes", "zip": "77067.0", "state": "tx", "street": "785 greens pkwy"}], [{"donor_id": 202266, "city": "rye", "name": "stephen meyers", "zip": "10580", "state": "ny", "street": "10 roger sherman pl"}, {"donor_id": 202267, "city": "new york", "name": "stephen meyers", "zip": "10023", "state": "ny", "street": "205 west end ave 16c"}], [{"donor_id": 177649, "city": "new york", "name": "richard anfang", "zip": "10005", "state": "ny", "street": "1 chase manhattan plz ny1-a271"}, {"donor_id": 179840, "city": "new york", "name": "richard price", "zip": "10028", "state": "ny", "street": "25 east 86th street"}], [{"donor_id": 120177, "city": "silver creek", "name": "kevin brown", "zip": "14136", "state": "ny", "street": "11495 bennett state road"}, {"donor_id": 120180, "city": "sayville", "name": "kevin brown", "zip": "11782", "state": "ny", "street": "428 astor drive"}], [{"donor_id": 54152, "city": "keller", "name": "douglas scandling", "zip": "76248.0", "state": "tx", "street": "509 ironwood drive"}, {"donor_id": 54154, "city": "irving", "name": "douglas scandling", "zip": "75039", "state": "tx", "street": "6400 las colinas boulevard"}], [{"donor_id": 213625, "city": "blacksburg", "name": "thomas a salamone", "zip": "24060", "state": "va", "street": "3001 commerce st"}, {"donor_id": 213626, "city": "virginia", "name": "thomas a salamone", "zip": "20111", "state": "va", "street": "pfizer inc remote location"}], [{"donor_id": 104376, "city": "glasgow", "name": "john rogers", "zip": "42141", "state": "ky", "street": "111 west wayne street"}, {"donor_id": 104379, "city": "chicago", "name": "john rogers", "zip": "60601", "state": "il", "street": "200 e randolph st"}], [{"donor_id": 43933, "city": "west hartford", "name": "david miller", "zip": "6117.0", "state": "ct", "street": "12 hollister drive"}, {"donor_id": 43938, "city": "e meadow", "name": "david miller", "zip": "11554.0", "state": "ny", "street": "2232 fourth st"}], [{"donor_id": 122145, "city": "new york", "name": "kimberly l wheeler", "zip": "10017", "state": "ny", "street": "235 east 42nd street"}, {"donor_id": 122147, "city": "california", "name": "kimberly l wheeler", "zip": "90002", "state": "ca", "street": "pfizer inc remote location"}], [{"donor_id": 144207, "city": "brooklyn", "name": "mary smith", "zip": "11207.0", "state": "ny", "street": "185 wortman ave"}, {"donor_id": 144213, "city": "new rochelle", "name": "mary smith", "zip": "10802", "state": "ny", "street": "po box 1123"}], [{"donor_id": 166116, "city": "holbrook", "name": "patrick barry", "zip": "11741.0", "state": "ny", "street": "4400 veterans memorial hwy, ste 205"}, {"donor_id": 166227, "city": "new york", "name": "patrick condren", "zip": "10075", "state": "ny", "street": "345 e 80th street"}], [{"donor_id": 151851, "city": "new york", "name": "michael lesser", "zip": "10021", "state": "ny", "street": "211e 70th street"}, {"donor_id": 151853, "city": "guilderland", "name": "michael lesser", "zip": "12084", "state": "ny", "street": "50 knights brg apt f"}], [{"donor_id": 57817, "city": "new jersey", "name": "eileen a combos", "zip": "07001", "state": "nj", "street": "pfizer inc remote location"}, {"donor_id": 57818, "city": "bedminster", "name": "eileen a combos", "zip": "07921", "state": "nj", "street": "somerset financial center dr"}], [{"donor_id": 210322, "city": "bay shore", "name": "theresa smith", "zip": "11706", "state": "ny", "street": "12 schember road"}, {"donor_id": 210323, "city": "bronx", "name": "theresa smith", "zip": "10465", "state": "ny", "street": "530 ellsworth ave c3"}], [{"donor_id": 213066, "city": "sag harbor", "name": "thomas schiavoni", "zip": "11963", "state": "ny", "street": "15 west harbor drive"}, {"donor_id": 213160, "city": "merrick", "name": "thomas shim", "zip": "11566", "state": "ny", "street": "102 elliot street"}], [{"donor_id": 223226, "city": "staten island", "name": "william felci", "zip": "10306", "state": "ny", "street": "449 jefferson avenue"}, {"donor_id": 225676, "city": "garrison", "name": "william a. zutt", "zip": "10524", "state": "ny", "street": "563 rt 9d"}], [{"donor_id": 104038, "city": "east amherst", "name": "john piccillo", "zip": "14051", "state": "ny", "street": "105 bramblewood ln"}, {"donor_id": 104153, "city": "islandia", "name": "john puccio", "zip": "11749.0", "state": "ny", "street": "3001 expressway drive north"}], [{"donor_id": 102333, "city": "new city", "name": "john kelly", "zip": "10956", "state": "ny", "street": "12 salem road"}, {"donor_id": 102350, "city": "poughquag", "name": "john kelly iii", "zip": "12570", "state": "ny", "street": "75 mountain creek rd"}], [{"donor_id": 164712, "city": "flemington", "name": "patkochis bradley", "zip": "08822", "state": "nj", "street": "345 quakertown road"}, {"donor_id": 164713, "city": "parsippany", "name": "patkochis bradley", "zip": "07054", "state": "nj", "street": "morris corporate center iv 369 interpace"}], [{"donor_id": 87477, "city": "miami", "name": "james peterson", "zip": "33131", "state": "fl", "street": "1450 brickell ave fl6-1432"}, {"donor_id": 87479, "city": "staten island", "name": "james peterson", "zip": "10305", "state": "ny", "street": "201 edgewater st."}], [{"donor_id": 102603, "city": "cheektowaga", "name": "john lattimore", "zip": "14225", "state": "ny", "street": "118 donald dr."}, {"donor_id": 102604, "city": "auburn", "name": "john lattimore", "zip": "13021", "state": "ny", "street": "98 swift st"}], [{"donor_id": 22850, "city": "rochester", "name": "bruce baker", "zip": "14618", "state": "ny", "street": "500 allens creek road"}, {"donor_id": 22851, "city": "geneva", "name": "bruce baker", "zip": "14456", "state": "ny", "street": "711 white springs drive"}], [{"donor_id": 45480, "city": "new york", "name": "david e ballowe", "zip": "10017", "state": "ny", "street": "235 east 42nd street"}, {"donor_id": 45481, "city": "blacksburg", "name": "david e ballowe", "zip": "24060", "state": "va", "street": "3001 commerce st"}], [{"donor_id": 145818, "city": "island park", "name": "matthew fichtelberg", "zip": "11558.0", "state": "ny", "street": "158 quebec road"}, {"donor_id": 146053, "city": "flushing", "name": "matthew llupoli", "zip": "11358.0", "state": "ny", "street": "167-16 northern blvd."}], [{"donor_id": 119837, "city": "new york", "name": "kenyatta r little-halstead", "zip": "10017.0", "state": "ny", "street": "235 east 42nd street"}, {"donor_id": 119838, "city": "sanford", "name": "kenyatta r little-halstead", "zip": "27330", "state": "nc", "street": "4300 oak park rd"}], [{"donor_id": 151210, "city": "kings park", "name": "michael heiser", "zip": "11754", "state": "ny", "street": "25 kim place"}, {"donor_id": 153319, "city": "cold spring", "name": "michael robinson", "zip": "10516", "state": "ny", "street": "25 high st"}], [{"donor_id": 114427, "city": "springfield", "name": "karen cox", "zip": "11413", "state": "ny", "street": "221-20 145th avenue"}, {"donor_id": 114428, "city": "churchville", "name": "karen cox", "zip": "14428", "state": "ny", "street": "7 cassandra cir"}], [{"donor_id": 86313, "city": "rocky mount", "name": "james johnson", "zip": "27801", "state": "nc", "street": "1225 north oakwood dr."}, {"donor_id": 86315, "city": "memphis", "name": "james johnson", "zip": "38119", "state": "tn", "street": "1334 brookfield rd"}], [{"donor_id": 201254, "city": "new york", "name": "stephanie lasher", "zip": "10025", "state": "ny", "street": "875 west end avenue, apt 4b"}, {"donor_id": 201305, "city": "warwick", "name": "stephanie nakielny", "zip": "02886", "state": "ri", "street": "307 greenwich avenue"}], [{"donor_id": 28526, "city": "new york", "name": "chad l schroeder", "zip": "10017", "state": "ny", "street": "235 east 42nd street"}, {"donor_id": 28528, "city": "oklahoma", "name": "chad l schroeder", "zip": "73008", "state": "ok", "street": "pfizer inc remote location"}], [{"donor_id": 167297, "city": "syracuse", "name": "paul carey", "zip": "13202", "state": "ny", "street": "333 e. onondaga street"}, {"donor_id": 169002, "city": "baldwinsville", "name": "paula carey", "zip": "13027", "state": "ny", "street": "3637 melville dr. s."}], [{"donor_id": 172397, "city": "elkton", "name": "philip reamy", "zip": "21921", "state": "md", "street": "2303 pebble beach drive"}, {"donor_id": 172398, "city": "wilmington", "name": "philip reamy", "zip": "19801", "state": "de", "street": "301 n walnut st de1-1288"}], [{"donor_id": 181592, "city": "dix hills", "name": "robert agostisi", "zip": "11746", "state": "ny", "street": "111 rydor ave."}, {"donor_id": 181594, "city": "forest hills", "name": "robert agostisi", "zip": "11375", "state": "ny", "street": "75-02 austin st"}], [{"donor_id": 184668, "city": "spring valley", "name": "robert mitchell", "zip": "10977", "state": "ny", "street": "3 eastbourne drive"}, {"donor_id": 184670, "city": "east islip", "name": "robert mitchell", "zip": "11730", "state": "ny", "street": "6 meadow farm road"}], [{"donor_id": 65368, "city": "malta", "name": "frances heitmann", "zip": "12020", "state": "ny", "street": "4007 silver beach rd"}, {"donor_id": 65477, "city": "new york", "name": "frances shulman", "zip": "10002", "state": "ny", "street": "530 d grand street, apt. 4f"}], [{"donor_id": 143042, "city": "hartford", "name": "mary boyd", "zip": "6155.0", "state": "ct", "street": "1 hartford plz"}, {"donor_id": 143044, "city": "livingston manor", "name": "mary boyd", "zip": "12758", "state": "ny", "street": "po box 1221"}], [{"donor_id": 224184, "city": "mechaanicville", "name": "william lucarelli", "zip": "12118", "state": "ny", "street": "114 vosburg rd"}, {"donor_id": 225345, "city": "bronx", "name": "william thompson", "zip": "10473", "state": "ny", "street": "2010 bruckner blvd- apt 7l"}], [{"donor_id": 125810, "city": "basking ridge", "name": "lawrence blakeman", "zip": "07920", "state": "nj", "street": "116 darren drive"}, {"donor_id": 125811, "city": "east greenwich", "name": "lawrence blakeman", "zip": "02818", "state": "ri", "street": "120 westfield dr"}], [{"donor_id": 152015, "city": "williamsville", "name": "michael madden", "zip": "14221", "state": "ny", "street": "8304 silver fox court"}, {"donor_id": 152148, "city": "syracuse", "name": "michael martinez", "zip": "13209", "state": "ny", "street": "208 lakeland ave"}], [{"donor_id": 223391, "city": "latham", "name": "william gardner", "zip": "12110", "state": "ny", "street": "27 galileo way"}, {"donor_id": 225784, "city": "wilmington", "name": "william j mahoney", "zip": "19801", "state": "de", "street": "301 n walnut st de1-0038"}], [{"donor_id": 58900, "city": "medford", "name": "elizabeth derkevics", "zip": "11763", "state": "ny", "street": "202 lake drive"}, {"donor_id": 59758, "city": "arlington", "name": "elizabeth j scott", "zip": "76010", "state": "tx", "street": "500 e border st tx1-3526"}], [{"donor_id": 153694, "city": "wappingers fall", "name": "michael simon", "zip": "12590", "state": "ny", "street": "35 gellatly dr"}, {"donor_id": 153696, "city": "west seneca", "name": "michael simon", "zip": "14224", "state": "ny", "street": "5266 seneca st"}], [{"donor_id": 181818, "city": "albany", "name": "robert becker", "zip": "12205", "state": "ny", "street": "178 sand creek rd"}, {"donor_id": 181819, "city": "colonia", "name": "robert becker", "zip": "07067", "state": "nj", "street": "80 ravine drive"}], [{"donor_id": 223907, "city": "big flats", "name": "william juan", "zip": "14814", "state": "ny", "street": "12 churchill street"}, {"donor_id": 224356, "city": "scarsdale", "name": "william mcdonald", "zip": "10583", "state": "ny", "street": "71 tunstall road"}], [{"donor_id": 141358, "city": "richmond", "name": "mark andrew vaughan", "zip": "23220", "state": "va", "street": "1211 sherwood ave"}, {"donor_id": 141359, "city": "new york", "name": "mark andrew vaughan", "zip": "10017", "state": "ny", "street": "235 east 42nd street"}], [{"donor_id": 178597, "city": "saint albans", "name": "richard gibbs", "zip": "11412", "state": "ny", "street": "19405 111th ave"}, {"donor_id": 180261, "city": "south milwaukee", "name": "richard snyder", "zip": "53172", "state": "wi", "street": "909 fairview avenue"}], [{"donor_id": 150108, "city": "albany", "name": "michael daly", "zip": "12203", "state": "ny", "street": "59 melrose ave"}, {"donor_id": 151829, "city": "chicago", "name": "michael lekas", "zip": "60606", "state": "il", "street": "420 w van buren st il1-0190"}], [{"donor_id": 224976, "city": "fishkill", "name": "william rumble", "zip": "12524", "state": "ny", "street": "232 bedford lane"}, {"donor_id": 225800, "city": "new york", "name": "william j. flynn", "zip": "10022", "state": "ny", "street": "320 park avenue 6th floor"}], [{"donor_id": 29078, "city": "webster", "name": "charles degaugh", "zip": "14580", "state": "ny", "street": "571 forest lawn drive"}, {"donor_id": 30095, "city": "riverhead", "name": "charles timpone", "zip": "11901", "state": "ny", "street": "43 corwell ave."}], [{"donor_id": 212402, "city": "troy", "name": "thomas meyer", "zip": "12180", "state": "ny", "street": "30 cranston rd."}, {"donor_id": 212528, "city": "east meadow", "name": "thomas murphy", "zip": "11554", "state": "ny", "street": "2061 stuyvesant ave"}], [{"donor_id": 150164, "city": "schenectady", "name": "michael debrino", "zip": "12304", "state": "ny", "street": "1594 state street"}, {"donor_id": 152585, "city": "new york", "name": "michael mossberg", "zip": "10017", "state": "ny", "street": "295 madison avenue 19th fl"}], [{"donor_id": 179627, "city": "kew gardens", "name": "richard nunez lawrence", "zip": "11415", "state": "ny", "street": "12510 queens blvd"}, {"donor_id": 180288, "city": "huntington", "name": "richard spitaliere", "zip": "11746", "state": "ny", "street": "3 peter court"}], [{"donor_id": 223005, "city": "lackawanna", "name": "william curtin", "zip": "14218", "state": "ny", "street": "1185 mckinley parkway"}, {"donor_id": 224106, "city": "brooklyn", "name": "william leavitt", "zip": "11215", "state": "ny", "street": "349 12th street, 4r"}], [{"donor_id": 224531, "city": "pittsford", "name": "william mulligan", "zip": "14534", "state": "ny", "street": "41 little glen rd."}, {"donor_id": 225626, "city": "new york", "name": "william yurkowski", "zip": "10001", "state": "ny", "street": "c/o ghi 441 ninth avenue"}], [{"donor_id": 173006, "city": "new york", "name": "pierina s harris", "zip": "10017", "state": "ny", "street": "235 east 42nd street"}, {"donor_id": 173007, "city": "weldon spring", "name": "pierina s harris", "zip": "63304", "state": "mo", "street": "500 technology dr"}], [{"donor_id": 156795, "city": "new york", "name": "mitchel weiss", "zip": "10038", "state": "ny", "street": "150 broadway suite 300"}, {"donor_id": 156934, "city": "bohemia", "name": "mitchell zwaik", "zip": "11716", "state": "ny", "street": "3900 veterans memorial highway"}], [{"donor_id": 125207, "city": "centennial", "name": "lauren canavan", "zip": "80111", "state": "co", "street": "6465 greenwood plaza blvd ste 150"}, {"donor_id": 125412, "city": "painview", "name": "laurence knoble", "zip": "11803", "state": "ny", "street": "90 carriage lanne"}], [{"donor_id": 186924, "city": "new york", "name": "roberto perez", "zip": "10029", "state": "ny", "street": "114 east 98th street"}, {"donor_id": 186930, "city": "howell", "name": "roberto ruiz", "zip": "07731", "state": "nj", "street": "336 sequoia court"}], [{"donor_id": 177677, "city": "victor", "name": "richard austin", "zip": "14564", "state": "ny", "street": "po box 258"}, {"donor_id": 178873, "city": "houston", "name": "richard holt", "zip": "77019", "state": "tx", "street": "1928 fairview"}], [{"donor_id": 179764, "city": "garnerville", "name": "richard pesci", "zip": "10923", "state": "ny", "street": "223 rampo rd"}, {"donor_id": 180279, "city": "rockville cent.", "name": "richard souto", "zip": "11570", "state": "ny", "street": "30 reid avenue"}], [{"donor_id": 223257, "city": "dover plains", "name": "william finnerty", "zip": "12522", "state": "ny", "street": "706 old state road rte. 22"}, {"donor_id": 224167, "city": "orland park", "name": "william logan", "zip": "60467", "state": "il", "street": "11544 waterside circle circle"}], [{"donor_id": 151289, "city": "hackettstown", "name": "michael hoffman", "zip": "07840", "state": "nj", "street": "14 shadow hill way"}, {"donor_id": 154554, "city": "pennsylvania", "name": "michael d nelson", "zip": "15001", "state": "pa", "street": "pfizer inc remote location"}], [{"donor_id": 177856, "city": "pine bush", "name": "richard botshon", "zip": "12566", "state": "ny", "street": "350 burlingham road"}, {"donor_id": 178438, "city": "brooklyn", "name": "richard field", "zip": "11231", "state": "ny", "street": "25 carroll st. #4c"}], [{"donor_id": 145034, "city": "grosse pte pk", "name": "mary jane cullen", "zip": "48230", "state": "mi", "street": "1013 three mile rd"}, {"donor_id": 145037, "city": "sayville", "name": "mary jane devito", "zip": "11782", "state": "ny", "street": "31 willow st"}], [{"donor_id": 91159, "city": "collegeville", "name": "jay hook", "zip": "19426", "state": "pa", "street": "500 arcola rd"}, {"donor_id": 214759, "city": "collegeville", "name": "timothy mc intire", "zip": "19426", "state": "pa", "street": "500 arcola rd"}], [{"donor_id": 118436, "city": "new york", "name": "kelly wines", "zip": "10017", "state": "ny", "street": "235 e 42nd st pfizer inc"}, {"donor_id": 199145, "city": "new york", "name": "shrimani jade senay", "zip": "10017", "state": "ny", "street": "235 e 42nd st pfizer inc"}], [{"donor_id": 2453, "city": "new york", "name": "alan j hemler", "zip": "10017", "state": "ny", "street": "235 east 42nd street"}, {"donor_id": 204916, "city": "new york", "name": "stowers allan", "zip": "10017", "state": "ny", "street": "235 east 42nd street"}], [{"donor_id": 113235, "city": "atlanta", "name": "julie gouveia-pisano", "zip": "30338", "state": "ga", "street": "400 perimeter walk pfizer regional mgmt"}, {"donor_id": 125166, "city": "atlanta", "name": "laurel ryley", "zip": "30338", "state": "ga", "street": "400 perimeter walk pfizer regional mgmt"}], [{"donor_id": 36578, "city": "new york", "name": "courtney baranello cruz", "zip": "10017", "state": "ny", "street": "235 e 42nd st pfizer inc"}, {"donor_id": 123003, "city": "new york", "name": "kristin manzolillo", "zip": "10017", "state": "ny", "street": "235 e 42nd st pfizer inc"}], [{"donor_id": 24904, "city": "buffalo", "name": "carl paladino", "zip": "14203", "state": "ny", "street": "295 main street suite 210"}, {"donor_id": 24911, "city": "buffalo", "name": "carl paladino", "zip": "14205", "state": "ny", "street": "po box 447"}], [{"donor_id": 152017, "city": "grand island", "name": "michael madia", "zip": "14072", "state": "ny", "street": "4233 east river road"}, {"donor_id": 205425, "city": null, "name": "summary", "zip": null, "state": null, "street": null}], [{"donor_id": 47923, "city": "greenwood villa", "name": "denise cabrera", "zip": "80111", "state": "co", "street": "6465 greenwood plaza blvd ste 150"}, {"donor_id": 177062, "city": "centennial", "name": "rene lanzanas", "zip": "80111", "state": "co", "street": "6465 greenwood plaza blvd ste 150"}], [{"donor_id": 51128, "city": "collegeville", "name": "dominick l albano", "zip": "19426", "state": "pa", "street": "500 arcola rd"}, {"donor_id": 102627, "city": "collegeville", "name": "john lawson", "zip": "19426", "state": "pa", "street": "500 arcola rd"}], [{"donor_id": 113408, "city": "new york", "name": "julie staudenmier", "zip": "10017", "state": "ny", "street": "235 east 42nd street"}, {"donor_id": 123442, "city": "new york", "name": "kurt a minne", "zip": "10017", "state": "ny", "street": "235 east 42nd street"}], [{"donor_id": 52251, "city": "new york", "name": "donald young", "zip": "10022", "state": "ny", "street": "153 east 53rd street"}, {"donor_id": 79545, "city": "new york", "name": "henry thumann", "zip": "10022", "state": "ny", "street": "153 east 53rd street"}], [{"donor_id": 68300, "city": "new york", "name": "frederick wallenmaier", "zip": "10017.0", "state": "ny", "street": "235 east 42nd street"}, {"donor_id": 211259, "city": "new york", "name": "thomas dwan", "zip": "10017", "state": "ny", "street": "235 east 42nd street"}], [{"donor_id": 10162, "city": "new york", "name": "anneka norgren", "zip": "10017", "state": "ny", "street": "235 east 42nd street"}, {"donor_id": 177554, "city": "new york", "name": "rice gordon", "zip": "10017", "state": "ny", "street": "235 east 42nd street"}], [{"donor_id": 120274, "city": "buffalo", "name": "kevin conley", "zip": "14227.0", "state": "ny", "street": "71 frantzen ter"}, {"donor_id": 120275, "city": "cheektowaga", "name": "kevin conley", "zip": "14227.0", "state": "ny", "street": "71 frantzen ter"}], [{"donor_id": 79891, "city": "south ozone par", "name": "hermann tretter", "zip": "11420", "state": "ny", "street": "130-04 122nd street"}, {"donor_id": 220372, "city": "south ozone par", "name": "wadesh rassbeharry", "zip": "11420", "state": "ny", "street": "116-11 120th street"}], [{"donor_id": 16913, "city": "new york", "name": "ben coronado", "zip": "10017.0", "state": "ny", "street": "235 east 42nd street"}, {"donor_id": 53591, "city": "new york", "name": "dorothy j strickland", "zip": "10017", "state": "ny", "street": "235 east 42nd street"}], [{"donor_id": 90589, "city": "new york", "name": "jason demuth", "zip": "10017", "state": "ny", "street": "235 east 42nd street"}, {"donor_id": 176199, "city": "new york", "name": "raymond p borzone", "zip": "10017.0", "state": "ny", "street": "235 east 42nd street"}], [{"donor_id": 128440, "city": "schaumburg", "name": "liban jeremy", "zip": "60173", "state": "il", "street": "425 north martingale road suite 900"}, {"donor_id": 169714, "city": "schaumburg", "name": "penner calvin", "zip": "60173", "state": "il", "street": "425 north martingale road suite 900"}], [{"donor_id": 12258, "city": "atlanta", "name": "antonia hernandez", "zip": "30338", "state": "ga", "street": "400 perimeter walk pfizer regional mgmt"}, {"donor_id": 102037, "city": "atlanta", "name": "john hollarn", "zip": "30338", "state": "ga", "street": "400 perimeter walk pfizer regional mgmt"}], [{"donor_id": 89035, "city": "atlanta", "name": "jamie stephens", "zip": "30338", "state": "ga", "street": "400 perimeter walk pfizer regional mgmt"}, {"donor_id": 107580, "city": "atlanta", "name": "jose salavarria", "zip": "30338", "state": "ga", "street": "400 perimeter walk pfizer regional mgmt"}]], "match": [[{"donor_id": 217330, "city": "various", "name": "unitemized", "zip": null, "state": "ny", "street": "various"}, {"donor_id": 217331, "city": null, "name": "unitemized", "zip": null, "state": "n/", "street": null}], [{"donor_id": 160965, "city": "albertson", "name": "nicholas dinapoli", "zip": "11507", "state": "ny", "street": "52 coventry ave"}, {"donor_id": 160966, "city": "albertson", "name": "nicholas dinapoli", "zip": "11507", "state": "ny", "street": "52 coventry ave."}], [{"donor_id": 91974, "city": "rancho cordova", "name": "jeanette price", "zip": "95670.0", "state": "ca", "street": "2347 bridlewood dr"}, {"donor_id": 91975, "city": "rancho cordova", "name": "jeanette price", "zip": "95670.0", "state": "ca", "street": "2347 bridlewood drive"}], [{"donor_id": 38526, "city": "white plains", "name": "dan schorr", "zip": "10605", "state": "ny", "street": "18 club pointe dr"}, {"donor_id": 38527, "city": "white plains", "name": "dan schorr", "zip": "10605", "state": "ny", "street": "18 club pointe drive"}], [{"donor_id": 132997, "city": "voorheesville", "name": "louis r. tomson", "zip": "12186", "state": "ny", "street": "58 countryman road"}, {"donor_id": 132998, "city": "voorheesville", "name": "louis r. tomson", "zip": "12186.0", "state": "ny", "street": "58 countryman road"}], [{"donor_id": 102532, "city": "staten island", "name": "john la francesca", "zip": "10314", "state": "ny", "street": "24 bradley avenue"}, {"donor_id": 102533, "city": "staten island", "name": "john la francesca", "zip": "10314", "state": "ny", "street": "24 bradley avenye"}], [{"donor_id": 83819, "city": "new york", "name": "jacob worenklein", "zip": "10024", "state": "ny", "street": "610 west end avenue"}, {"donor_id": 83823, "city": "new york", "name": "jacob worenklein", "zip": "10024", "state": "ny", "street": "610 west end avenue, suite 11a"}], [{"donor_id": 92460, "city": "new york", "name": "jeff dufour", "zip": "10017", "state": "ny", "street": "235 east 42nd street"}, {"donor_id": 92461, "city": "new york", "name": "jeff dufour", "zip": "10017.0", "state": "ny", "street": "235 east 42nd street"}], [{"donor_id": 204577, "city": "lakewood", "name": "steven vairma", "zip": "80228", "state": "co", "street": "2275 s coors ct"}, {"donor_id": 204578, "city": "lakewood", "name": "steven vairma", "zip": "80228.0", "state": "co", "street": "2275 s coors ct"}], [{"donor_id": 224757, "city": "westminster", "name": "william piper", "zip": "80020", "state": "co", "street": "6231 w 111th ave"}, {"donor_id": 224758, "city": "westminster", "name": "william piper", "zip": "80020.0", "state": "co", "street": "6231 w 111th ave"}], [{"donor_id": 226581, "city": "flushing", "name": "xiao qing xu", "zip": "11354", "state": "ny", "street": "35-26 156 st."}, {"donor_id": 226582, "city": "flushing", "name": "xiao qing xu", "zip": "11354", "state": "ny", "street": "35-26 156 street"}], [{"donor_id": 149748, "city": "newark", "name": "michael carr, jr.", "zip": "19713", "state": "de", "street": "500 stanton christiana rd de3-4640"}, {"donor_id": 149749, "city": "newark", "name": "michael carr, jr.", "zip": "19713", "state": "de", "street": "500 stanton christiana rd de3-4640, ops"}], [{"donor_id": 80955, "city": "hempstead", "name": "howard reid", "zip": "11550", "state": "ny", "street": "32 carman st"}, {"donor_id": 80956, "city": "hempstead", "name": "howard reid", "zip": "11550", "state": "ny", "street": "32 carman street"}], [{"donor_id": 34902, "city": "utica", "name": "claudia tenney", "zip": "13501", "state": "ny", "street": "12 slaytonbush lane"}, {"donor_id": 34904, "city": "utica", "name": "claudia tenney", "zip": "13501", "state": "ny", "street": "12 slaytonbush ln"}], [{"donor_id": 112280, "city": "geneseo", "name": "judith hunter", "zip": "14454", "state": "ny", "street": "39 south st."}, {"donor_id": 112281, "city": "geneseo", "name": "judith hunter", "zip": "14454", "state": "ny", "street": "39 south street"}], [{"donor_id": 103870, "city": "wynantskill", "name": "john panichi", "zip": "12198", "state": "ny", "street": "10 cole lane"}, {"donor_id": 103871, "city": "wynantskill", "name": "john panichi", "zip": "12198", "state": "ny", "street": "10 cole ln"}], [{"donor_id": 62827, "city": "howard beach", "name": "esther lustig", "zip": "11414", "state": "ny", "street": "86-29 155 ave"}, {"donor_id": 62834, "city": "howard beach", "name": "esther lustig", "zip": "11414", "state": "ny", "street": "86-29 155th avenue"}], [{"donor_id": 176883, "city": "farmington", "name": "region 9a ny uaw cap cncl", "zip": "06032", "state": "ct", "street": "111 south road"}, {"donor_id": 176885, "city": "farmington", "name": "region 9a uaw cap council", "zip": "06032", "state": "ct", "street": "111 south road"}], [{"donor_id": 81632, "city": "niagara falls", "name": "ibew lu #237", "zip": "14304", "state": "ny", "street": "lpo box 120"}, {"donor_id": 81634, "city": "niagara falls", "name": "ibew 237 members", "zip": "14304", "state": "ny", "street": "lpo box 120"}], [{"donor_id": 71366, "city": "manhasset", "name": "george liebner", "zip": "11030", "state": "ny", "street": "295 starling court"}, {"donor_id": 71367, "city": "mahasset", "name": "george liebner", "zip": "11030", "state": "ny", "street": "295 starling ct"}], [{"donor_id": 201233, "city": "maorville", "name": "stephanie joyce", "zip": "11949", "state": "ny", "street": "52 ava court"}, {"donor_id": 201234, "city": "manorville", "name": "stephanie joyce", "zip": "11949", "state": "ny", "street": "52 ava ct"}], [{"donor_id": 89050, "city": "new york", "name": "jamie j chianello", "zip": "10017", "state": "ny", "street": "235 e 42nd st"}, {"donor_id": 89051, "city": "new york", "name": "jamie j chianello", "zip": "10017", "state": "ny", "street": "235 east 42nd street"}], [{"donor_id": 39838, "city": "rochester", "name": "daniel meyers", "zip": "14620", "state": "ny", "street": "100 highland ave"}, {"donor_id": 39841, "city": "rochester", "name": "daniel meyers", "zip": "14620", "state": "ny", "street": "1100 highlands ave"}], [{"donor_id": 103167, "city": "new city", "name": "john mcelligott", "zip": "10956", "state": "ny", "street": "10 elinor place"}, {"donor_id": 103168, "city": null, "name": "john mcelligott", "zip": null, "state": "ny", "street": null}], [{"donor_id": 174793, "city": "new york", "name": "ralph williams", "zip": "10027", "state": "ny", "street": "90 la salle st apt 17h"}, {"donor_id": 174794, "city": "new york", "name": "ralph williams", "zip": "10027.0", "state": "ny", "street": "90 la salle st apt 17h"}], [{"donor_id": 172146, "city": "fergus falls", "name": "philip echelberger", "zip": "56537", "state": "mn", "street": "824 e summit"}, {"donor_id": 172147, "city": "fergus falls", "name": "philip echelberger", "zip": "56537.0", "state": "mn", "street": "824 e summit"}], [{"donor_id": 88033, "city": "staten island", "name": "james smith", "zip": "10301", "state": "ny", "street": "299 saint marks pl, apt. 501"}, {"donor_id": 88035, "city": "staten island", "name": "james smith", "zip": "10301", "state": "ny", "street": "299 st marks place 501"}], [{"donor_id": 96022, "city": "new york", "name": "jessica bader", "zip": "10016", "state": "ny", "street": "121 east 31st street"}, {"donor_id": 96023, "city": "new york", "name": "jessica bader", "zip": "10007", "state": "ny", "street": "121 east 31st street 7b"}], [{"donor_id": 129274, "city": "lodi", "name": "linda la terra", "zip": "07644", "state": "nj", "street": "103 charlton ave"}, {"donor_id": 129275, "city": "lodi", "name": "linda la terra", "zip": "7644.0", "state": "nj", "street": "103 charlton ave"}], [{"donor_id": 174594, "city": "massapequa", "name": "ralph healey", "zip": "11758", "state": "ny", "street": "32 frankel rd"}, {"donor_id": 174597, "city": null, "name": "ralph healey", "zip": null, "state": null, "street": null}], [{"donor_id": 124367, "city": null, "name": "larry smith", "zip": null, "state": null, "street": null}, {"donor_id": 124369, "city": "crestwood", "name": "larry smith", "zip": "40014", "state": "ky", "street": "5404 cross creek dr"}], [{"donor_id": 103387, "city": "orchard park", "name": "john mills", "zip": "14127", "state": "ny", "street": "80 highland avenue"}, {"donor_id": 103388, "city": null, "name": "john mills", "zip": null, "state": null, "street": null}], [{"donor_id": 86962, "city": null, "name": "james mcelheny", "zip": null, "state": null, "street": null}, {"donor_id": 86963, "city": "miller place", "name": "james mcelhone", "zip": "11764", "state": "ny", "street": "428 rt 25a"}], [{"donor_id": 144545, "city": "highland", "name": "mary ann more", "zip": "12528", "state": "ny", "street": "61 sterling drive"}, {"donor_id": 144546, "city": null, "name": "mary ann more", "zip": null, "state": null, "street": null}], [{"donor_id": 178017, "city": "holmes", "name": "richard carano", "zip": "12531", "state": "ny", "street": "345 south road"}, {"donor_id": 180229, "city": "tonawanda", "name": "richard slisz", "zip": "14150", "state": "ny", "street": null}], [{"donor_id": 214062, "city": "orchard park", "name": "tim gallagher", "zip": "14127", "state": "ny", "street": "155 chauncey ln"}, {"donor_id": 214065, "city": "orchard park", "name": "tim gallagher", "zip": "14127", "state": "ny", "street": "chauncey lane"}], [{"donor_id": 197509, "city": "manhasset", "name": "sharon pikus", "zip": "11030", "state": "ny", "street": "5 launders court"}, {"donor_id": 197510, "city": "manhasset", "name": "sharon pikus", "zip": "11030", "state": "ny", "street": "5 lavender drive"}], [{"donor_id": 91466, "city": "grand rapids", "name": "j. c. huizenga", "zip": "49506", "state": "mi", "street": "3161 manhattan lane southeast"}, {"donor_id": 91468, "city": "grand rapids", "name": "j.c. huizenga", "zip": "49506", "state": "mi", "street": "3161 manhattan lane, s.e."}], [{"donor_id": 90675, "city": "new york", "name": "jason haber", "zip": "10023", "state": "ny", "street": "155 w 70th st ph3a"}, {"donor_id": 90676, "city": "new york", "name": "jason haber", "zip": "10024", "state": "ny", "street": "155 west 70th street pha"}], [{"donor_id": 9068, "city": "queens", "name": "ann jawin", "zip": "11363", "state": "ny", "street": "39-31 233rd street"}, {"donor_id": 9071, "city": "little neck", "name": "ann jawin", "zip": "11363", "state": "ny", "street": "3931 233 street"}], [{"donor_id": 226587, "city": "woodside", "name": "xiao yun yu", "zip": "11377", "state": "ny", "street": "3357 40st"}, {"donor_id": 226588, "city": "woodside", "name": "xiao yun yu", "zip": "11377", "state": "ny", "street": "33-57 60 street"}], [{"donor_id": 143355, "city": "gouverneur", "name": "mary farley", "zip": "13642", "state": "ny", "street": "4783 state highway 58"}, {"donor_id": 143357, "city": "gouverneur", "name": "mary farley", "zip": "13642", "state": "ny", "street": "4783 st. hwy 58"}], [{"donor_id": 56785, "city": "new hyde park", "name": "edward powers", "zip": "11040", "state": "ny", "street": "p. o. box 824"}, {"donor_id": 56787, "city": "new hyde park", "name": "edward powers", "zip": "11040", "state": "ny", "street": "po box 824"}], [{"donor_id": 220423, "city": "rivervale", "name": "waldman steven", "zip": "07675", "state": "nj", "street": "579 ridge rd"}, {"donor_id": 220425, "city": "rivervale", "name": "waldman steven", "zip": "07675", "state": "nj", "street": "579 ridge road"}], [{"donor_id": 1301, "city": "troy", "name": "adriano bongiorno", "zip": "12180", "state": "ny", "street": "438 marshland court"}, {"donor_id": 1302, "city": "troy", "name": "adriano bongiorno", "zip": "12180.0", "state": "ny", "street": "438 marshland ct"}], [{"donor_id": 149961, "city": "madison", "name": "michael concannon", "zip": "06443", "state": "ct", "street": "32 manzoni farm rd."}, {"donor_id": 149962, "city": "madison", "name": "michael concannon", "zip": "6443.0", "state": "ct", "street": "32 manzoni farm rd."}], [{"donor_id": 755, "city": "new york", "name": "adam fredericks", "zip": "10003.0", "state": "ny", "street": "65 2nd av 5e"}, {"donor_id": 756, "city": "new york", "name": "adam fredericks", "zip": "10003.0", "state": "ny", "street": "65 2nd ave apt 5e"}], [{"donor_id": 195975, "city": "amherst", "name": "s. david pollack", "zip": "14228", "state": "ny", "street": "37 grandview dr"}, {"donor_id": 195976, "city": "amherst", "name": "s. david pollack", "zip": "14228", "state": "ny", "street": "37 grandview drive"}], [{"donor_id": 155038, "city": "brooklyn", "name": "michele maglione", "zip": "11232.0", "state": "ny", "street": "220 25th st 302"}, {"donor_id": 155039, "city": "brooklyn", "name": "michele maglione", "zip": "11232.0", "state": "ny", "street": "220 25th st ste 302"}], [{"donor_id": 55209, "city": "oswego", "name": "eben norfleet", "zip": "13126", "state": "ny", "street": "910 county route 25"}, {"donor_id": 55210, "city": "oswego", "name": "eben norfleet", "zip": "13126.0", "state": "ny", "street": "910 county route 25"}], [{"donor_id": 141574, "city": "bay shore", "name": "marlene johnston", "zip": "11706", "state": "ny", "street": "51 bardolier lane"}, {"donor_id": 141575, "city": "west bay shore", "name": "marlene johnston", "zip": "11706", "state": "ny", "street": "51 bardolier lane"}], [{"donor_id": 140197, "city": "new york", "name": "mark james", "zip": "10154", "state": "ny", "street": "345 park ave."}, {"donor_id": 140198, "city": "new york", "name": "mark james", "zip": "10154", "state": "ny", "street": "345 park avenue"}], [{"donor_id": 155793, "city": "keller", "name": "mike barber", "zip": "76248.0", "state": "tx", "street": "632 cherry tree dr."}, {"donor_id": 155794, "city": "keller", "name": "mike barber", "zip": "76248.0", "state": "tx", "street": "632 cherry tree drive"}], [{"donor_id": 35478, "city": "bayville", "name": "colin o'donnell", "zip": "11708", "state": "ny", "street": "98 godfrey ave."}, {"donor_id": 35479, "city": "bayville", "name": "colin o'donnell", "zip": "11709-2706", "state": "ny", "street": "98 godfrey ave."}], [{"donor_id": 154584, "city": "new york", "name": "michael f nunez", "zip": "10017", "state": "ny", "street": "235 east 42nd street"}, {"donor_id": 154585, "city": "new york", "name": "michael f nunez", "zip": "10017.0", "state": "ny", "street": "235 east 42nd street"}], [{"donor_id": 117110, "city": "new york", "name": "kathryn hd simmons", "zip": "10017", "state": "ny", "street": "235 east 42nd street"}, {"donor_id": 117111, "city": "new york", "name": "kathryn hd simmons", "zip": "10017.0", "state": "ny", "street": "235 east 42nd street"}]]}