{"distinct": [[{"donor_id": 137475, "city": "long island city", "name": "iahfiaw local union no 12", "zip": "11106", "state": "ny", "street": "35-53 24 street"}, {"donor_id": 154699, "city": null, "name": "x-mas party, 12/14/09", "zip": null, "state": null, "street": null}], [{"donor_id": 124486, "city": null, "name": "cardinale", "zip": null, "state": null, "street": null}, {"donor_id": 129393, "city": "flushing", "name": "citibank", "zip": "11354", "state": "ny", "street": "25-47 parsons boulevard"}], [{"donor_id": 143224, "city": "albany", "name": "nyspia political committee", "zip": "12210", "state": "ny", "street": "96 south swan street"}, {"donor_id": 144989, "city": "albany", "name": " new york state afl-cio cope account", "zip": "12210", "state": "ny", "street": "100 south swan street"}], [{"donor_id": 125410, "city": "new york", "name": "afscme local 1113", "zip": "10007", "state": "ny", "street": "125 barclay street"}, {"donor_id": 125442, "city": "new york", "name": "afscme local 768", "zip": "10007", "state": "ny", "street": "125 barclay street"}], [{"donor_id": 145551, "city": "latham", "name": "nysut", "zip": "12110.0", "state": "ny", "street": "800 troy schenectady road"}, {"donor_id": 145552, "city": "latham", "name": "nysut", "zip": "12110", "state": "ny", "street": "800 troy-schenectady road"}], [{"donor_id": 140719, "city": "new york", "name": "local 32bj", "zip": null, "state": "ny", "street": null}, {"donor_id": 140832, "city": "new york", "name": "local 6", "zip": "10036", "state": "ny", "street": "709 8th avenue"}], [{"donor_id": 127993, "city": "binghamton", "name": "broome county board of realtors, inc", "zip": "13905.0", "state": "ny", "street": "317 main street"}, {"donor_id": 144339, "city": "binghamton", "name": "nlx corp", "zip": "13905.0", "state": "ny", "street": "31 lewis road"}], [{"donor_id": 128975, "city": "new york", "name": "ceco international corparation", "zip": "10011", "state": "ny", "street": "440 w 15th street"}, {"donor_id": 130777, "city": "new york", "name": "council of school supervisors and administrators", "zip": "10006", "state": "ny", "street": "fl 12, 40 rector street"}], [{"donor_id": 129410, "city": "new york", "name": "citibank", "zip": "10018", "state": "ny", "street": "po box 5870 grand central station"}, {"donor_id": 129411, "city": "san antonio", "name": "citibank", "zip": "78245", "state": "tx", "street": "po box 769013"}], [{"donor_id": 143947, "city": "albany", "name": "new york state association of convenience stores", "zip": "12210", "state": "ny", "street": "130 washington avenue"}, {"donor_id": 152309, "city": "albany", "name": "tow pac", "zip": "12210", "state": "ny", "street": "130 washington avenue"}], [{"donor_id": 127272, "city": null, "name": "bethpage federal credit union", "zip": null, "state": null, "street": null}, {"donor_id": 147924, "city": "sodus", "name": "reliant federal credit union", "zip": "14551", "state": "ny", "street": "10 benton place post office box 40"}], [{"donor_id": 139830, "city": "new york", "name": "lang, kevin", "zip": "10166", "state": "ny", "street": "200 park avenue"}, {"donor_id": 143573, "city": "new york", "name": "neimeth, clifford", "zip": "10166", "state": "ny", "street": "200 park avenue"}], [{"donor_id": 143115, "city": "new york", "name": "murphy, michael j", "zip": "10166", "state": "ny", "street": "200 park avenue"}, {"donor_id": 147569, "city": "new york", "name": "rabkin, samuel", "zip": "10166", "state": "ny", "street": "200 park avenue"}], [{"donor_id": 140785, "city": "new york", "name": "local 372", "zip": "10007", "state": "ny", "street": "125 barclay street, 6th floor"}, {"donor_id": 140875, "city": null, "name": "local 807", "zip": null, "state": null, "street": null}], [{"donor_id": 144016, "city": "albany", "name": "new york state laborers pac-state fund", "zip": "12211", "state": "ny", "street": "18 corporate woods boulevard"}, {"donor_id": 144995, "city": "albany", "name": " new york state air pac", "zip": "12210", "state": "ny", "street": "194 washington"}], [{"donor_id": 130079, "city": "lake success", "name": "committee for medical eye care", "zip": "11042", "state": "ny", "street": "420 lakeville road"}, {"donor_id": 142138, "city": "lake success", "name": "medical soc of the state of new york  pac", "zip": "11042", "state": "ny", "street": "420 lakeville road"}], [{"donor_id": 144573, "city": "staten island", "name": "ntsi", "zip": "10304.0", "state": "ny", "street": "190 rhine avenue"}, {"donor_id": 148877, "city": "staten island", "name": "si all tire co & wholesale dist inc", "zip": "10304", "state": "ny", "street": "190 rhine avenue"}], [{"donor_id": 139650, "city": null, "name": "laborers local #754", "zip": null, "state": null, "street": null}, {"donor_id": 139670, "city": "niagara falls", "name": "laborers local 91", "zip": "14305", "state": "ny", "street": "2556 seneca street"}], [{"donor_id": 136363, "city": "jackson heights", "name": "h & m, llc", "zip": "11372", "state": "ny", "street": "37-51 76th street"}, {"donor_id": 136374, "city": "long island cit", "name": "h&l electric, inc", "zip": "11101", "state": "ny", "street": "41-11 28th street"}], [{"donor_id": 144040, "city": "latham", "name": "new york state nurses assn", "zip": "12110", "state": "ny", "street": "11 cornell road"}, {"donor_id": 144995, "city": "albany", "name": " new york state air pac", "zip": "12210", "state": "ny", "street": "194 washington"}], [{"donor_id": 127007, "city": "albany", "name": "bbl pac", "zip": "12202", "state": "ny", "street": "po  box 12789"}, {"donor_id": 145083, "city": "albany", "name": " new york state beer wholesalers assn pac", "zip": "12210", "state": "ny", "street": "119 washington ave, suite 3c"}], [{"donor_id": 143873, "city": "flushing", "name": "new york metro peterbilt inc", "zip": "11354", "state": "ny", "street": "31-55 college point boulevard"}, {"donor_id": 144999, "city": "albany", "name": " new york state alf-cio cope account", "zip": "12210", "state": "ny", "street": "100 south swan street"}], [{"donor_id": 127434, "city": "waverly", "name": "blauvelt funeral home", "zip": "14892", "state": "ny", "street": "445 waverly street"}, {"donor_id": 134489, "city": "amherst", "name": "friends of dr barry weinstein", "zip": "14226", "state": "ny", "street": "2495 kensington avenue"}], [{"donor_id": 136601, "city": "harrison", "name": "harrison republican town committee", "zip": "10528", "state": "ny", "street": "91 sterling avenue"}, {"donor_id": 136591, "city": "pittsford", "name": "harris beach political committee - state", "zip": "14534", "state": "ny", "street": "99 garnsey road"}], [{"donor_id": 141261, "city": "buffalo", "name": "m & t bank", "zip": "14220", "state": "ny", "street": "one fountain plaza"}, {"donor_id": 141317, "city": "east amherst", "name": "m&t bank", "zip": "14051", "state": "ny", "street": "transit at casey"}], [{"donor_id": 133663, "city": "new york", "name": "fink governmental consulting", "zip": "10022.0", "state": "ny", "street": "150 east 52nd street, 30 floor"}, {"donor_id": 137603, "city": "new york", "name": "ibt local 237", "zip": "10011", "state": "ny", "street": "216 west 14th street"}], [{"donor_id": 140054, "city": "new york", "name": "law offices of paul a chin, pc", "zip": "10279", "state": "ny", "street": "233 broadway"}, {"donor_id": 146256, "city": "new york", "name": "pasternack tilker ziegler walsh stanton & romano", "zip": "10279", "state": "ny", "street": "233 broadway, suite 820"}], [{"donor_id": 135350, "city": "buffalo", "name": "gabe's collision", "zip": "14225", "state": "ny", "street": "3700 genesee street"}, {"donor_id": 144086, "city": "buffalo", "name": "new york state uaw pac council region 9 uaw", "zip": "14225", "state": "ny", "street": "4285 genesee street"}], [{"donor_id": 142317, "city": "boston", "name": "merrill lynch", "zip": "02266", "state": "ma", "street": "po box 8118"}, {"donor_id": 150401, "city": "boston", "name": "state street research shareholder services", "zip": "02266", "state": "ma", "street": "po box 8408"}], [{"donor_id": 133846, "city": "newburgh", "name": "fleet bank", "zip": "12550", "state": "ny", "street": "broadway"}, {"donor_id": 133834, "city": "new york", "name": "fleet bank", "zip": null, "state": "ny", "street": "100 church street"}], [{"donor_id": 126805, "city": "ny", "name": "bank of america", "zip": "10036", "state": "ny", "street": "one bryant park"}, {"donor_id": 126812, "city": "goshen", "name": "bank of america", "zip": "1924", "state": "ny", "street": "west main street"}], [{"donor_id": 147011, "city": "albany", "name": "plummer & associates, llc", "zip": "12205", "state": "ny", "street": "11 washington avenue"}, {"donor_id": 145310, "city": "albany", "name": " new york state professional firefighters", "zip": "12210", "state": "ny", "street": "111 washington avenue"}], [{"donor_id": 129457, "city": "albany", "name": "citizens bank", "zip": "12210", "state": "ny", "street": "111 washington"}, {"donor_id": 129460, "city": "troy", "name": "citizens bank", "zip": "12180", "state": "ny", "street": "1818 5th avenue"}], [{"donor_id": 133755, "city": "buffalo", "name": "first niagara bank", "zip": "14214", "state": "ny", "street": "2421 main street"}, {"donor_id": 133760, "city": "hudson", "name": "first niagara bank", "zip": "12534", "state": "ny", "street": "po box 76"}], [{"donor_id": 144407, "city": "new york", "name": "north fork bank", "zip": "10019", "state": "ny", "street": "1745 broadway"}, {"donor_id": 144414, "city": "jamesport", "name": "north fork bank", "zip": "11947", "state": "ny", "street": "main road"}], [{"donor_id": 143961, "city": "albany", "name": "new york state broadcasters", "zip": "12210", "state": "ny", "street": "111 washington avenue"}, {"donor_id": 145091, "city": "albany", "name": " new york state beer wholesalers assoc inc pac", "zip": "12210", "state": "ny", "street": "111 washington avenue"}], [{"donor_id": 131188, "city": "new york", "name": "cwa local 1190", "zip": "10013", "state": "ny", "street": "6 harrison street 4th flr"}, {"donor_id": 131160, "city": "new york", "name": "cwa local 1101", "zip": "10001", "state": "ny", "street": "275 7th avenue"}], [{"donor_id": 152930, "city": "new york", "name": "uniformed fire officers association local 854", "zip": "10007", "state": "ny", "street": "225 broadway"}, {"donor_id": 152961, "city": "new york", "name": "uniformed firefighters association  fire pac-state", "zip": "10010", "state": "ny", "street": "204 e 23rd street"}], [{"donor_id": 143207, "city": "loudonville", "name": "ny state laborers pac", "zip": "12211.0", "state": "ny", "street": "18 corporate woods boulevard"}, {"donor_id": 145212, "city": "albany", "name": " new york state laborers local 1298", "zip": "12211", "state": "ny", "street": "18 corporate woods boulevard"}], [{"donor_id": 152862, "city": "kingston", "name": "ulster savings bank", "zip": "12401", "state": "ny", "street": "280 wallst"}, {"donor_id": 152865, "city": "saugerties", "name": "ulster savings bank", "zip": "12477", "state": "ny", "street": "one twin maples plaza"}], [{"donor_id": 129397, "city": "east meadow", "name": "citibank", "zip": "11554", "state": "ny", "street": "670 merrick avenue"}, {"donor_id": 129398, "city": "commack", "name": "citibank", "zip": "11725", "state": "ny", "street": "710 larkfield road"}], [{"donor_id": 145200, "city": "albany", "name": " new york state independent bankers pac", "zip": "12207", "state": "ny", "street": "125 state street 2nd floor"}, {"donor_id": 144989, "city": "albany", "name": " new york state afl-cio cope account", "zip": "12210", "state": "ny", "street": "100 south swan street"}], [{"donor_id": 139416, "city": "new york", "name": "koenig, michael l", "zip": "10166", "state": "ny", "street": "200 park avenue"}, {"donor_id": 148898, "city": "new york", "name": "sabapac", "zip": "10166", "state": "ny", "street": "200 park avenue"}], [{"donor_id": 147523, "city": "albany", "name": "r pac of new york state", "zip": "12210", "state": "ny", "street": "130 washington avenue"}, {"donor_id": 145112, "city": "albany", "name": " new york state builders assoc new york  build pac", "zip": "12210", "state": "ny", "street": "1 commerce plaza"}], [{"donor_id": 151297, "city": "port jervis", "name": "td bank", "zip": "12771", "state": "ny", "street": "205 e main street"}, {"donor_id": 151294, "city": "new york", "name": "td bank", "zip": "10075", "state": "ny", "street": "1470 2nd avenue"}], [{"donor_id": 145012, "city": "albany", "name": " new york state assn of pbas pac", "zip": "12210", "state": "ny", "street": "111 washington avenue, rm 406"}, {"donor_id": 143426, "city": "albany", "name": "national grid voluntary new york state pac", "zip": "12210", "state": "ny", "street": "111 washington avenue"}], [{"donor_id": 143996, "city": "albany", "name": "new york state hospitality tourism assoc pac", "zip": "12205", "state": "ny", "street": "80 wolf road"}, {"donor_id": 145296, "city": "albany", "name": " new york state police investigators asso pac", "zip": "12210", "state": "ny", "street": "96 south swan street"}], [{"donor_id": 125397, "city": "washington", "name": "afscme", "zip": "20006", "state": "dc", "street": "1825 k street, nw"}, {"donor_id": 125808, "city": "washington", "name": "amalgamated bank", "zip": "20006", "state": "dc", "street": "1825 k street, nw"}], [{"donor_id": 131003, "city": "albany", "name": "cse political action fund", "zip": "12210", "state": "ny", "street": "143 washington avenue"}, {"donor_id": 148665, "city": "albany", "name": "rpac of new york state", "zip": "12210", "state": "ny", "street": "130 washington avenue"}], [{"donor_id": 140723, "city": "new york", "name": "local 32bj new york /nj am dream fund", "zip": "10013", "state": "ny", "street": "101 avenue of the americas"}, {"donor_id": 140088, "city": "new york", "name": "law pac of new york", "zip": "10038", "state": "ny", "street": "132 nassau street"}], [{"donor_id": 129413, "city": "san antonio", "name": "citibank", "zip": "78245", "state": "tx", "street": "po box 769018"}, {"donor_id": 129409, "city": "new york", "name": "citibank", "zip": "10163", "state": "ny", "street": "po box 5870 grand central street"}], [{"donor_id": 138115, "city": "glenmont", "name": "iuoe local 158 state & local", "zip": "12077", "state": "ny", "street": "44 hannay la"}, {"donor_id": 138126, "city": "lakeview", "name": "iuoe local 17s", "zip": "14085", "state": "ny", "street": "5959 versailles road"}], [{"donor_id": 139808, "city": "albany", "name": "land surveyors pac", "zip": "12210", "state": "ny", "street": "130 washington avenue"}, {"donor_id": 144745, "city": "albany", "name": "ny insurance association pac", "zip": "12210", "state": "ny", "street": "130 washington avenue"}], [{"donor_id": 125864, "city": "albany", "name": "american asphalt distributors", "zip": "12202", "state": "ny", "street": "200 church street"}, {"donor_id": 142775, "city": "albany", "name": "mohawk asphalt emulsions", "zip": "12202", "state": "ny", "street": "200 church street"}], [{"donor_id": 128071, "city": "manhasset", "name": "bruin equities llc", "zip": "11030", "state": "ny", "street": "42 bayview avenue"}, {"donor_id": 148742, "city": "manhasset", "name": "rucon properties, llc", "zip": "11030", "state": "ny", "street": "42 bayview avenue"}], [{"donor_id": 144873, "city": "new york", "name": " new york city  chapter nasw pac", "zip": "10004", "state": "ny", "street": "50 broadway"}, {"donor_id": 145365, "city": "new york", "name": " new york state supreme court officers", "zip": "10007", "state": "ny", "street": "299 broadway"}], [{"donor_id": 127496, "city": "albany", "name": "bmw pac", "zip": "12210", "state": "ny", "street": "79 columbia street"}, {"donor_id": 147882, "city": "albany", "name": "reid mcnally & savage pac", "zip": "12210", "state": "ny", "street": "99 washington avenue suite 402"}], [{"donor_id": 127010, "city": "albany", "name": "bbl pac", "zip": "12212", "state": "ny", "street": "po box 12789`"}, {"donor_id": 153767, "city": "albany", "name": "vote/cope of new york state  united teachers", "zip": "12212", "state": "ny", "street": "159 wolf road, box 15008"}], [{"donor_id": 145330, "city": "albany", "name": " new york state restaurant ass'n", "zip": "12205", "state": "ny", "street": "409 new karner road"}, {"donor_id": 145310, "city": "albany", "name": " new york state professional firefighters", "zip": "12210", "state": "ny", "street": "111 washington avenue"}], [{"donor_id": 140098, "city": "new york", "name": "law pac of new york ", "zip": "10038", "state": "ny", "street": "132 napsaw street"}, {"donor_id": 152916, "city": "new york", "name": "uniformed fire officers assoc of  new york city  local 854", "zip": "10007", "state": "ny", "street": "225 broadway"}], [{"donor_id": 124755, "city": "buffalo", "name": "2468 group, inc", "zip": "14203", "state": "ny", "street": "295 main street"}, {"donor_id": 124952, "city": "buffalo", "name": "8246 group, inc", "zip": "14203", "state": "ny", "street": "295 main street, suite 210"}], [{"donor_id": 129501, "city": "oyster bay", "name": "citizens for galasso", "zip": "11771", "state": "ny", "street": "po box 276"}, {"donor_id": 129534, "city": "oyster bay", "name": "citizens for mackenzie", "zip": "11771", "state": "ny", "street": "po box 276"}], [{"donor_id": 132975, "city": "hauppauge", "name": "empire state regional council of carpenters", "zip": "11788", "state": "ny", "street": "270 motor parkway"}, {"donor_id": 132991, "city": "hauppauge", "name": "empire state supervisors & administrators assn", "zip": "11788", "state": "ny", "street": "490 wheeler road, suite 280"}], [{"donor_id": 144033, "city": "albany", "name": "new york state laborers' pac-state fund", "zip": "12211", "state": "ny", "street": "18 corporate woods park"}, {"donor_id": 143858, "city": "albany", "name": "new york insurance association pac", "zip": "12210", "state": "ny", "street": "130 washington avenue"}], [{"donor_id": 133739, "city": "albany", "name": "first niagara", "zip": "12207", "state": "ny", "street": "120 state street"}, {"donor_id": 133745, "city": "hudson", "name": "first niagara", "zip": "12534", "state": "ny", "street": "po box 76"}], [{"donor_id": 140783, "city": "new york", "name": "local 371 afscme afl/cio", "zip": "10036", "state": "ny", "street": "1501 broadway"}, {"donor_id": 140742, "city": "new york", "name": "local 32bj seiu new york /nj american dream fund", "zip": "10013", "state": "ny", "street": "101 avenue of the americas"}], [{"donor_id": 145263, "city": "latham", "name": " new york state nurses association", "zip": "12110", "state": "ny", "street": "11 cornell road"}, {"donor_id": 143816, "city": "latham", "name": "new york construction materials pac inc", "zip": "12110", "state": "ny", "street": "6 century hill drive"}], [{"donor_id": 144936, "city": "albany", "name": " new york city amp", "zip": "12207", "state": "ny", "street": "80 state st, 11th flr"}, {"donor_id": 144067, "city": "albany", "name": "new york state restaurant association", "zip": "12205", "state": "ny", "street": "409 new karner road"}], [{"donor_id": 126472, "city": "new york", "name": "at & t pac of new york ", "zip": "10013", "state": "1", "street": "32 avenue of the americas"}, {"donor_id": 140462, "city": "new york", "name": "life insurance council of new york ", "zip": "10176", "state": "1", "street": "551 fith avenue"}], [{"donor_id": 135815, "city": "new hyde park", "name": "glenwood management corp", "zip": "11040", "state": "ny", "street": "1200 union turnpike"}, {"donor_id": 124961, "city": "new hyde park", "name": "92nd realty llc", "zip": "11040", "state": "ny", "street": "1200 union turnpike"}], [{"donor_id": 130333, "city": "washington", "name": "communications workers of america", "zip": "20001", "state": "dc", "street": "501 3rd street nw"}, {"donor_id": 137519, "city": "washington", "name": "ibew educational committee", "zip": "20005", "state": "dc", "street": "1125 15th street nw"}], [{"donor_id": 149658, "city": "washington", "name": "sheet metal workers' int'l assoc political educat", "zip": "20006", "state": "dc", "street": "1750 new york avenue, nw"}, {"donor_id": 153016, "city": "washington", "name": "union of painters & allied trades", "zip": "20006", "state": "dc", "street": "1750 new york avenue, nw"}], [{"donor_id": 127230, "city": "albany", "name": "bernardo-goldstein quinn inc", "zip": "12207", "state": "ny", "street": "100 state street"}, {"donor_id": 144928, "city": "albany", "name": " new york city amp", "zip": "12207.0", "state": "ny", "street": "100 state street"}], [{"donor_id": 151295, "city": "cherry hill", "name": "td bank", "zip": "08034", "state": "nj", "street": "1701 route 70 east"}, {"donor_id": 151298, "city": "port jervis", "name": "td bank", "zip": "12771", "state": "ny", "street": "205 e  main street"}], [{"donor_id": 144890, "city": "new york", "name": " new york city  district council of carpenters", "zip": "10014.0", "state": "ny", "street": "395 hudson street, 9th floor"}, {"donor_id": 128952, "city": "new york", "name": "cba new york state administrative fund", "zip": "10166.0", "state": "ny", "street": "200 park avenue suite 4511"}], [{"donor_id": 140715, "city": "new york", "name": "local 32 bj new york /nj", "zip": "10013", "state": "ny", "street": "101 avenue of the americas"}, {"donor_id": 145177, "city": "new york", "name": " new york state democratic committee", "zip": "10170", "state": "ny", "street": "420 lexington avenue suite 845"}], [{"donor_id": 138017, "city": "buffalo", "name": "is of buffalo lp", "zip": "14203", "state": "ny", "street": "391 washington street streete 800"}, {"donor_id": 153616, "city": "buffalo", "name": "vincent morello senior housing", "zip": "14203", "state": "ny", "street": "391 washington street"}], [{"donor_id": 132987, "city": "albany", "name": "empire state subcontractors association, inc", "zip": "12205", "state": "ny", "street": "6 airline drive"}, {"donor_id": 151244, "city": "albany", "name": "tap-pac association of proprietary colleges", "zip": "12205", "state": "ny", "street": "1259 central avenue"}], [{"donor_id": 125426, "city": "new york", "name": "afscme local 1930", "zip": "10007", "state": "ny", "street": "125 barclay street"}, {"donor_id": 138163, "city": "new york", "name": "iupat local 1974 tapers", "zip": "10011", "state": "ny", "street": "265 west 14th street"}], [{"donor_id": 124749, "city": "new york", "name": "24 west meat & produce corp", "zip": "10037", "state": "ny", "street": "24 west 135th street"}, {"donor_id": 137262, "city": "new york", "name": "hudson manor terrace corp", "zip": "1001", "state": "ny", "street": "228 e 45th street"}], [{"donor_id": 143818, "city": "albany", "name": "new york correctional officers & pba inc", "zip": "12209", "state": "ny", "street": "102 hackett boulevard"}, {"donor_id": 145383, "city": "albany", "name": " new york state transit & tour operators pac", "zip": "12212.0", "state": "ny", "street": "111 washington avenue (s104)"}], [{"donor_id": 151794, "city": "new york", "name": "the life insurance council of new york ", "zip": "10176", "state": "ny", "street": "551 5th avenue"}, {"donor_id": 152204, "city": "new york", "name": "together new york  pac", "zip": "10005", "state": "ny", "street": "40 exchange place"}], [{"donor_id": 126806, "city": "hartford", "name": "bank of america", "zip": "06115", "state": "ct", "street": "po box 1550451"}, {"donor_id": 126803, "city": "new york", "name": "bank of america", "zip": "10036", "state": "ny", "street": "lbby c2, 114 w 47th street"}], [{"donor_id": 128399, "city": "albany", "name": "cable pac", "zip": "12207", "state": "ny", "street": "80 state st, fl 10"}, {"donor_id": 128584, "city": "albany", "name": "cannon heyman & weiss", "zip": "12207", "state": "ny", "street": "54 state street"}], [{"donor_id": 125520, "city": "garden city", "name": "alan b hodish llc", "zip": "11530", "state": "ny", "street": "666 old country road"}, {"donor_id": 147026, "city": "garden city", "name": "pnc mortgage", "zip": "11530.0", "state": "ny", "street": "666 old country road"}], [{"donor_id": 137972, "city": "new york", "name": "iron workers local 46", "zip": "10021", "state": "ny", "street": "1322 third avenue"}, {"donor_id": 149632, "city": "rochester", "name": "sheet metal workers local 46", "zip": "14624", "state": "ny", "street": "244 paul road"}], [{"donor_id": 131965, "city": "albany", "name": "diverse new york pac", "zip": "12224", "state": "ny", "street": "pobox 7194"}, {"donor_id": 143938, "city": "albany", "name": "new york state afl-cio cope account", "zip": "12210", "state": "ny", "street": "100 south swan street"}], [{"donor_id": 125397, "city": "washington", "name": "afscme", "zip": "20006", "state": "dc", "street": "1825 k street, nw"}, {"donor_id": 125398, "city": "cheektowaga", "name": "afscme", "zip": "14227", "state": "ny", "street": "35 tyrol"}], [{"donor_id": 126787, "city": "westbury", "name": "bank of america", "zip": "11590.0", "state": "ny", "street": "248 post avenue"}, {"donor_id": 126807, "city": "wichita", "name": "bank of america", "zip": "67201", "state": "ks", "street": "po box 2948"}], [{"donor_id": 126407, "city": "albany", "name": "associated general contractors of new york state  pac", "zip": "12205", "state": "ny", "street": "10 airline drive"}, {"donor_id": 145306, "city": "albany", "name": " new york state professional fire fighters", "zip": "12210", "state": "ny", "street": "174 washington avenue"}], [{"donor_id": 137649, "city": "buffalo", "name": "impacto consulting associates, llc", "zip": "14202", "state": "ny", "street": "560 delaware avenue suite 300"}, {"donor_id": 137743, "city": "buffalo", "name": "independent taxi association", "zip": "14225", "state": "ny", "street": "buffalo niagara int'l airport"}], [{"donor_id": 140468, "city": "new york", "name": "life insurance council of new york  pac", "zip": "10176", "state": "ny", "street": "551 5th avenue"}, {"donor_id": 143974, "city": "new york", "name": "new york state court officers association", "zip": "10007", "state": "ny", "street": "ste 600, 321 broadway"}], [{"donor_id": 129454, "city": "albany", "name": "citizen action of new york", "zip": "12206", "state": "ny", "street": "94 central avenue"}, {"donor_id": 145141, "city": "albany", "name": " new york state copba, inc", "zip": null, "state": "ny", "street": "194 washington avenue"}], [{"donor_id": 143845, "city": "new york", "name": "new york healthcare alliance, llc", "zip": "10006", "state": "ny", "street": "39 broadway"}, {"donor_id": 140459, "city": "new york", "name": "life ins council of new york  pac", "zip": "10176", "state": "ny", "street": "561 5th avenue"}], [{"donor_id": 124880, "city": "niagara falls", "name": "4th generation construction inc", "zip": "14304", "state": "ny", "street": "5650 simmons"}, {"donor_id": 124881, "city": "los angeles", "name": "4th mvmt inc", "zip": "90016.0", "state": "ca", "street": "5877 obama boulevard"}], [{"donor_id": 133408, "city": "albany", "name": "family plan advocates new york state  inc segregated fund", "zip": "12207", "state": "ny", "street": "17 elk street"}, {"donor_id": 137200, "city": "albany", "name": "hsbc", "zip": "12207", "state": "ny", "street": "30 south pearl street"}], [{"donor_id": 128700, "city": "new york", "name": "carbon", "zip": "10014", "state": "ny", "street": "180 varick street"}, {"donor_id": 151499, "city": "new york", "name": "the ass'n, of surrogates & sup ct reporters  new york city ", "zip": "10007", "state": "ny", "street": "60 centre street, #420"}], [{"donor_id": 127594, "city": "albany", "name": "bond schoeneck & king, llp", "zip": "12210", "state": "ny", "street": "111 washington avenue"}, {"donor_id": 145315, "city": "albany", "name": " new york state professional firefighters civil involvement", "zip": "12210", "state": "ny", "street": "111 washington avenue suite 207"}], [{"donor_id": 130354, "city": "new york", "name": "community development direct, inc", "zip": "10021", "state": "ny", "street": "333 east 66th street, apt 3l"}, {"donor_id": 131178, "city": "new york", "name": "cwa local 1180", "zip": "10013", "state": "ny", "street": "6 harrison st, 4th fl"}], [{"donor_id": 135914, "city": "huntington", "name": "goldstein,rubinton,goldstein & defazio, pc", "zip": "11743.0", "state": "ny", "street": "18 west carver street"}, {"donor_id": 137105, "city": "huntington", "name": "honu", "zip": "11743", "state": "ny", "street": "363 new york avenue"}], [{"donor_id": 147018, "city": "albany", "name": "plummer & wigger, llc", "zip": "12210", "state": "ny", "street": "111 washington avenue, suite 602"}, {"donor_id": 145301, "city": "albany", "name": " new york state professional fire fighters", "zip": "12210", "state": "ny", "street": "111 washington avenue"}], [{"donor_id": 135473, "city": "new york", "name": "gciu local 119b-43b", "zip": "10003", "state": "ny", "street": "27 union square west"}, {"donor_id": 127824, "city": "lic", "name": "bricklayers & allied craftsworkers local 1 pac", "zip": "11101", "state": "ny", "street": "4 court street"}], [{"donor_id": 145531, "city": "albany", "name": "nyspia political committee", "zip": "12207", "state": "ny", "street": "11 north pearl street- suite 202"}, {"donor_id": 133410, "city": "albany", "name": "family plan advocates segregated sund", "zip": "12207", "state": "ny", "street": "17 elk street"}], [{"donor_id": 142888, "city": "albany", "name": "monument pac", "zip": "12207", "state": "ny", "street": "c/o ostroff,hiffa, etc, 12 sheridan avenue"}, {"donor_id": 135514, "city": "albany", "name": "general building contractors of new york state pac", "zip": "12205", "state": "ny", "street": "6 airline drive"}], [{"donor_id": 128700, "city": "new york", "name": "carbon", "zip": "10014", "state": "ny", "street": "180 varick street"}, {"donor_id": 149270, "city": "new york", "name": "schreck and company", "zip": "10001", "state": "ny", "street": "212 w 35th street, 13th floor"}], [{"donor_id": 140898, "city": "plainview", "name": "local 858", "zip": "11803", "state": "ny", "street": "1670 old country road suite 220"}, {"donor_id": 150976, "city": "plainview", "name": "superior officers asso public education corp", "zip": "11803", "state": "ny", "street": "777 ocr suite 201"}], [{"donor_id": 150562, "city": "patchogue", "name": "stevens 112", "zip": "11772", "state": "ny", "street": "507 route 112"}, {"donor_id": 138092, "city": "farmingdale", "name": "iuoe 138", "zip": "11735", "state": "ny", "street": "po box 206 gazza boulevard"}], [{"donor_id": 127849, "city": "albany", "name": "bricklayers & allied craftwrokers", "zip": "12203", "state": "ny", "street": "302 centre drive"}, {"donor_id": 153729, "city": "albany", "name": "vote pac", "zip": null, "state": "ny", "street": null}], [{"donor_id": 138882, "city": "white plains", "name": "jp morgan chase bank", "zip": "10603", "state": "ny", "street": "566 north broadway"}, {"donor_id": 148690, "city": "white plains", "name": "rpw group, inc", "zip": "10605", "state": "ny", "street": "po box 349"}], [{"donor_id": 126221, "city": "new york", "name": "arcadis new york pac", "zip": "10017", "state": "ny", "street": "655 3rd avenue"}, {"donor_id": 137593, "city": "new york", "name": "ibt joint council no 16 pac", "zip": "10011", "state": "ny", "street": "265 w 14th st, suite 1201"}], [{"donor_id": 137598, "city": "new york", "name": "ibt joint council no 16 pac", "zip": "10011", "state": "ny", "street": "265 west 14th street 1201"}, {"donor_id": 152974, "city": "new york", "name": "uniformed sanitation men's association-local 831", "zip": "10038", "state": "ny", "street": "25 cliff street"}], [{"donor_id": 144850, "city": "albany", "name": "nyahsa pac", "zip": "12207", "state": "ny", "street": "150 streetate street"}, {"donor_id": 146705, "city": "albany", "name": "pharmacy pac of new york state ", "zip": "12203-5387", "state": "ny", "street": "210 washington avenue extension suite 101"}], [{"donor_id": 145201, "city": "albany", "name": " new york state independenyt bankers pac", "zip": "12207", "state": "ny", "street": "125 state street"}, {"donor_id": 144973, "city": "alabany", "name": " new york state afl-cio", "zip": "12210", "state": "ny", "street": "100 south swan street"}]], "match": [[{"donor_id": 148675, "city": "albany", "name": "rpac of new york state", "zip": "12210", "state": "n.", "street": "130 wasington avenue"}, {"donor_id": 148682, "city": "albany", "name": "rpac of new york state ", "zip": "12210", "state": "ny", "street": "130 washington avenue"}], [{"donor_id": 142166, "city": "westbury", "name": "medical society of the state of new york - pac", "zip": "11590", "state": "ny", "street": "865 merrick avenue"}, {"donor_id": 142170, "city": "westbury", "name": "medical society of the state of new york pac", "zip": "11590", "state": "ny", "street": "865 merrick avenue"}], [{"donor_id": 144009, "city": "albany", "name": "new york state laborers pac", "zip": "12211", "state": "ny", "street": "18 corporate woods boulevard"}, {"donor_id": 143999, "city": "albany", "name": "new york state laborers", "zip": "12211", "state": "ny", "street": "18 corporate woods boulevard"}], [{"donor_id": 124603, "city": "new york", "name": "1199 seiu - new york state  pac", "zip": "10108", "state": "ny", "street": "po box 2612"}, {"donor_id": 124607, "city": "new york", "name": "1199 seiu - new york state  political action fund", "zip": "10108", "state": "ny", "street": "po box 2612"}], [{"donor_id": 131269, "city": "new york", "name": "dea cope fund", "zip": "10007", "state": "ny", "street": "26 thomas street"}, {"donor_id": 131275, "city": "new york", "name": "dea cope fund", "zip": "10007", "state": "ny", "street": "26 thomas street"}], [{"donor_id": 145208, "city": "albany", "name": " new york state laborer's pac-state fund", "zip": "12211", "state": "ny", "street": "18 corporate woods boulevard"}, {"donor_id": 144007, "city": "albany", "name": "new york state laborers pac", "zip": "12211", "state": "ny", "street": "18 corporate woods boulevard"}], [{"donor_id": 144007, "city": "albany", "name": "new york state laborers pac", "zip": "12211", "state": "ny", "street": "18 corporate woods boulevard"}, {"donor_id": 144014, "city": "albany", "name": "new york state laborers pac state fund", "zip": "12211", "state": "ny", "street": "18 corporate woods boulevard"}], [{"donor_id": 151286, "city": "floral park", "name": "tbta superior officers benevolent association pac", "zip": "11001", "state": "ny", "street": "225 jericho turnpike #201"}, {"donor_id": 151282, "city": "floral park", "name": "tbta superior officers bene pac", "zip": "11001", "state": "ny", "street": "225 jericho turnpike"}], [{"donor_id": 127840, "city": "long island cit", "name": "bricklayers & allied craftworkers local 1 new york  pac", "zip": "11101", "state": "ny", "street": "4 court square"}, {"donor_id": 127841, "city": "long island city", "name": "bricklayers & allied craftworkers local 1 pac", "zip": "11101", "state": "ny", "street": "4 court square"}], [{"donor_id": 146548, "city": "albany", "name": "pepsi cola bottlers pac", "zip": "12207", "state": "ny", "street": "99 pine street"}, {"donor_id": 146549, "city": "albany", "name": "pepsi cola bottlers pac", "zip": "12207", "state": "ny", "street": "99 pine street, 2nd floor"}], [{"donor_id": 124606, "city": "new york", "name": "1199 seiu - new york state  political action fund", "zip": "10108", "state": "ny", "street": "box 2612"}, {"donor_id": 124624, "city": "new york", "name": "1199 seiu new york state  political action fund", "zip": "10108", "state": "ny", "street": null}], [{"donor_id": 152308, "city": "albany", "name": "tow pac", "zip": "12210", "state": "ny", "street": "130 washington aave"}, {"donor_id": 152313, "city": "albany", "name": "tow pac", "zip": "12210", "state": "ny", "street": null}], [{"donor_id": 124627, "city": "new york", "name": "1199 seiu pac", "zip": "10108", "state": "ny", "street": "po box 2612"}, {"donor_id": 124614, "city": "new york", "name": "1199 seiu new york state  pac", "zip": "10108", "state": "ny", "street": "po box 2612"}], [{"donor_id": 145527, "city": "albany", "name": "nyspia political cmte", "zip": "12210", "state": "ny", "street": "96 south swan street"}, {"donor_id": 145534, "city": "albany", "name": "nyspia political committee", "zip": "12210", "state": "ny", "street": "96 s swan street"}], [{"donor_id": 151791, "city": "new york", "name": "the life insurance council of new york pac", "zip": "10176", "state": "ny", "street": "551 5th avenue"}, {"donor_id": 140467, "city": "new york", "name": "life insurance council of new york  pac", "zip": "10176", "state": "ny", "street": "551 5th avenue"}], [{"donor_id": 143932, "city": "albany", "name": "new york state afl-cio cope", "zip": "12210.0", "state": "ny", "street": "100 south swan street"}, {"donor_id": 144977, "city": "albany", "name": " new york state afl-cio cope", "zip": "12210", "state": "ny", "street": "100 s swan street"}], [{"donor_id": 140630, "city": "westbury", "name": "local 1102 rwdsu", "zip": "11590.0", "state": "ny", "street": "1587 stewart avenue"}, {"donor_id": 140628, "city": "westbury", "name": "local 1102 rwdsu", "zip": "11590", "state": "ny", "street": "1587 stewart avenue"}], [{"donor_id": 139256, "city": "albany", "name": "keycorp advocates fun", "zip": "12207", "state": "ny", "street": "60 state street"}, {"donor_id": 139258, "city": "albany", "name": "keycorp advocates fund new york ", "zip": "12207", "state": "ny", "street": "60 state street"}], [{"donor_id": 128645, "city": "orchard park", "name": "capital markets advisors, llc", "zip": "14127", "state": "ny", "street": "4211 north buffalo road, suite 19"}, {"donor_id": 128642, "city": "orchard park", "name": "capital markets advisors llc", "zip": "14127", "state": "ny", "street": "4211 north buffalo road"}], [{"donor_id": 130769, "city": "new york", "name": "council of school supervisors & administratorsloca", "zip": "10006", "state": "ny", "street": "40 rector street"}, {"donor_id": 130768, "city": "new york", "name": "council of school supervisors & administrators pac", "zip": "10006", "state": "ny", "street": "40 rector street"}], [{"donor_id": 132891, "city": "albany", "name": "empire liquor store association", "zip": "12203", "state": "ny", "street": "1450 western avenue"}, {"donor_id": 132890, "city": "albany", "name": "empire liquor store association", "zip": "12203", "state": "ny", "street": "1450 western avenue suite 101"}], [{"donor_id": 136097, "city": "whitestone", "name": "greater new york auto dealer ass", "zip": "11357", "state": "ny", "street": "18-10 whitestone expwy"}, {"donor_id": 136120, "city": "whitestone", "name": "greater new york  auto dealers assoc paf", "zip": "11357", "state": "ny", "street": "18-10 whitestone expwy"}], [{"donor_id": 136107, "city": "whitestone", "name": "greater new york auto dealers association inc", "zip": "11357.0", "state": "ny", "street": "18-10 whitestone expressway"}, {"donor_id": 151697, "city": "whitestone", "name": "the greater new york  auto dealers associnc,", "zip": "11357", "state": "ny", "street": "18-10 whitestone expressway"}], [{"donor_id": 152976, "city": "new york", "name": "uniformed sanitationmen's asoc", "zip": "10038", "state": "ny", "street": "25 cliff street"}, {"donor_id": 152971, "city": "new york", "name": "uniformed sanitation assn", "zip": "10038", "state": "ny", "street": "25 cliff street"}], [{"donor_id": 150877, "city": "west sayville", "name": "suffolk cty detectives assoc", "zip": "11796", "state": "ny", "street": "465 montauk highway"}, {"donor_id": 150879, "city": "west sayville", "name": "suffolk ctydetectives ass", "zip": "11796", "state": "ny", "street": "465 montauk highway"}], [{"donor_id": 147307, "city": "cheektowaga", "name": "progressive democrats of cheektowaga", "zip": null, "state": "ny", "street": null}, {"donor_id": 147304, "city": "cheektowaga", "name": "progressive democrats of cheektowaga", "zip": "14227", "state": "ny", "street": "50 red oak drive"}], [{"donor_id": 153323, "city": "albany", "name": "urht association of new york state  pac", "zip": "12207", "state": "ny", "street": "c/o 12 sheridan avenue"}, {"donor_id": 153320, "city": "albany", "name": "urht assoc of new york  statewide pac", "zip": "12210", "state": "ny", "street": "40 sheridan avenue"}], [{"donor_id": 152954, "city": "new york", "name": "uniformed firefighters assn firepac-state", "zip": "10010", "state": "ny", "street": "204 east 23rd street"}, {"donor_id": 152966, "city": "new york", "name": "uniformed firefighters association-firepac", "zip": "10010", "state": "ny", "street": "204 eastreet 23 street"}], [{"donor_id": 147373, "city": "albany", "name": "public employees fed pac", "zip": "12212", "state": "ny", "street": "po box 12414"}, {"donor_id": 147387, "city": "albany", "name": "public employees federation pac", "zip": "12414", "state": "ny", "street": "po box 12414"}], [{"donor_id": 132846, "city": "albany", "name": "empire dental pac", "zip": "12211", "state": "ny", "street": "20  corporate woods, suite 602"}, {"donor_id": 132852, "city": "albany", "name": "empire dental pac", "zip": "12211", "state": "ny", "street": "20 corporate woods blvd, suite 602"}], [{"donor_id": 137925, "city": "albany", "name": "ippny - pac", "zip": "12210", "state": "ny", "street": "19 dove street, suite 302"}, {"donor_id": 137938, "city": "albany", "name": "ippny-pac", "zip": "12210", "state": "ny", "street": "19 dove street, suite 302"}], [{"donor_id": 150351, "city": "armonk", "name": "stars and stripes pac", "zip": "10504", "state": "ny", "street": "ste 309, 80 business park drive"}, {"donor_id": 150341, "city": "armonk", "name": "stars & stripes pac", "zip": "10504", "state": "ny", "street": "80 business park dr, suite 309"}], [{"donor_id": 135259, "city": "rochester", "name": "friends to re-elect judge nesser", "zip": "14618", "state": "ny", "street": "110 ellingwood drive"}, {"donor_id": 135258, "city": "rochester", "name": "friends to re-elect jodge nesser", "zip": "14618", "state": "ny", "street": "110 ellingwood drive"}], [{"donor_id": 146406, "city": "new york", "name": "pba of the city of new york  pac", "zip": "10004", "state": "ny", "street": "125 broad street"}, {"donor_id": 146301, "city": "new york", "name": "patrolmen's benevolent assoc  new york city  pac", "zip": "10004.0", "state": "ny", "street": "fl 11, 125 broad street"}], [{"donor_id": 145531, "city": "albany", "name": "nyspia political committee", "zip": "12207", "state": "ny", "street": "11 north pearl street- suite 202"}, {"donor_id": 145537, "city": "albany", "name": "nyspia political committee", "zip": "12210", "state": "ny", "street": "96 south swan street"}], [{"donor_id": 143941, "city": null, "name": "new york state afl-cio cope account", "zip": null, "state": null, "street": null}, {"donor_id": 143939, "city": "albany", "name": "new york state afl-cio cope account", "zip": "12210", "state": "ny", "street": "100 south swan street"}], [{"donor_id": 143332, "city": "mineola", "name": "nassau county pba", "zip": "11501", "state": "ny", "street": "89 east jericho turnpike"}, {"donor_id": 143333, "city": "mineola", "name": "nassau county pba pac", "zip": "11501", "state": "ny", "street": "89 e jericho turnpike"}], [{"donor_id": 136628, "city": null, "name": "harter secrest & emery llp", "zip": null, "state": null, "street": null}, {"donor_id": 136637, "city": "rochester", "name": "harter, secrest & emery llp", "zip": "10604", "state": "ny", "street": "1600 bausch & lomb place"}], [{"donor_id": 128390, "city": "new york", "name": "cwa district 1 pac", "zip": "10005", "state": "ny", "street": "80 pine street"}, {"donor_id": 131123, "city": "new york", "name": "cwa district 1", "zip": "10005.0", "state": "ny", "street": "80 pine street"}], [{"donor_id": 144852, "city": "albany", "name": "nyahsa pac", "zip": "12207", "state": "ny", "street": "150 state st, suite 301"}, {"donor_id": 144856, "city": "albany", "name": "nyahsa pac", "zip": "12210", "state": "ny", "street": "1550 state street"}], [{"donor_id": 150436, "city": null, "name": "steamfitters local 638", "zip": null, "state": null, "street": null}, {"donor_id": 150437, "city": "long island cit", "name": "steamfitters local 638 pac", "zip": "11101", "state": "ny", "street": "32-32 48th avenue"}], [{"donor_id": 152776, "city": null, "name": "ua steamfitters lu 638", "zip": null, "state": null, "street": null}, {"donor_id": 152733, "city": "queens", "name": "ua steamfitters lu 638", "zip": "11101", "state": "ny", "street": "32-32 48th avenue"}], [{"donor_id": 127836, "city": "long island city", "name": "bricklayers & allied craftworkers lcl1", "zip": "11101", "state": "ny", "street": "4 court square"}, {"donor_id": 127851, "city": "long island city", "name": "bricklayers and allied craft workers lcl1, pac", "zip": "11101", "state": "ny", "street": "4 court square"}], [{"donor_id": 138899, "city": null, "name": "jpmorgan chase & co", "zip": null, "state": null, "street": null}, {"donor_id": 138871, "city": "new york", "name": "jp morgan chase & co", "zip": "10017", "state": "ny", "street": "fl 37, 270 park avenue"}], [{"donor_id": 148793, "city": "rego park", "name": "rwdsu local 338", "zip": "11374", "state": "ny", "street": "97-45 queens boulevard"}, {"donor_id": 140749, "city": "rego park", "name": "local 338 rwdsu / ufcw", "zip": "11374", "state": "ny", "street": "97-45 queens boulevard"}], [{"donor_id": 137433, "city": "washington", "name": "ibew", "zip": "20001", "state": "dc", "street": "900 7th street nw"}, {"donor_id": 137539, "city": "washington", "name": "ibew local 237", "zip": "20001", "state": "dc", "street": "900 seventh street"}], [{"donor_id": 152892, "city": "new york", "name": "uniform fire officers lo854", "zip": "10001", "state": "ny", "street": "225 broadway #401"}, {"donor_id": 152937, "city": "new york", "name": "uniformed fire officers local 854", "zip": "10007", "state": "ny", "street": "225 broadway"}], [{"donor_id": 154489, "city": "albany", "name": "wilson,elser,moskowitz,edelman & dicker pac", "zip": "12207", "state": "ny", "street": "one steuben place"}, {"donor_id": 154490, "city": "albany", "name": "wilson,elser,moskowitz,edelman & dicker,llp", "zip": "12207", "state": "ny", "street": "677 broadway"}], [{"donor_id": 125015, "city": "albany", "name": "a smyth advocacy", "zip": "12224", "state": "ny", "street": "po box 7124"}, {"donor_id": 125053, "city": "albany", "name": "a smyth advocacy", "zip": "12207", "state": "ny", "street": "17 elk st-5th floor"}], [{"donor_id": 146971, "city": "howard beach", "name": "plumbers local union #1  new york city ", "zip": "11414", "state": "ny", "street": "158-29 crossbay boulevard"}, {"donor_id": 146977, "city": "queens", "name": "plumbers local union #1  new york city ", "zip": "11414", "state": "ny", "street": "158-29 george meany boulevard"}], [{"donor_id": 153681, "city": "latham", "name": "voice of teachers for education committee", "zip": "12110", "state": "ny", "street": "800 troy-schenectady road"}, {"donor_id": 153751, "city": "latham", "name": "vote/cope (voice of teachers for education)", "zip": "12110", "state": "ny", "street": "800 troy-schenectady road"}], [{"donor_id": 136749, "city": "albany", "name": "healthcare providers pac", "zip": "12211", "state": "ny", "street": "20 corporate woods boulevard, 2nd floor"}, {"donor_id": 136728, "city": "east greenbush", "name": "health care providers pac", "zip": "12061", "state": "ny", "street": "99 troy rd, suite 200"}], [{"donor_id": 124612, "city": "new york", "name": "1199 seiu new york state ", "zip": "10106", "state": "ny", "street": "po box 2612"}, {"donor_id": 124597, "city": "new york", "name": "1199 seiu", "zip": "10036", "state": "ny", "street": "310 w 43rd street"}], [{"donor_id": 124599, "city": "new york", "name": "1199 seiu", "zip": "10108.0", "state": "ny", "street": "po box 2612"}, {"donor_id": 124611, "city": "new york", "name": "1199 seiu new york state ", "zip": "10036", "state": "ny", "street": "330 w 42nd street 7th floor"}], [{"donor_id": 148680, "city": "albany", "name": "rpac of new york state ", "zip": "12210", "state": "ny", "street": "130 wahington avenue"}, {"donor_id": 148683, "city": "la", "name": "rpac of new york state ", "zip": "12210", "state": "ny", "street": "130 washington avenue"}], [{"donor_id": 142183, "city": "new hyde park", "name": "medical society of the state of new york  pac", "zip": "11042", "state": "ny", "street": "420 lakeville road"}, {"donor_id": 142185, "city": "albany", "name": "medical society of the state of new york  pac", "zip": "12210", "state": "ny", "street": "99 washington avenue"}], [{"donor_id": 124625, "city": "new york", "name": "1199 seiu pac", "zip": "10036", "state": "ny", "street": "310 westreet 43rd street"}, {"donor_id": 124633, "city": "ny", "name": "1199 seiu- new york state paf", "zip": "10108", "state": "ny", "street": "po box 2612"}], [{"donor_id": 145038, "city": "akron", "name": " new york state assoc of electrical workers", "zip": "14001", "state": "ny", "street": "6396 dye road"}, {"donor_id": 145057, "city": "schenectady", "name": " new york state association of electrial workers", "zip": "12305", "state": "ny", "street": "105  clinton street"}], [{"donor_id": 143011, "city": "albany", "name": "mpac", "zip": "12210", "state": "ny", "street": "111 washington avenue, 3rd floor"}, {"donor_id": 143014, "city": "yonkers", "name": "mpac", "zip": "10704", "state": "ny", "street": "733 yonkers avenue"}], [{"donor_id": 140749, "city": "rego park", "name": "local 338 rwdsu / ufcw", "zip": "11374", "state": "ny", "street": "97-45 queens boulevard"}, {"donor_id": 140758, "city": "mineola", "name": "local 338 rwdsu/ufcw", "zip": "11501", "state": "ny", "street": "1505 kellum place"}], [{"donor_id": 136087, "city": "whitestone", "name": "greate bt auto dealers assn", "zip": "11357", "state": "ny", "street": "18-10 whitestone expressway"}, {"donor_id": 136125, "city": "whitestone", "name": "greater new york  auto dealers assoc pac", "zip": "11357", "state": "ny", "street": "18-10 whitestone expwy"}], [{"donor_id": 152735, "city": "long island city", "name": "ua steamfitters local 638", "zip": "11101", "state": "ny", "street": "27-08 40th avenue"}, {"donor_id": 150431, "city": "long island cit", "name": "steamfitters local 638", "zip": "11101", "state": "ny", "street": "32-32 48th avenue"}], [{"donor_id": 131179, "city": "new york", "name": "cwa local 1180", "zip": "10013", "state": "ny", "street": "6 harrison street"}, {"donor_id": 144622, "city": "ny", "name": "ny admin employees cwa local 1180", "zip": "10013", "state": "ny", "street": "6 harrison street 4th fl"}], [{"donor_id": 126484, "city": "new york", "name": "at&t pac - new york", "zip": "10013.0", "state": "ny", "street": "32 avenue of the americas"}, {"donor_id": 126485, "city": "new york", "name": "at&t pac new york", "zip": "10013", "state": "ny", "street": "32 avenueu of the americas"}], [{"donor_id": 131828, "city": "plainview", "name": "detectives association incorporated", "zip": "11803", "state": "ny", "street": "777 old country road"}, {"donor_id": 143367, "city": "plainview", "name": "nassau detectives assn pac", "zip": "11803", "state": "ny", "street": "777 old country road"}], [{"donor_id": 144762, "city": "glenmont", "name": "ny pia", "zip": "12077", "state": "ny", "street": "po box 997"}, {"donor_id": 147283, "city": "glenmont", "name": "professional insurance wholesalers assn", "zip": "12077", "state": "ny", "street": "po box 997"}], [{"donor_id": 140669, "city": "queens", "name": "local 1500 pol candidates", "zip": "11428", "state": "ny", "street": "221-10 jamaica avenue #3fl"}, {"donor_id": 152806, "city": "queens village", "name": "ufcw local 1500", "zip": "11428", "state": "ny", "street": "221-10 jamaica avenue"}], [{"donor_id": 141178, "city": "hicksville", "name": "lucchesi engineering pc", "zip": "11801.0", "state": "ny", "street": "268 north broadway"}, {"donor_id": 141180, "city": "west babylon", "name": "lucchesi engineering pc", "zip": "11704", "state": "ny", "street": "770 railroad avenue"}], [{"donor_id": 139559, "city": "newburgh", "name": "l 445", "zip": "12550", "state": "ny", "street": "po box 2097"}, {"donor_id": 140822, "city": "newburgh", "name": "local 445", "zip": "12550", "state": "ny", "street": "po box 2097"}], [{"donor_id": 128408, "city": "woodbury", "name": "cablevision  systems new york pac", "zip": "11797", "state": "ny", "street": "one media crossways"}, {"donor_id": 128420, "city": "bethpage", "name": "cablevision systems new york  pac", "zip": "11714", "state": "ny", "street": "1111 stewart avenue"}], [{"donor_id": 137445, "city": "new city", "name": "ibew local union #363", "zip": "10956", "state": "ny", "street": "9 johnson lane"}, {"donor_id": 137549, "city": "new city", "name": "ibew local 363", "zip": "10926", "state": "ny", "street": "67 commercer drive south"}], [{"donor_id": 143724, "city": "new york", "name": "new york administrative employees cwa 1180", "zip": "10013", "state": "ny", "street": "6 harrison street 4th fl"}, {"donor_id": 143726, "city": "new york", "name": "new york administrative employers cwa local 1180", "zip": "10013", "state": "ny", "street": "5 harrison street"}], [{"donor_id": 144066, "city": "albany", "name": "new york state restaurant assoc", "zip": "12205", "state": "ny", "street": "409 new karner road"}, {"donor_id": 144825, "city": "albany", "name": "ny state restaurant assoc industry pac", "zip": "12205", "state": "ny", "street": "409 new karner road"}], [{"donor_id": 140463, "city": "new york", "name": "life insurance council of new york", "zip": "10176", "state": "ny", "street": "551 5th avenue"}, {"donor_id": 152009, "city": "new york", "name": "thelife insurance council ofny pac", "zip": "10176", "state": "ny", "street": "551 5th avenue"}], [{"donor_id": 128408, "city": "woodbury", "name": "cablevision  systems new york pac", "zip": "11797", "state": "ny", "street": "one media crossways"}, {"donor_id": 128422, "city": "bethpage", "name": "cablevision systems new york  pac", "zip": "11714", "state": "ny", "street": "1111 stewart avenue"}], [{"donor_id": 124598, "city": "new york", "name": "1199 seiu", "zip": "10036.0", "state": "ny", "street": "310 west 43rd street"}, {"donor_id": 124600, "city": "ny", "name": "1199 seiu", "zip": "10108", "state": "ny", "street": "po box 2612"}], [{"donor_id": 154235, "city": "amherst", "name": "western new york  uaw pac council - region 9", "zip": "14221", "state": "ny", "street": "35 george karl boulevard suite 100"}, {"donor_id": 154236, "city": "cheektowaga", "name": "western new york  uaw pac council - region 9", "zip": "14225", "state": "ny", "street": "4285 genesee street"}], [{"donor_id": 124631, "city": "new york", "name": "1199 seiu, paf", "zip": "10108", "state": "ny", "street": "po box 2612"}, {"donor_id": 124638, "city": "new york", "name": "1199seiu - new york state  pac", "zip": "10108", "state": "ny", "street": "po box 2612"}], [{"donor_id": 148676, "city": "west babylon", "name": "rpac of new york state", "zip": "11704", "state": "ny", "street": "300 sunrise highway"}, {"donor_id": 148685, "city": "albany", "name": "rpac of new york state ", "zip": "12210", "state": "ny", "street": "130 washington avenue"}], [{"donor_id": 124601, "city": "new york", "name": "1199 seiu", "zip": "10108", "state": "ny", "street": "po box 2612"}, {"donor_id": 124636, "city": "ny", "name": "1199 seiv new york state  pac", "zip": "10036", "state": "ny", "street": "310 w 43rd street"}], [{"donor_id": 131180, "city": "new york", "name": "cwa local 1180", "zip": "10013.0", "state": "ny", "street": "6 harrison street"}, {"donor_id": 144624, "city": "new york", "name": "ny administrative employees - cwa 1180", "zip": "10013.0", "state": "ny", "street": "6 harrison street 4/f"}], [{"donor_id": 127856, "city": "long isl city", "name": "bricklayers and allied craftworkers, local 1 pac", "zip": "11101", "state": "ny", "street": "4 court square"}, {"donor_id": 140626, "city": "long island cit", "name": "local 1 bricklayers", "zip": "11101", "state": "ny", "street": "4 court square"}], [{"donor_id": 137603, "city": "new york", "name": "ibt local 237", "zip": "10011", "state": "ny", "street": "216 west 14th street"}, {"donor_id": 140698, "city": "new york", "name": "local 237, teamsters", "zip": "10011", "state": "ny", "street": "216 west 14th street"}], [{"donor_id": 137598, "city": "new york", "name": "ibt joint council no 16 pac", "zip": "10011", "state": "ny", "street": "265 west 14th street 1201"}, {"donor_id": 151339, "city": "new york", "name": "teamsters joint council #16", "zip": "10011", "state": "ny", "street": "265 w 14th street"}], [{"donor_id": 153771, "city": "latham", "name": "vote/cope of the new york state united teachers", "zip": "12110", "state": "ny", "street": "800 troy schenectady road"}, {"donor_id": 153732, "city": "latham", "name": "vote-cope committee on political education of the", "zip": "12110", "state": "ny", "street": "800 troy schenectady road"}], [{"donor_id": 140739, "city": "new york", "name": "local 32bj seiu holding acct", "zip": "10011", "state": "ny", "street": "25 west 18th street"}, {"donor_id": 140742, "city": "new york", "name": "local 32bj seiu new york /nj american dream fund", "zip": "10013", "state": "ny", "street": "101 avenue of the americas"}], [{"donor_id": 131189, "city": "new york", "name": "cwa local 6 mailers", "zip": "10001", "state": "ny", "street": "352 seventh avenue rm 501"}, {"donor_id": 131190, "city": "new york", "name": "cwa local 6 typographical", "zip": "10001", "state": "ny", "street": "352 seventh avenue, suite 601"}], [{"donor_id": 149954, "city": "rochester", "name": "smith barney", "zip": "14625", "state": "ny", "street": "360 linden oaks, 3rd fl"}, {"donor_id": 149956, "city": "ny", "name": "smith barney", "zip": "10153", "state": "ny", "street": "767 5th avenue"}], [{"donor_id": 145321, "city": "albany", "name": " new york state public employees federation", "zip": "12212", "state": "ny", "street": "po bo x12414"}, {"donor_id": 147392, "city": "albany", "name": "public employess federation pac", "zip": "12212", "state": "ny", "street": "po box 12414"}], [{"donor_id": 145023, "city": "orchard park", "name": " new york state assoc of electrical workers", "zip": "14127", "state": "ny", "street": "po box 772"}, {"donor_id": 145020, "city": "akron", "name": " new york state assoc of electrical workers", "zip": "14001", "state": "ny", "street": "6396 dye road"}], [{"donor_id": 124807, "city": "new york", "name": "32bj united adf", "zip": "10011", "state": "ny", "street": "25 w 18th street fl 5"}, {"donor_id": 140731, "city": "new york", "name": "local 32bj new york /nj american dream fund", "zip": "0013", "state": "ny", "street": "101 avenue of the americas"}], [{"donor_id": 130732, "city": "albany", "name": "council 82 afscme pac", "zip": "12206", "state": "ny", "street": "63 colvin avenue"}, {"donor_id": 139903, "city": "albany", "name": "law enforcement officers union council 82", "zip": "12206", "state": "ny", "street": "63 colvin avenue"}], [{"donor_id": 124815, "city": "new york", "name": "32bj united adf pac", "zip": "10011", "state": "ny", "street": "25 west 18th street, fl 5"}, {"donor_id": 140731, "city": "new york", "name": "local 32bj new york /nj american dream fund", "zip": "0013", "state": "ny", "street": "101 avenue of the americas"}], [{"donor_id": 124804, "city": "new york", "name": "32bj united adf", "zip": "10011", "state": "ny", "street": "25 w 18th street  fl5"}, {"donor_id": 140722, "city": "new york", "name": "local 32bj new york  nj dream fund", "zip": "10013", "state": "ny", "street": "101 avenue of americas"}], [{"donor_id": 140688, "city": "ronkonkoma", "name": "local 200", "zip": "11779", "state": "ny", "street": "2123 5th avenue"}, {"donor_id": 146934, "city": "ronkonkoma", "name": "plumbers  local union #200", "zip": "11779", "state": "ny", "street": "2123 5th avenue"}], [{"donor_id": 125421, "city": "new york", "name": "afscme local 1549", "zip": "10007", "state": "ny", "street": "125 barclay street"}, {"donor_id": 140680, "city": "new york", "name": "local 1549", "zip": "10007", "state": "ny", "street": "125 barclay street"}], [{"donor_id": 131500, "city": "new york", "name": "dc 37 afscme - political action  committee", "zip": "10007", "state": "ny", "street": "125 barclay street"}, {"donor_id": 131947, "city": "new york", "name": "district council 37 political action committee", "zip": "10007", "state": "ny", "street": "125 barclay street"}], [{"donor_id": 146701, "city": "albany", "name": "pharmacy pac of new york state ", "zip": "12203", "state": "ny", "street": "210 washington avenue extension suite 101"}, {"donor_id": 146708, "city": "albany", "name": "pharmacy pac of new york state ", "zip": "12205", "state": "ny", "street": "pine west plaza iv, washington avenue extension"}], [{"donor_id": 154459, "city": "albany", "name": "wilson, elser, moskowitz edelman & dicker llp pac", "zip": "12207", "state": "ny", "street": "677 broadway"}, {"donor_id": 154463, "city": "albany", "name": "wilson, elser, moskowitz, edelman & decker, llp", "zip": "12207", "state": "ny", "street": "one steuben place"}], [{"donor_id": 144879, "city": "brooklyn", "name": " new york city  deputy sheriff's assn pac", "zip": "11235", "state": "ny", "street": "2753 coney island avenue"}, {"donor_id": 144880, "city": "flushing", "name": " new york city  deputy sheriff's assn pac", "zip": "11358", "state": "ny", "street": "3622a francis lewis blvd, suite 208"}], [{"donor_id": 152636, "city": "albany", "name": "tuition assistance program pac", "zip": "12210", "state": "ny", "street": "99 washington avenue"}, {"donor_id": 152634, "city": "albany", "name": "tuition assistance program pac", "zip": "12207", "state": "ny", "street": "121 streetate street"}]]}